{"type": "FeatureCollection", "features": [{"type": "Feature", "properties": {"osm_id": 1727325747, "name": "一教(First Teaching Building)", "category": "school", "poi_type": "sensitive", "tags": {"amenity": "school", "name": "一教(First Teaching Building)"}}, "geometry": {"type": "Point", "coordinates": [106.6017569, 29.5342445]}}, {"type": "Feature", "properties": {"osm_id": 1727325766, "name": "七教(Seventh Teaching Building)", "category": "school", "poi_type": "sensitive", "tags": {"amenity": "school", "name": "七教(Seventh Teaching Building)"}}, "geometry": {"type": "Point", "coordinates": [106.6011716, 29.5352202]}}, {"type": "Feature", "properties": {"osm_id": 1727325767, "name": "信科大楼(Information Technology Building)", "category": "school", "poi_type": "sensitive", "tags": {"amenity": "school", "name": "信科大楼(Information Technology Building)"}}, "geometry": {"type": "Point", "coordinates": [106.6010059, 29.5338337]}}, {"type": "Feature", "properties": {"osm_id": 2828708472, "name": "大坪派出所", "category": "police", "poi_type": "sensitive", "tags": {"addr:street": "长江二路", "amenity": "police", "name": "大坪派出所"}}, "geometry": {"type": "Point", "coordinates": [106.5146914, 29.5419098]}}, {"type": "Feature", "properties": {"osm_id": 2835412161, "name": "九龙坡第一人民医院", "category": "hospital", "poi_type": "sensitive", "tags": {"amenity": "hospital", "name": "九龙坡第一人民医院"}}, "geometry": {"type": "Point", "coordinates": [106.5093242, 29.5099172]}}, {"type": "Feature", "properties": {"osm_id": 3179109946, "name": "重庆复旦高中", "category": "school", "poi_type": "sensitive", "tags": {"amenity": "school", "name": "重庆复旦高中", "name:en": "Fudan High School"}}, "geometry": {"type": "Point", "coordinates": [106.5727625, 29.554115]}}, {"type": "Feature", "properties": {"osm_id": 4139951946, "name": "重庆二十九中学", "category": "school", "poi_type": "sensitive", "tags": {"amenity": "school", "name": "重庆二十九中学", "name:en": "Chongqing No.29 High School"}}, "geometry": {"type": "Point", "coordinates": [106.5690493, 29.5610226]}}, {"type": "Feature", "properties": {"osm_id": 4139951947, "name": "重庆医科大学附属第二医院", "category": "hospital", "poi_type": "sensitive", "tags": {"amenity": "hospital", "name": "重庆医科大学附属第二医院"}}, "geometry": {"type": "Point", "coordinates": [106.5698495, 29.5627506]}}, {"type": "Feature", "properties": {"osm_id": 4139952095, "name": "重庆骨科医院", "category": "hospital", "poi_type": "sensitive", "tags": {"amenity": "hospital", "name": "重庆骨科医院", "name:en": "Chongqing Orthopaedics Hospital"}}, "geometry": {"type": "Point", "coordinates": [106.5729069, 29.5554739]}}, {"type": "Feature", "properties": {"osm_id": 4139987104, "name": "康平医院", "category": "hospital", "poi_type": "sensitive", "tags": {"amenity": "hospital", "name": "康平医院", "name:en": "Kangping Hospital", "name:zh": "康平医院"}}, "geometry": {"type": "Point", "coordinates": [106.5635368, 29.5243072]}}, {"type": "Feature", "properties": {"osm_id": 4140409990, "name": "江南小学", "category": "school", "poi_type": "sensitive", "tags": {"amenity": "school", "name": "江南小学", "name:en": "Jiangnan Primary School"}}, "geometry": {"type": "Point", "coordinates": [106.5681232, 29.5131117]}}, {"type": "Feature", "properties": {"osm_id": 4140850960, "name": "玛瑙学校", "category": "school", "poi_type": "sensitive", "tags": {"amenity": "school", "name": "玛瑙学校"}}, "geometry": {"type": "Point", "coordinates": [106.5706094, 29.5385617]}}, {"type": "Feature", "properties": {"osm_id": 4140851198, "name": "重庆市第七人民医院", "category": "hospital", "poi_type": "sensitive", "tags": {"amenity": "hospital", "name": "重庆市第七人民医院", "name:en": "Chongqing No.7 Hospital"}}, "geometry": {"type": "Point", "coordinates": [106.5444741, 29.4719364]}}, {"type": "Feature", "properties": {"osm_id": 4143800235, "name": "拜博口腔医院", "category": "hospital", "poi_type": "sensitive", "tags": {"amenity": "hospital", "name": "拜博口腔医院"}}, "geometry": {"type": "Point", "coordinates": [106.4981129, 29.5253807]}}, {"type": "Feature", "properties": {"osm_id": 4143850848, "name": "中山小学", "category": "school", "poi_type": "sensitive", "tags": {"amenity": "school", "name": "中山小学", "name:en": "Zhongshan Primary School"}}, "geometry": {"type": "Point", "coordinates": [106.5577242, 29.5605382]}}, {"type": "Feature", "properties": {"osm_id": 4143850865, "name": "重庆市口腔医院", "category": "hospital", "poi_type": "sensitive", "tags": {"amenity": "hospital", "name": "重庆市口腔医院", "name:en": "Chongqing Stomatological Hospital"}}, "geometry": {"type": "Point", "coordinates": [106.5427841, 29.5623741]}}, {"type": "Feature", "properties": {"osm_id": 4143911824, "name": "沙坪坝实验中学", "category": "school", "poi_type": "sensitive", "tags": {"amenity": "school", "name": "沙坪坝实验中学"}}, "geometry": {"type": "Point", "coordinates": [106.4669566, 29.5583344]}}, {"type": "Feature", "properties": {"osm_id": 4143911825, "name": "重庆市七十一中学", "category": "school", "poi_type": "sensitive", "tags": {"amenity": "school", "name": "重庆市七十一中学", "name:en": "Chongqing No.71 High School"}}, "geometry": {"type": "Point", "coordinates": [106.464951, 29.5587148]}}, {"type": "Feature", "properties": {"osm_id": 5340111184, "name": "大白诊所（鲁能星城综合门诊部）", "category": "clinic", "poi_type": "sensitive", "tags": {"amenity": "clinic", "name": "大白诊所（鲁能星城综合门诊部）"}}, "geometry": {"type": "Point", "coordinates": [106.5590096, 29.6044815]}}, {"type": "Feature", "properties": {"osm_id": 5406642614, "name": "天宫殿学校", "category": "school", "poi_type": "sensitive", "tags": {"amenity": "school", "name": "天宫殿学校"}}, "geometry": {"type": "Point", "coordinates": [106.5504289, 29.6041646]}}, {"type": "Feature", "properties": {"osm_id": 5473007183, "name": "重庆社会主义学院", "category": "college", "poi_type": "sensitive", "tags": {"amenity": "college", "name": "重庆社会主义学院"}}, "geometry": {"type": "Point", "coordinates": [106.5926633, 29.557732]}}, {"type": "Feature", "properties": {"osm_id": 5614646859, "name": "井口医院", "category": "hospital", "poi_type": "sensitive", "tags": {"amenity": "hospital", "name": "井口医院"}}, "geometry": {"type": "Point", "coordinates": [106.441201, 29.6390877]}}, {"type": "Feature", "properties": {"osm_id": 5614646865, "name": "星光幼儿园", "category": "school", "poi_type": "sensitive", "tags": {"amenity": "school", "name": "星光幼儿园"}}, "geometry": {"type": "Point", "coordinates": [106.4421733, 29.6389607]}}, {"type": "Feature", "properties": {"osm_id": 6631214656, "name": "", "category": "police", "poi_type": "sensitive", "tags": {"amenity": "police"}}, "geometry": {"type": "Point", "coordinates": [106.5774209, 29.5646207]}}, {"type": "Feature", "properties": {"osm_id": 7304223128, "name": "", "category": "school", "poi_type": "sensitive", "tags": {"amenity": "school"}}, "geometry": {"type": "Point", "coordinates": [106.4600274, 29.5733046]}}, {"type": "Feature", "properties": {"osm_id": 7873546275, "name": "渝中利奥幼儿园", "category": "kindergarten", "poi_type": "sensitive", "tags": {"amenity": "kindergarten", "name": "渝中利奥幼儿园"}}, "geometry": {"type": "Point", "coordinates": [106.5186206, 29.5399828]}}, {"type": "Feature", "properties": {"osm_id": 8987420649, "name": "小龙坎派出所", "category": "police", "poi_type": "sensitive", "tags": {"addr:street": "小龙坎正街", "amenity": "police", "name": "小龙坎派出所"}}, "geometry": {"type": "Point", "coordinates": [106.4613989, 29.555715]}}, {"type": "Feature", "properties": {"osm_id": 11479063727, "name": "石坪桥派出所", "category": "police", "poi_type": "sensitive", "tags": {"amenity": "police", "name": "石坪桥派出所"}}, "geometry": {"type": "Point", "coordinates": [106.5053737, 29.5199949]}}, {"type": "Feature", "properties": {"osm_id": 11502856884, "name": "重庆铁路运输技师学院", "category": "college", "poi_type": "sensitive", "tags": {"amenity": "college", "name": "重庆铁路运输技师学院"}}, "geometry": {"type": "Point", "coordinates": [106.4376394, 29.5093352]}}, {"type": "Feature", "properties": {"osm_id": 11805098451, "name": "渝高中学", "category": "school", "poi_type": "sensitive", "tags": {"amenity": "school", "name": "渝高中学"}}, "geometry": {"type": "Point", "coordinates": [106.4754502, 29.5291543]}}, {"type": "Feature", "properties": {"osm_id": 11987914505, "name": "山城老年大学", "category": "college", "poi_type": "sensitive", "tags": {"amenity": "college", "name": "山城老年大学"}}, "geometry": {"type": "Point", "coordinates": [106.5550537, 29.5591603]}}, {"type": "Feature", "properties": {"osm_id": 12167327303, "name": "任德诊所", "category": "clinic", "poi_type": "sensitive", "tags": {"amenity": "clinic", "name": "任德诊所"}}, "geometry": {"type": "Point", "coordinates": [106.5160315, 29.577511]}}, {"type": "Feature", "properties": {"osm_id": 12292087599, "name": "重庆市人民医院", "category": "hospital", "poi_type": "sensitive", "tags": {"amenity": "hospital", "name": "重庆市人民医院"}}, "geometry": {"type": "Point", "coordinates": [106.549792, 29.5563564]}}, {"type": "Feature", "properties": {"osm_id": 12294008831, "name": "解放西路小学", "category": "school", "poi_type": "sensitive", "tags": {"amenity": "school", "name": "解放西路小学"}}, "geometry": {"type": "Point", "coordinates": [106.5723204, 29.5522512]}}, {"type": "Feature", "properties": {"osm_id": 12466407382, "name": "重庆大学校医院(A区)", "category": "hospital", "poi_type": "sensitive", "tags": {"amenity": "hospital", "name": "重庆大学校医院(A区)"}}, "geometry": {"type": "Point", "coordinates": [106.468494, 29.5658525]}}, {"type": "Feature", "properties": {"osm_id": 12922524759, "name": "重庆爱乐音乐学校", "category": "school", "poi_type": "sensitive", "tags": {"amenity": "school", "name": "重庆爱乐音乐学校"}}, "geometry": {"type": "Point", "coordinates": [106.5359849, 29.6011644]}}, {"type": "Feature", "properties": {"osm_id": 12998717919, "name": "刘愉口腔诊所", "category": "hospital", "poi_type": "sensitive", "tags": {"amenity": "hospital", "name": "刘愉口腔诊所"}}, "geometry": {"type": "Point", "coordinates": [106.5660019, 29.5314988]}}, {"type": "Feature", "properties": {"osm_id": 13232880680, "name": "诺亚医疗.生长发育中心", "category": "clinic", "poi_type": "sensitive", "tags": {"amenity": "clinic", "name": "诺亚医疗.生长发育中心"}}, "geometry": {"type": "Point", "coordinates": [106.5451564, 29.5551443]}}, {"type": "Feature", "properties": {"osm_id": 13563561384, "name": "", "category": "police", "poi_type": "sensitive", "tags": {"amenity": "police"}}, "geometry": {"type": "Point", "coordinates": [106.5010976, 29.5294028]}}, {"type": "Feature", "properties": {"osm_id": 13566124607, "name": "", "category": "police", "poi_type": "sensitive", "tags": {"amenity": "police"}}, "geometry": {"type": "Point", "coordinates": [106.4705792, 29.5075122]}}, {"type": "Feature", "properties": {"osm_id": 13594214476, "name": "诊所", "category": "clinic", "poi_type": "sensitive", "tags": {"amenity": "clinic", "name": "诊所"}}, "geometry": {"type": "Point", "coordinates": [106.6182253, 29.466472]}}, {"type": "Feature", "properties": {"osm_id": 150453849, "name": "重庆医科大学", "category": "university", "poi_type": "sensitive", "tags": {"addr:street": "医学院路", "amenity": "university", "name": "重庆医科大学", "name:en": "Chongqing Medical University", "name:zh": "重庆医科大学"}}, "geometry": {"type": "Point", "coordinates": [106.5035895, 29.5356528]}}, {"type": "Feature", "properties": {"osm_id": 240658970, "name": "大坪小学", "category": "school", "poi_type": "sensitive", "tags": {"amenity": "school", "name": "大坪小学", "name:en": "Daping privary school"}}, "geometry": {"type": "Point", "coordinates": [106.5139162, 29.5443323]}}, {"type": "Feature", "properties": {"osm_id": 242496963, "name": "复旦中学（竹园校区）", "category": "school", "poi_type": "sensitive", "tags": {"amenity": "school", "name": "复旦中学（竹园校区）", "name:en": "Fudan Middle School(Zhuyuan Campus)"}}, "geometry": {"type": "Point", "coordinates": [106.5261878, 29.5423868]}}, {"type": "Feature", "properties": {"osm_id": 249648470, "name": "天台岗小学 - 主校区", "category": "school", "poi_type": "sensitive", "tags": {"amenity": "school", "name": "天台岗小学 - 主校区", "name:en": "Tiantaigang Primary School - Main Campus"}}, "geometry": {"type": "Point", "coordinates": [106.555525, 29.5295903]}}, {"type": "Feature", "properties": {"osm_id": 249649207, "name": "珊瑚实验小学", "category": "school", "poi_type": "sensitive", "tags": {"amenity": "school", "name": "珊瑚实验小学", "name:en": "Shanhu Experimental Primary School", "name:zh": "珊瑚实验小学"}}, "geometry": {"type": "Point", "coordinates": [106.5633437, 29.5214201]}}, {"type": "Feature", "properties": {"osm_id": 249649391, "name": "重庆南坪中学", "category": "school", "poi_type": "sensitive", "tags": {"amenity": "school", "name": "重庆南坪中学", "name:en": "Nanping High School", "name:zh": "重庆南坪中学"}}, "geometry": {"type": "Point", "coordinates": [106.5631992, 29.51727]}}, {"type": "Feature", "properties": {"osm_id": 249649766, "name": "巴蜀中学", "category": "school", "poi_type": "sensitive", "tags": {"amenity": "school", "name": "巴蜀中学", "name:en": "Bashu Secondary School - Main Campus", "name:zh": "巴蜀中学"}}, "geometry": {"type": "Point", "coordinates": [106.5574574, 29.5635934]}}, {"type": "Feature", "properties": {"osm_id": 249652151, "name": "电建子弟校(金山路小学)", "category": "school", "poi_type": "sensitive", "tags": {"amenity": "school", "name": "电建子弟校(金山路小学)", "name:en": "Dianjian Community School"}}, "geometry": {"type": "Point", "coordinates": [106.5562489, 29.520444]}}, {"type": "Feature", "properties": {"osm_id": 249652293, "name": "天台岗小学(上海城校区)", "category": "school", "poi_type": "sensitive", "tags": {"amenity": "school", "name": "天台岗小学(上海城校区)", "name:en": "Tiantaigang Primary School (Shanghai Town Campus)"}}, "geometry": {"type": "Point", "coordinates": [106.5546974, 29.5318204]}}, {"type": "Feature", "properties": {"osm_id": 249652369, "name": "天台岗小学（花园村校区）", "category": "school", "poi_type": "sensitive", "tags": {"amenity": "school", "name": "天台岗小学（花园村校区）", "name:en": "Tiantaigang Primary School - Huayuan Village Campus"}}, "geometry": {"type": "Point", "coordinates": [106.5481644, 29.5248036]}}, {"type": "Feature", "properties": {"osm_id": 249652414, "name": "青龙路小学", "category": "school", "poi_type": "sensitive", "tags": {"amenity": "school", "name": "青龙路小学", "name:en": "Qinglong Road Primary School"}}, "geometry": {"type": "Point", "coordinates": [106.5568694, 29.5153561]}}, {"type": "Feature", "properties": {"osm_id": 249652648, "name": "珊瑚中学", "category": "school", "poi_type": "sensitive", "tags": {"amenity": "school", "name": "珊瑚中学", "name:en": "Shanhu High School - Main Campus"}}, "geometry": {"type": "Point", "coordinates": [106.5591417, 29.5277922]}}, {"type": "Feature", "properties": {"osm_id": 249661910, "name": "重庆南开（融侨）中学校", "category": "school", "poi_type": "sensitive", "tags": {"addr:street": "风临路", "amenity": "school", "name": "重庆南开（融侨）中学校", "name:en": "Chongqing Nankai (Rongqiao) Secondary School", "name:zh": "重庆南开（融侨）中学校"}}, "geometry": {"type": "Point", "coordinates": [106.5388462, 29.5287879]}}, {"type": "Feature", "properties": {"osm_id": 266763947, "name": "四川美术学院(黄桷坪校区)", "category": "university", "poi_type": "sensitive", "tags": {"addr:street": "黄桷坪正街", "amenity": "university", "name": "四川美术学院(黄桷坪校区)", "name:en": "Sichuan Fine Arts Institute (Huangjiaoping Campus)", "name:zh": "四川美术学院(黄桷坪校区)"}}, "geometry": {"type": "Point", "coordinates": [106.537453, 29.4908889]}}, {"type": "Feature", "properties": {"osm_id": 278775623, "name": "重庆医科大学附属第一医院", "category": "hospital", "poi_type": "sensitive", "tags": {"addr:street": "友谊路", "amenity": "hospital", "name": "重庆医科大学附属第一医院", "name:en": "1st Affiliated Hospital of Chongqing Medical University"}}, "geometry": {"type": "Point", "coordinates": [106.5093574, 29.5338738]}}, {"type": "Feature", "properties": {"osm_id": 279320360, "name": "杨家坪中学", "category": "school", "poi_type": "sensitive", "tags": {"amenity": "school", "name": "杨家坪中学"}}, "geometry": {"type": "Point", "coordinates": [106.5074408, 29.5093326]}}, {"type": "Feature", "properties": {"osm_id": 396343865, "name": "", "category": "school", "poi_type": "sensitive", "tags": {"amenity": "school"}}, "geometry": {"type": "Point", "coordinates": [106.4749772, 29.6323817]}}, {"type": "Feature", "properties": {"osm_id": 412480741, "name": "重庆大学A区", "category": "university", "poi_type": "sensitive", "tags": {"amenity": "university", "name": "重庆大学A区", "name:en": "Chongqing University - Campus A"}}, "geometry": {"type": "Point", "coordinates": [106.4654869, 29.5679671]}}, {"type": "Feature", "properties": {"osm_id": 412480744, "name": "重庆一中", "category": "school", "poi_type": "sensitive", "tags": {"amenity": "school", "name": "重庆一中", "name:en": "Chongqing No.1 Secondary School", "name:zh": "重庆一中"}}, "geometry": {"type": "Point", "coordinates": [106.4613091, 29.5625195]}}, {"type": "Feature", "properties": {"osm_id": 412480745, "name": "重庆南开中学", "category": "school", "poi_type": "sensitive", "tags": {"addr:street": "沙坪坝南街", "amenity": "school", "name": "重庆南开中学", "name:en": "Chongqing Nankai Secondary School", "name:zh": "重庆南开中学"}}, "geometry": {"type": "Point", "coordinates": [106.4557632, 29.5638037]}}, {"type": "Feature", "properties": {"osm_id": 412480747, "name": "重庆大学C区", "category": "university", "poi_type": "sensitive", "tags": {"amenity": "university", "name": "重庆大学C区", "name:en": "Chongqing University - Campus C"}}, "geometry": {"type": "Point", "coordinates": [106.4496395, 29.5628501]}}, {"type": "Feature", "properties": {"osm_id": 412586972, "name": "重庆第二外国语学校", "category": "school", "poi_type": "sensitive", "tags": {"amenity": "school", "name": "重庆第二外国语学校", "name:en": "Chongqing Second Foreign Language High School", "name:zh": "重庆第二外国语学校"}}, "geometry": {"type": "Point", "coordinates": [106.6059696, 29.544725]}}, {"type": "Feature", "properties": {"osm_id": 412587000, "name": "重庆第二师范学院（南山校区）", "category": "university", "poi_type": "sensitive", "tags": {"amenity": "university", "name": "重庆第二师范学院（南山校区）", "name:en": "Chongqing No.2 Normal College at South Mountain", "name:zh": "重庆第二师范学院（南山校区）"}}, "geometry": {"type": "Point", "coordinates": [106.5933107, 29.4996478]}}, {"type": "Feature", "properties": {"osm_id": 412587728, "name": "重庆邮电大学", "category": "university", "poi_type": "sensitive", "tags": {"addr:street": "崇文路", "amenity": "university", "name": "重庆邮电大学", "name:en": "Chongqing University of Posts and Telecommunications"}}, "geometry": {"type": "Point", "coordinates": [106.6042216, 29.532035]}}, {"type": "Feature", "properties": {"osm_id": 412616791, "name": "重庆市第六人民医院", "category": "hospital", "poi_type": "sensitive", "tags": {"amenity": "hospital", "name": "重庆市第六人民医院", "name:en": "Chongqing No.6 Hospital"}}, "geometry": {"type": "Point", "coordinates": [106.5515702, 29.5239989]}}, {"type": "Feature", "properties": {"osm_id": 412619877, "name": "鲁能巴蜀中学", "category": "school", "poi_type": "sensitive", "tags": {"amenity": "school", "name": "鲁能巴蜀中学", "name:en": "Luneng Bashu Secondary School"}}, "geometry": {"type": "Point", "coordinates": [106.5613323, 29.6019562]}}, {"type": "Feature", "properties": {"osm_id": 412619879, "name": "巴蜀中学(金科校区)", "category": "school", "poi_type": "sensitive", "tags": {"amenity": "school", "name": "巴蜀中学(金科校区)", "name:en": "Bashu Secondary School - Jinke Campus"}}, "geometry": {"type": "Point", "coordinates": [106.5111771, 29.6164618]}}, {"type": "Feature", "properties": {"osm_id": 412657001, "name": "龙湖花园巴蜀学校（小学部）", "category": "school", "poi_type": "sensitive", "tags": {"amenity": "school", "name": "龙湖花园巴蜀学校（小学部）"}}, "geometry": {"type": "Point", "coordinates": [106.50506, 29.6048312]}}, {"type": "Feature", "properties": {"osm_id": 412677865, "name": "重庆工商大学", "category": "university", "poi_type": "sensitive", "tags": {"addr:street": "Xuefu avenue", "amenity": "university", "name": "重庆工商大学", "name:en": "Chongqing University of Technology and Business"}}, "geometry": {"type": "Point", "coordinates": [106.5785148, 29.5083705]}}, {"type": "Feature", "properties": {"osm_id": 412677867, "name": "天台岗小学 - 雅居乐校区", "category": "school", "poi_type": "sensitive", "tags": {"amenity": "school", "name": "天台岗小学 - 雅居乐校区", "name:en": "Tiantaigang Primary School - Yajule"}}, "geometry": {"type": "Point", "coordinates": [106.555021, 29.5025757]}}, {"type": "Feature", "properties": {"osm_id": 412677871, "name": "重庆交通大学", "category": "university", "poi_type": "sensitive", "tags": {"addr:street": "学府大道", "amenity": "university", "name": "重庆交通大学", "name:en": "Chongqing Jiaotong University"}}, "geometry": {"type": "Point", "coordinates": [106.567229, 29.4903657]}}, {"type": "Feature", "properties": {"osm_id": 412742024, "name": "天台岗小学（融创校区）", "category": "school", "poi_type": "sensitive", "tags": {"amenity": "school", "name": "天台岗小学（融创校区）", "name:en": "Tiantaigang Primary School - Rongchuang Campus"}}, "geometry": {"type": "Point", "coordinates": [106.553938, 29.5372313]}}, {"type": "Feature", "properties": {"osm_id": 412742031, "name": "辅仁中学", "category": "school", "poi_type": "sensitive", "tags": {"amenity": "school", "name": "辅仁中学", "name:en": "Furen High School"}}, "geometry": {"type": "Point", "coordinates": [106.5757593, 29.5327711]}}, {"type": "Feature", "properties": {"osm_id": 412742070, "name": "重庆理工大学", "category": "university", "poi_type": "sensitive", "tags": {"amenity": "university", "name": "重庆理工大学", "name:en": "Chongqing University of Technology"}}, "geometry": {"type": "Point", "coordinates": [106.5263611, 29.4555861]}}, {"type": "Feature", "properties": {"osm_id": 412742077, "name": "重庆市巴南中学", "category": "school", "poi_type": "sensitive", "tags": {"amenity": "school", "name": "重庆市巴南中学", "name:en": "Chongqing Ba'nan High School"}}, "geometry": {"type": "Point", "coordinates": [106.5460628, 29.4627223]}}, {"type": "Feature", "properties": {"osm_id": 412876070, "name": "重庆第三十中学", "category": "school", "poi_type": "sensitive", "tags": {"amenity": "school", "name": "重庆第三十中学", "name:en": "Chongqing No.30 High School"}}, "geometry": {"type": "Point", "coordinates": [106.5415794, 29.553792]}}, {"type": "Feature", "properties": {"osm_id": 413048897, "name": "重庆外国语学校森林小学", "category": "school", "poi_type": "sensitive", "tags": {"amenity": "school", "name": "重庆外国语学校森林小学", "name:en": "Senlin Primary School", "name:zh": "重庆外国语学校森林小学"}}, "geometry": {"type": "Point", "coordinates": [106.4929188, 29.5325379]}}, {"type": "Feature", "properties": {"osm_id": 413052993, "name": "重庆舞蹈学校", "category": "school", "poi_type": "sensitive", "tags": {"amenity": "school", "name": "重庆舞蹈学校", "name:en": "Chongqing Dancing Academy"}}, "geometry": {"type": "Point", "coordinates": [106.4710049, 29.5053367]}}, {"type": "Feature", "properties": {"osm_id": 413054275, "name": "重庆医科大学附属儿童医院（渝中院区）", "category": "hospital", "poi_type": "sensitive", "tags": {"addr:street": "中山二路136号", "amenity": "hospital", "name": "重庆医科大学附属儿童医院（渝中院区）"}}, "geometry": {"type": "Point", "coordinates": [106.550953, 29.5590391]}}, {"type": "Feature", "properties": {"osm_id": 413055488, "name": "重庆第十八中学（铁山坪校区）", "category": "school", "poi_type": "sensitive", "tags": {"amenity": "school", "name": "重庆第十八中学（铁山坪校区）", "name:en": "Chongqing No.18 High School - Tieshanping Campus"}}, "geometry": {"type": "Point", "coordinates": [106.6719151, 29.6209262]}}, {"type": "Feature", "properties": {"osm_id": 413059650, "name": "树人小学", "category": "school", "poi_type": "sensitive", "tags": {"amenity": "school", "name": "树人小学"}}, "geometry": {"type": "Point", "coordinates": [106.4617101, 29.5594852]}}, {"type": "Feature", "properties": {"osm_id": 413059651, "name": "沙坪坝人民医院", "category": "hospital", "poi_type": "sensitive", "tags": {"addr:street": "小龙坎新街", "amenity": "hospital", "name": "沙坪坝人民医院", "name:en": "Shapingba People's Hospital"}}, "geometry": {"type": "Point", "coordinates": [106.462027, 29.5585923]}}, {"type": "Feature", "properties": {"osm_id": 413059661, "name": "西南政法大学", "category": "university", "poi_type": "sensitive", "tags": {"amenity": "university", "name": "西南政法大学", "name:en": "Southwest University of Political Science & Law"}}, "geometry": {"type": "Point", "coordinates": [106.4383357, 29.5701715]}}, {"type": "Feature", "properties": {"osm_id": 413059662, "name": "四川外国语大学", "category": "university", "poi_type": "sensitive", "tags": {"amenity": "university", "name": "四川外国语大学", "name:en": "Sichuan International Studies University"}}, "geometry": {"type": "Point", "coordinates": [106.4326984, 29.571441]}}, {"type": "Feature", "properties": {"osm_id": 440019167, "name": "九龙坡区渝高中学", "category": "school", "poi_type": "sensitive", "tags": {"amenity": "school", "name": "九龙坡区渝高中学", "name:en": "Yugao School", "name:zh": "九龙坡区渝高中学"}}, "geometry": {"type": "Point", "coordinates": [106.483465, 29.5312073]}}, {"type": "Feature", "properties": {"osm_id": 449069885, "name": "重庆外国语学校", "category": "school", "poi_type": "sensitive", "tags": {"amenity": "school", "name": "重庆外国语学校", "name:en": "Chongqing Foreign Languages School"}}, "geometry": {"type": "Point", "coordinates": [106.4775566, 29.536189]}}, {"type": "Feature", "properties": {"osm_id": 495903742, "name": "重庆外国语实验学校", "category": "school", "poi_type": "sensitive", "tags": {"amenity": "school", "name": "重庆外国语实验学校", "name:en": "Chongqing Experimental Foreign Languages School", "name:zh": "重庆外国语实验学校"}}, "geometry": {"type": "Point", "coordinates": [106.4458401, 29.4933632]}}, {"type": "Feature", "properties": {"osm_id": 497715818, "name": "重庆市第三十八中学校", "category": "school", "poi_type": "sensitive", "tags": {"amenity": "school", "name": "重庆市第三十八中学校"}}, "geometry": {"type": "Point", "coordinates": [106.5958129, 29.5979297]}}, {"type": "Feature", "properties": {"osm_id": 513073430, "name": "博翰双语幼儿园", "category": "kindergarten", "poi_type": "sensitive", "tags": {"amenity": "kindergarten", "name": "博翰双语幼儿园"}}, "geometry": {"type": "Point", "coordinates": [106.567931, 29.5844117]}}, {"type": "Feature", "properties": {"osm_id": 553175168, "name": "陆军军医大学第二附属医院（新桥医院）", "category": "hospital", "poi_type": "sensitive", "tags": {"addr:street": "新桥正街", "amenity": "hospital", "name": "陆军军医大学第二附属医院（新桥医院）"}}, "geometry": {"type": "Point", "coordinates": [106.4343019, 29.5222782]}}, {"type": "Feature", "properties": {"osm_id": 553175170, "name": "陆军特色医学中心", "category": "hospital", "poi_type": "sensitive", "tags": {"amenity": "hospital", "name": "陆军特色医学中心"}}, "geometry": {"type": "Point", "coordinates": [106.5202342, 29.5472354]}}, {"type": "Feature", "properties": {"osm_id": 553175176, "name": "重庆市龙门浩职业中学", "category": "school", "poi_type": "sensitive", "tags": {"amenity": "school", "name": "重庆市龙门浩职业中学", "name:en": "Chongqing Longmenhao Vocational School"}}, "geometry": {"type": "Point", "coordinates": [106.6555666, 29.5049546]}}, {"type": "Feature", "properties": {"osm_id": 553228787, "name": "重庆市杨家坪中学(彩云湖校区)", "category": "school", "poi_type": "sensitive", "tags": {"amenity": "school", "name": "重庆市杨家坪中学(彩云湖校区)"}}, "geometry": {"type": "Point", "coordinates": [106.4755656, 29.5170516]}}, {"type": "Feature", "properties": {"osm_id": 553298391, "name": "金山医院", "category": "hospital", "poi_type": "sensitive", "tags": {"amenity": "hospital", "name": "金山医院"}}, "geometry": {"type": "Point", "coordinates": [106.5445831, 29.6565416]}}, {"type": "Feature", "properties": {"osm_id": 572049432, "name": "鹅岭小学", "category": "school", "poi_type": "sensitive", "tags": {"amenity": "school", "name": "鹅岭小学"}}, "geometry": {"type": "Point", "coordinates": [106.5317706, 29.5502714]}}, {"type": "Feature", "properties": {"osm_id": 572050908, "name": "重庆市第五十七中学", "category": "school", "poi_type": "sensitive", "tags": {"amenity": "school", "name": "重庆市第五十七中学"}}, "geometry": {"type": "Point", "coordinates": [106.5365945, 29.5575256]}}, {"type": "Feature", "properties": {"osm_id": 582460713, "name": "校医院", "category": "hospital", "poi_type": "sensitive", "tags": {"amenity": "hospital", "name": "校医院"}}, "geometry": {"type": "Point", "coordinates": [106.6002657, 29.535199]}}, {"type": "Feature", "properties": {"osm_id": 583427161, "name": "大田湾小学", "category": "school", "poi_type": "sensitive", "tags": {"amenity": "school", "name": "大田湾小学"}}, "geometry": {"type": "Point", "coordinates": [106.5378388, 29.5589156]}}, {"type": "Feature", "properties": {"osm_id": 583430770, "name": "求精中学", "category": "school", "poi_type": "sensitive", "tags": {"amenity": "school", "name": "求精中学"}}, "geometry": {"type": "Point", "coordinates": [106.5422269, 29.5662652]}}, {"type": "Feature", "properties": {"osm_id": 583430774, "name": "人民小学", "category": "school", "poi_type": "sensitive", "tags": {"amenity": "school", "name": "人民小学"}}, "geometry": {"type": "Point", "coordinates": [106.542334, 29.5649549]}}, {"type": "Feature", "properties": {"osm_id": 583434948, "name": "万年路小学", "category": "school", "poi_type": "sensitive", "tags": {"amenity": "school", "name": "万年路小学"}}, "geometry": {"type": "Point", "coordinates": [106.5420591, 29.6410991]}}, {"type": "Feature", "properties": {"osm_id": 583631946, "name": "拉玛足球学校", "category": "school", "poi_type": "sensitive", "tags": {"amenity": "school", "name": "拉玛足球学校"}}, "geometry": {"type": "Point", "coordinates": [106.5390739, 29.6426113]}}, {"type": "Feature", "properties": {"osm_id": 585336694, "name": "两江新区人和实验学校", "category": "school", "poi_type": "sensitive", "tags": {"amenity": "school", "name": "两江新区人和实验学校", "name:en": "Renhe Experimental High School of Liangjiang New District"}}, "geometry": {"type": "Point", "coordinates": [106.5322185, 29.6307803]}}, {"type": "Feature", "properties": {"osm_id": 585539550, "name": "磁器口小学", "category": "school", "poi_type": "sensitive", "tags": {"amenity": "school", "name": "磁器口小学"}}, "geometry": {"type": "Point", "coordinates": [106.4470213, 29.583698]}}, {"type": "Feature", "properties": {"osm_id": 586637091, "name": "建工馆", "category": "college", "poi_type": "sensitive", "tags": {"amenity": "college", "name": "建工馆"}}, "geometry": {"type": "Point", "coordinates": [106.4570443, 29.5700557]}}, {"type": "Feature", "properties": {"osm_id": 586637093, "name": "建筑与房地产管理学院", "category": "college", "poi_type": "sensitive", "tags": {"amenity": "college", "name": "建筑与房地产管理学院"}}, "geometry": {"type": "Point", "coordinates": [106.456594, 29.5683251]}}, {"type": "Feature", "properties": {"osm_id": 588862478, "name": "重庆南开小学", "category": "school", "poi_type": "sensitive", "tags": {"amenity": "school", "name": "重庆南开小学", "name:en": "Chongqing Nankai Primary School"}}, "geometry": {"type": "Point", "coordinates": [106.4519911, 29.5660334]}}, {"type": "Feature", "properties": {"osm_id": 607831615, "name": "重庆工商大学-兰花湖校区", "category": "university", "poi_type": "sensitive", "tags": {"amenity": "university", "name": "重庆工商大学-兰花湖校区"}}, "geometry": {"type": "Point", "coordinates": [106.5638644, 29.5055697]}}, {"type": "Feature", "properties": {"osm_id": 621220505, "name": "", "category": "kindergarten", "poi_type": "sensitive", "tags": {"amenity": "kindergarten"}}, "geometry": {"type": "Point", "coordinates": [106.5517847, 29.5030909]}}, {"type": "Feature", "properties": {"osm_id": 621220507, "name": "110中学 - 雅居乐校区", "category": "school", "poi_type": "sensitive", "tags": {"amenity": "school", "name": "110中学 - 雅居乐校区"}}, "geometry": {"type": "Point", "coordinates": [106.5557656, 29.5009951]}}, {"type": "Feature", "properties": {"osm_id": 639999828, "name": "美丽阳光小学", "category": "college", "poi_type": "sensitive", "tags": {"amenity": "college", "name": "美丽阳光小学"}}, "geometry": {"type": "Point", "coordinates": [106.4459145, 29.6415719]}}, {"type": "Feature", "properties": {"osm_id": 669609377, "name": "重庆一中双语学校", "category": "school", "poi_type": "sensitive", "tags": {"addr:street": "Huxia Street", "amenity": "school", "name": "重庆一中双语学校", "name:en": "Chongqing No.1 International Studies School", "name:zh": "重庆一中双语学校"}}, "geometry": {"type": "Point", "coordinates": [106.5309265, 29.6615663]}}, {"type": "Feature", "properties": {"osm_id": 705753869, "name": "重庆市公安局", "category": "police", "poi_type": "sensitive", "tags": {"amenity": "police", "name": "重庆市公安局"}}, "geometry": {"type": "Point", "coordinates": [106.5311384, 29.6011704]}}, {"type": "Feature", "properties": {"osm_id": 705753872, "name": "陆军第九五八医院", "category": "hospital", "poi_type": "sensitive", "tags": {"amenity": "hospital", "name": "陆军第九五八医院"}}, "geometry": {"type": "Point", "coordinates": [106.5358144, 29.5782642]}}, {"type": "Feature", "properties": {"osm_id": 707842548, "name": "南岸区珊瑚幼儿园", "category": "kindergarten", "poi_type": "sensitive", "tags": {"amenity": "kindergarten", "name": "南岸区珊瑚幼儿园"}}, "geometry": {"type": "Point", "coordinates": [106.5557534, 29.5270776]}}, {"type": "Feature", "properties": {"osm_id": 734031546, "name": "中四路小学", "category": "school", "poi_type": "sensitive", "tags": {"amenity": "school", "name": "中四路小学"}}, "geometry": {"type": "Point", "coordinates": [106.5432196, 29.5662207]}}, {"type": "Feature", "properties": {"osm_id": 742846763, "name": "九龙坡区黄桷坪小学", "category": "school", "poi_type": "sensitive", "tags": {"amenity": "school", "name": "九龙坡区黄桷坪小学"}}, "geometry": {"type": "Point", "coordinates": [106.5369047, 29.4876399]}}, {"type": "Feature", "properties": {"osm_id": 782214153, "name": "重庆七中", "category": "school", "poi_type": "sensitive", "tags": {"amenity": "school", "name": "重庆七中", "name:en": "Chongqing No.7 Middle School"}}, "geometry": {"type": "Point", "coordinates": [106.4602789, 29.5737852]}}, {"type": "Feature", "properties": {"osm_id": 806698527, "name": "重庆市第四十六中", "category": "school", "poi_type": "sensitive", "tags": {"amenity": "school", "name": "重庆市第四十六中"}}, "geometry": {"type": "Point", "coordinates": [106.4441604, 29.6384177]}}, {"type": "Feature", "properties": {"osm_id": 809027096, "name": "城南家园小学", "category": "school", "poi_type": "sensitive", "tags": {"amenity": "school", "name": "城南家园小学", "name:en": "Chengnan Jiayuan Elementary School"}}, "geometry": {"type": "Point", "coordinates": [106.644688, 29.5197238]}}, {"type": "Feature", "properties": {"osm_id": 809027100, "name": "新城幼儿园", "category": "kindergarten", "poi_type": "sensitive", "tags": {"amenity": "kindergarten", "name": "新城幼儿园"}}, "geometry": {"type": "Point", "coordinates": [106.6478088, 29.518914]}}, {"type": "Feature", "properties": {"osm_id": 809027122, "name": "诺维亚幼儿园", "category": "kindergarten", "poi_type": "sensitive", "tags": {"amenity": "kindergarten", "name": "诺维亚幼儿园"}}, "geometry": {"type": "Point", "coordinates": [106.6462619, 29.5168314]}}, {"type": "Feature", "properties": {"osm_id": 829736884, "name": "重庆市名校联合中学", "category": "school", "poi_type": "sensitive", "tags": {"amenity": "school", "name": "重庆市名校联合中学"}}, "geometry": {"type": "Point", "coordinates": [106.4593761, 29.5627722]}}, {"type": "Feature", "properties": {"osm_id": 837377398, "name": "九龙坡区第一实验小学", "category": "school", "poi_type": "sensitive", "tags": {"amenity": "school", "name": "九龙坡区第一实验小学"}}, "geometry": {"type": "Point", "coordinates": [106.506983, 29.5008133]}}, {"type": "Feature", "properties": {"osm_id": 848001009, "name": "重庆市礼嘉中学校", "category": "school", "poi_type": "sensitive", "tags": {"amenity": "school", "name": "重庆市礼嘉中学校", "name:en": "Chongqing Lijia Secondary School"}}, "geometry": {"type": "Point", "coordinates": [106.4940164, 29.6759283]}}, {"type": "Feature", "properties": {"osm_id": 860227596, "name": "西南大学附属中学(金州校区)", "category": "school", "poi_type": "sensitive", "tags": {"amenity": "school", "name": "西南大学附属中学(金州校区)"}}, "geometry": {"type": "Point", "coordinates": [106.5191788, 29.6555204]}}, {"type": "Feature", "properties": {"osm_id": 863637301, "name": "巴蜀小学", "category": "school", "poi_type": "sensitive", "tags": {"amenity": "school", "name": "巴蜀小学", "name:en": "Bashu Primary School"}}, "geometry": {"type": "Point", "coordinates": [106.5559832, 29.5617741]}}, {"type": "Feature", "properties": {"osm_id": 863649978, "name": "重庆八中", "category": "school", "poi_type": "sensitive", "tags": {"addr:street": "小龙坎正街", "amenity": "school", "name": "重庆八中", "name:en": "Chongqing No.8 Middle School", "name:zh": "重庆八中"}}, "geometry": {"type": "Point", "coordinates": [106.461579, 29.5565566]}}, {"type": "Feature", "properties": {"osm_id": 863652713, "name": "黄桷垭小学", "category": "school", "poi_type": "sensitive", "tags": {"amenity": "school", "name": "黄桷垭小学"}}, "geometry": {"type": "Point", "coordinates": [106.6018751, 29.5416784]}}, {"type": "Feature", "properties": {"osm_id": 863657602, "name": "Xinshichang Primary School", "category": "school", "poi_type": "sensitive", "tags": {"amenity": "school", "name": "Xinshichang Primary School"}}, "geometry": {"type": "Point", "coordinates": [106.6004893, 29.5232639]}}, {"type": "Feature", "properties": {"osm_id": 863657603, "name": "重庆机电工程技术学校", "category": "college", "poi_type": "sensitive", "tags": {"amenity": "college", "name": "重庆机电工程技术学校", "name:en": "Chongqing Electromechanical Engineering School", "name:zh": "重庆机电工程技术学校"}}, "geometry": {"type": "Point", "coordinates": [106.5777741, 29.5166185]}}, {"type": "Feature", "properties": {"osm_id": 863657604, "name": "重庆第二师范学院学府大道校区", "category": "college", "poi_type": "sensitive", "tags": {"amenity": "college", "name": "重庆第二师范学院学府大道校区"}}, "geometry": {"type": "Point", "coordinates": [106.5737837, 29.5133883]}}, {"type": "Feature", "properties": {"osm_id": 863657605, "name": "重庆110中学", "category": "school", "poi_type": "sensitive", "tags": {"amenity": "school", "name": "重庆110中学", "name:en": "Chongqing No.110 Middle School", "name:zh": "重庆110中学"}}, "geometry": {"type": "Point", "coordinates": [106.571536, 29.5112228]}}, {"type": "Feature", "properties": {"osm_id": 863879894, "name": "重庆市南岸区南坪长江实验学校", "category": "school", "poi_type": "sensitive", "tags": {"amenity": "school", "name": "重庆市南岸区南坪长江实验学校", "name:en": "Nanping Changjiang Experimental School", "name:zh": "重庆市南岸区南坪长江实验学校"}}, "geometry": {"type": "Point", "coordinates": [106.5433399, 29.5382309]}}, {"type": "Feature", "properties": {"osm_id": 863879896, "name": "珊瑚中铁小学", "category": "school", "poi_type": "sensitive", "tags": {"amenity": "school", "name": "珊瑚中铁小学", "name:en": "Zhongtie Shanhu Primary School"}}, "geometry": {"type": "Point", "coordinates": [106.6565351, 29.5032743]}}, {"type": "Feature", "properties": {"osm_id": 863879897, "name": "重庆东南医院", "category": "hospital", "poi_type": "sensitive", "tags": {"amenity": "hospital", "name": "重庆东南医院", "name:en": "Chongqing Southeast Hospital"}}, "geometry": {"type": "Point", "coordinates": [106.650523, 29.5095558]}}, {"type": "Feature", "properties": {"osm_id": 863879898, "name": "长生桥中学", "category": "school", "poi_type": "sensitive", "tags": {"amenity": "school", "name": "长生桥中学", "name:en": "Changshengqiao High School"}}, "geometry": {"type": "Point", "coordinates": [106.6576836, 29.5154881]}}, {"type": "Feature", "properties": {"osm_id": 863879901, "name": "长生小学", "category": "school", "poi_type": "sensitive", "tags": {"amenity": "school", "name": "长生小学", "name:en": "Changsheng Primary School"}}, "geometry": {"type": "Point", "coordinates": [106.657538, 29.5092746]}}, {"type": "Feature", "properties": {"osm_id": 863985653, "name": "重庆市诚善中学校", "category": "school", "poi_type": "sensitive", "tags": {"amenity": "school", "name": "重庆市诚善中学校", "name:en": "Chongqing Chengshan Middle School"}}, "geometry": {"type": "Point", "coordinates": [106.5641026, 29.6012731]}}, {"type": "Feature", "properties": {"osm_id": 863985655, "name": "洋河花园实验小学(头塘校区)", "category": "school", "poi_type": "sensitive", "tags": {"amenity": "school", "name": "洋河花园实验小学(头塘校区)", "name:en": "Yanghe Elementary School at Toutang", "name:zh": "洋河花园实验小学(头塘校区)"}}, "geometry": {"type": "Point", "coordinates": [106.5666437, 29.6071205]}}, {"type": "Feature", "properties": {"osm_id": 863985671, "name": "重庆市江北区港城小学校", "category": "school", "poi_type": "sensitive", "tags": {"amenity": "school", "name": "重庆市江北区港城小学校", "name:en": "Gangcheng Primary School", "name:zh": "重庆市江北区港城小学校"}}, "geometry": {"type": "Point", "coordinates": [106.5712977, 29.6140764]}}, {"type": "Feature", "properties": {"osm_id": 863985679, "name": "重庆为明学校", "category": "school", "poi_type": "sensitive", "tags": {"amenity": "school", "name": "重庆为明学校", "name:en": "Chongqing Weiming School"}}, "geometry": {"type": "Point", "coordinates": [106.5520066, 29.6388004]}}, {"type": "Feature", "properties": {"osm_id": 863985680, "name": "重庆两江育才中学(新校区)", "category": "school", "poi_type": "sensitive", "tags": {"amenity": "school", "name": "重庆两江育才中学(新校区)", "name:en": "Chongqing Liangjiang Yucai High School", "name:zh": "重庆两江育才中学(新校区)"}}, "geometry": {"type": "Point", "coordinates": [106.5317466, 29.6378248]}}, {"type": "Feature", "properties": {"osm_id": 863985682, "name": "西大附中星辰中学", "category": "school", "poi_type": "sensitive", "tags": {"amenity": "school", "name": "西大附中星辰中学", "name:en": "Xingchen Junior High School", "name:zh": "西大附中星辰中学"}}, "geometry": {"type": "Point", "coordinates": [106.5184554, 29.6381227]}}, {"type": "Feature", "properties": {"osm_id": 863985683, "name": "金州小学", "category": "school", "poi_type": "sensitive", "tags": {"amenity": "school", "name": "金州小学", "name:en": "Jinzhou Primary School"}}, "geometry": {"type": "Point", "coordinates": [106.5253904, 29.645856]}}, {"type": "Feature", "properties": {"osm_id": 863985684, "name": "重庆财政学校", "category": "college", "poi_type": "sensitive", "tags": {"amenity": "college", "name": "重庆财政学校", "name:en": "Chongqing Finance School", "name:zh": "重庆财政学校"}}, "geometry": {"type": "Point", "coordinates": [106.5316145, 29.6570774]}}, {"type": "Feature", "properties": {"osm_id": 863985685, "name": "重庆两江新区博雅小学", "category": "school", "poi_type": "sensitive", "tags": {"amenity": "school", "name": "重庆两江新区博雅小学", "name:en": "Boya Elementary School of Chongqing Liangjiang", "name:zh": "重庆两江新区博雅小学"}}, "geometry": {"type": "Point", "coordinates": [106.5307325, 29.6550055]}}, {"type": "Feature", "properties": {"osm_id": 863985686, "name": "西南政法大学渝北校区", "category": "university", "poi_type": "sensitive", "tags": {"amenity": "university", "name": "西南政法大学渝北校区", "name:en": "Southwest University of Political Science and Law at Yubei"}}, "geometry": {"type": "Point", "coordinates": [106.5881976, 29.6672276]}}, {"type": "Feature", "properties": {"osm_id": 863985691, "name": "重庆两江中学", "category": "school", "poi_type": "sensitive", "tags": {"amenity": "school", "name": "重庆两江中学", "name:en": "Chongqing Liangjiang High School"}}, "geometry": {"type": "Point", "coordinates": [106.5875257, 29.6614675]}}, {"type": "Feature", "properties": {"osm_id": 866009600, "name": "彩云湖小学校", "category": "school", "poi_type": "sensitive", "tags": {"amenity": "school", "name": "彩云湖小学校"}}, "geometry": {"type": "Point", "coordinates": [106.4657333, 29.5158337]}}, {"type": "Feature", "properties": {"osm_id": 885542191, "name": "渝北区玉峰山小学", "category": "school", "poi_type": "sensitive", "tags": {"amenity": "school", "name": "渝北区玉峰山小学", "name:en": "Yubei District Yufengshan Primary School", "name:zh": "渝北区玉峰山小学"}}, "geometry": {"type": "Point", "coordinates": [106.6642974, 29.6683336]}}, {"type": "Feature", "properties": {"osm_id": 901710530, "name": "两江巴蜀中学", "category": "school", "poi_type": "sensitive", "tags": {"amenity": "school", "name": "两江巴蜀中学", "name:en": "Bashu Secondary School - Liangjiang"}}, "geometry": {"type": "Point", "coordinates": [106.507582, 29.6748232]}}, {"type": "Feature", "properties": {"osm_id": 925586776, "name": "奇特乐天一幼儿园", "category": "kindergarten", "poi_type": "sensitive", "tags": {"amenity": "kindergarten", "name": "奇特乐天一幼儿园"}}, "geometry": {"type": "Point", "coordinates": [106.5002622, 29.5997271]}}, {"type": "Feature", "properties": {"osm_id": 925586783, "name": "重庆天一新城小学", "category": "school", "poi_type": "sensitive", "tags": {"amenity": "school", "name": "重庆天一新城小学"}}, "geometry": {"type": "Point", "coordinates": [106.5001956, 29.6005809]}}, {"type": "Feature", "properties": {"osm_id": 938069707, "name": "石油路小学", "category": "school", "poi_type": "sensitive", "tags": {"amenity": "school", "name": "石油路小学"}}, "geometry": {"type": "Point", "coordinates": [106.498184, 29.5470664]}}, {"type": "Feature", "properties": {"osm_id": 938074655, "name": "重庆长航医院", "category": "hospital", "poi_type": "sensitive", "tags": {"amenity": "hospital", "name": "重庆长航医院"}}, "geometry": {"type": "Point", "coordinates": [106.5005054, 29.5394987]}}, {"type": "Feature", "properties": {"osm_id": 938284214, "name": "鸣乔幼儿园", "category": "kindergarten", "poi_type": "sensitive", "tags": {"amenity": "kindergarten", "name": "鸣乔幼儿园", "name:en": "Mingqiao Kindergarten", "name:zh": "鸣乔幼儿园"}}, "geometry": {"type": "Point", "coordinates": [106.5296538, 29.5612831]}}, {"type": "Feature", "properties": {"osm_id": 938284221, "name": "重庆工商大学江北校区", "category": "university", "poi_type": "sensitive", "tags": {"amenity": "university", "name": "重庆工商大学江北校区"}}, "geometry": {"type": "Point", "coordinates": [106.5270079, 29.5616427]}}, {"type": "Feature", "properties": {"osm_id": 939578291, "name": "第四人民医院", "category": "hospital", "poi_type": "sensitive", "tags": {"amenity": "hospital", "name": "第四人民医院"}}, "geometry": {"type": "Point", "coordinates": [106.5423306, 29.5551627]}}, {"type": "Feature", "properties": {"osm_id": 941766058, "name": "重庆市第十八中学(观音桥校区)", "category": "school", "poi_type": "sensitive", "tags": {"amenity": "school", "name": "重庆市第十八中学(观音桥校区)"}}, "geometry": {"type": "Point", "coordinates": [106.537889, 29.5776142]}}, {"type": "Feature", "properties": {"osm_id": 950129569, "name": "广益中学", "category": "school", "poi_type": "sensitive", "tags": {"amenity": "school", "name": "广益中学", "name:en": "Guangyi High School"}}, "geometry": {"type": "Point", "coordinates": [106.5968657, 29.5362487]}}, {"type": "Feature", "properties": {"osm_id": 950134128, "name": "重庆航运旅游学校", "category": "school", "poi_type": "sensitive", "tags": {"amenity": "school", "name": "重庆航运旅游学校"}}, "geometry": {"type": "Point", "coordinates": [106.5932701, 29.5452977]}}, {"type": "Feature", "properties": {"osm_id": 950173507, "name": "红岩幼儿园(朝天门隧道)", "category": "kindergarten", "poi_type": "sensitive", "tags": {"amenity": "kindergarten", "name": "红岩幼儿园(朝天门隧道)"}}, "geometry": {"type": "Point", "coordinates": [106.5797412, 29.564918]}}, {"type": "Feature", "properties": {"osm_id": 950179345, "name": "东水门小学", "category": "school", "poi_type": "sensitive", "tags": {"amenity": "school", "name": "东水门小学"}}, "geometry": {"type": "Point", "coordinates": [106.5836341, 29.5624683]}}, {"type": "Feature", "properties": {"osm_id": 951328292, "name": "华新实验小学（福宁村校区）", "category": "school", "poi_type": "sensitive", "tags": {"amenity": "school", "name": "华新实验小学（福宁村校区）", "name:en": "Huaxin Experimental Primary School (Fu'ningcun Campus)", "name:zh": "华新实验小学（福宁村校区）"}}, "geometry": {"type": "Point", "coordinates": [106.532144, 29.5653738]}}, {"type": "Feature", "properties": {"osm_id": 951637959, "name": "渝中区实验幼儿园", "category": "kindergarten", "poi_type": "sensitive", "tags": {"amenity": "kindergarten", "name": "渝中区实验幼儿园"}}, "geometry": {"type": "Point", "coordinates": [106.5665295, 29.5632]}}, {"type": "Feature", "properties": {"osm_id": 964684384, "name": "江北嘴实验学校", "category": "school", "poi_type": "sensitive", "tags": {"amenity": "school", "name": "江北嘴实验学校"}}, "geometry": {"type": "Point", "coordinates": [106.5699973, 29.5809049]}}, {"type": "Feature", "properties": {"osm_id": 974637152, "name": "中华路小学", "category": "school", "poi_type": "sensitive", "tags": {"amenity": "school", "name": "中华路小学", "name:zh": "中华路小学"}}, "geometry": {"type": "Point", "coordinates": [106.5652945, 29.5578574]}}, {"type": "Feature", "properties": {"osm_id": 979796698, "name": "校医院", "category": "hospital", "poi_type": "sensitive", "tags": {"amenity": "hospital", "name": "校医院"}}, "geometry": {"type": "Point", "coordinates": [106.4585804, 29.5705164]}}, {"type": "Feature", "properties": {"osm_id": 993252417, "name": "重庆人民医院", "category": "hospital", "poi_type": "sensitive", "tags": {"amenity": "hospital", "name": "重庆人民医院", "name:en": "Chongqing General Hospital"}}, "geometry": {"type": "Point", "coordinates": [106.5557973, 29.5590445]}}, {"type": "Feature", "properties": {"osm_id": 1004918337, "name": "体育学院", "category": "college", "poi_type": "sensitive", "tags": {"amenity": "college", "name": "体育学院"}}, "geometry": {"type": "Point", "coordinates": [106.6057299, 29.5370694]}}, {"type": "Feature", "properties": {"osm_id": 1006021519, "name": "重庆育才中学", "category": "school", "poi_type": "sensitive", "tags": {"amenity": "school", "name": "重庆育才中学"}}, "geometry": {"type": "Point", "coordinates": [106.5106758, 29.5223589]}}, {"type": "Feature", "properties": {"osm_id": 1006024391, "name": "谢家湾幼儿园", "category": "kindergarten", "poi_type": "sensitive", "tags": {"amenity": "kindergarten", "name": "谢家湾幼儿园"}}, "geometry": {"type": "Point", "coordinates": [106.5127145, 29.5207711]}}, {"type": "Feature", "properties": {"osm_id": 1006325725, "name": "重庆育才成功学校", "category": "school", "poi_type": "sensitive", "tags": {"amenity": "school", "name": "重庆育才成功学校"}}, "geometry": {"type": "Point", "coordinates": [106.5033063, 29.5213535]}}, {"type": "Feature", "properties": {"osm_id": 1006325760, "name": "杨石路小学", "category": "school", "poi_type": "sensitive", "tags": {"amenity": "school", "name": "杨石路小学"}}, "geometry": {"type": "Point", "coordinates": [106.5046378, 29.5213482]}}, {"type": "Feature", "properties": {"osm_id": 1007283965, "name": "重庆育才成功学校九龙园校区", "category": "school", "poi_type": "sensitive", "tags": {"amenity": "school", "name": "重庆育才成功学校九龙园校区"}}, "geometry": {"type": "Point", "coordinates": [106.4851641, 29.5037939]}}, {"type": "Feature", "properties": {"osm_id": 1008124886, "name": "蟠龙小学", "category": "school", "poi_type": "sensitive", "tags": {"amenity": "school", "name": "蟠龙小学"}}, "geometry": {"type": "Point", "coordinates": [106.4909421, 29.5108517]}}, {"type": "Feature", "properties": {"osm_id": 1009234189, "name": "重庆市杨家坪中学（彩云湖校区）", "category": "school", "poi_type": "sensitive", "tags": {"amenity": "school", "name": "重庆市杨家坪中学（彩云湖校区）"}}, "geometry": {"type": "Point", "coordinates": [106.4739555, 29.5189171]}}, {"type": "Feature", "properties": {"osm_id": 1009787851, "name": "", "category": "kindergarten", "poi_type": "sensitive", "tags": {"amenity": "kindergarten"}}, "geometry": {"type": "Point", "coordinates": [106.4739148, 29.5145963]}}, {"type": "Feature", "properties": {"osm_id": 1011190711, "name": "玫瑰城小学", "category": "school", "poi_type": "sensitive", "tags": {"amenity": "school", "name": "玫瑰城小学"}}, "geometry": {"type": "Point", "coordinates": [106.5995042, 29.6694467]}}, {"type": "Feature", "properties": {"osm_id": 1011268587, "name": "琦琦幼儿园", "category": "kindergarten", "poi_type": "sensitive", "tags": {"amenity": "kindergarten", "name": "琦琦幼儿园"}}, "geometry": {"type": "Point", "coordinates": [106.5029695, 29.5151352]}}, {"type": "Feature", "properties": {"osm_id": 1011268588, "name": "杨家坪小学", "category": "school", "poi_type": "sensitive", "tags": {"amenity": "school", "name": "杨家坪小学"}}, "geometry": {"type": "Point", "coordinates": [106.502397, 29.5146005]}}, {"type": "Feature", "properties": {"osm_id": 1011268592, "name": "重庆杨家坪中学B区", "category": "school", "poi_type": "sensitive", "tags": {"amenity": "school", "name": "重庆杨家坪中学B区"}}, "geometry": {"type": "Point", "coordinates": [106.5001218, 29.5135771]}}, {"type": "Feature", "properties": {"osm_id": 1012807408, "name": "重庆市九龙坡区第一人民医院", "category": "hospital", "poi_type": "sensitive", "tags": {"amenity": "hospital", "name": "重庆市九龙坡区第一人民医院"}}, "geometry": {"type": "Point", "coordinates": [106.5014711, 29.5125207]}}, {"type": "Feature", "properties": {"osm_id": 1013300477, "name": "西南政法大学（宝圣湖校区）", "category": "college", "poi_type": "sensitive", "tags": {"amenity": "college", "name": "西南政法大学（宝圣湖校区）"}}, "geometry": {"type": "Point", "coordinates": [106.5973448, 29.6825858]}}, {"type": "Feature", "properties": {"osm_id": 1013329926, "name": "吉的堡幼儿园", "category": "kindergarten", "poi_type": "sensitive", "tags": {"amenity": "kindergarten", "name": "吉的堡幼儿园"}}, "geometry": {"type": "Point", "coordinates": [106.6104915, 29.6789085]}}, {"type": "Feature", "properties": {"osm_id": 1013341714, "name": "华润谢家湾小学", "category": "school", "poi_type": "sensitive", "tags": {"amenity": "school", "name": "华润谢家湾小学"}}, "geometry": {"type": "Point", "coordinates": [106.5188151, 29.5175637]}}, {"type": "Feature", "properties": {"osm_id": 1013341723, "name": "吉的堡华润幼儿园", "category": "kindergarten", "poi_type": "sensitive", "tags": {"amenity": "kindergarten", "name": "吉的堡华润幼儿园"}}, "geometry": {"type": "Point", "coordinates": [106.5176211, 29.5220463]}}, {"type": "Feature", "properties": {"osm_id": 1013463799, "name": "重庆礼嘉中学（金童校区）", "category": "school", "poi_type": "sensitive", "tags": {"amenity": "school", "name": "重庆礼嘉中学（金童校区）"}}, "geometry": {"type": "Point", "coordinates": [106.5484544, 29.6288231]}}, {"type": "Feature", "properties": {"osm_id": 1013463807, "name": "早慧松龙幼儿园", "category": "kindergarten", "poi_type": "sensitive", "tags": {"amenity": "kindergarten", "name": "早慧松龙幼儿园"}}, "geometry": {"type": "Point", "coordinates": [106.5513821, 29.6273937]}}, {"type": "Feature", "properties": {"osm_id": 1013468683, "name": "重庆两江新区童心花园小学", "category": "school", "poi_type": "sensitive", "tags": {"amenity": "school", "name": "重庆两江新区童心花园小学"}}, "geometry": {"type": "Point", "coordinates": [106.5415031, 29.6193877]}}, {"type": "Feature", "properties": {"osm_id": 1013632874, "name": "渝北区金鹏实验小学", "category": "school", "poi_type": "sensitive", "tags": {"amenity": "school", "name": "渝北区金鹏实验小学"}}, "geometry": {"type": "Point", "coordinates": [106.5918966, 29.6737866]}}, {"type": "Feature", "properties": {"osm_id": 1013638088, "name": "重庆八中两江金溪中学", "category": "school", "poi_type": "sensitive", "tags": {"amenity": "school", "name": "重庆八中两江金溪中学"}}, "geometry": {"type": "Point", "coordinates": [106.5762561, 29.6650269]}}, {"type": "Feature", "properties": {"osm_id": 1013638090, "name": "", "category": "school", "poi_type": "sensitive", "tags": {"amenity": "school"}}, "geometry": {"type": "Point", "coordinates": [106.5777219, 29.664626]}}, {"type": "Feature", "properties": {"osm_id": 1014210857, "name": "重庆两江新区星光学校", "category": "school", "poi_type": "sensitive", "tags": {"amenity": "school", "name": "重庆两江新区星光学校"}}, "geometry": {"type": "Point", "coordinates": [106.4966788, 29.6095489]}}, {"type": "Feature", "properties": {"osm_id": 1014508575, "name": "", "category": "school", "poi_type": "sensitive", "tags": {"amenity": "school"}}, "geometry": {"type": "Point", "coordinates": [106.4966835, 29.5948878]}}, {"type": "Feature", "properties": {"osm_id": 1014521014, "name": "渝北区东和春天实验学校", "category": "school", "poi_type": "sensitive", "tags": {"amenity": "school", "name": "渝北区东和春天实验学校"}}, "geometry": {"type": "Point", "coordinates": [106.4998648, 29.5947852]}}, {"type": "Feature", "properties": {"osm_id": 1014521017, "name": "重庆医科大学附属口腔医院", "category": "hospital", "poi_type": "sensitive", "tags": {"amenity": "hospital", "name": "重庆医科大学附属口腔医院"}}, "geometry": {"type": "Point", "coordinates": [106.5013622, 29.5974008]}}, {"type": "Feature", "properties": {"osm_id": 1014563143, "name": "松树桥中学（B区）", "category": "school", "poi_type": "sensitive", "tags": {"amenity": "school", "name": "松树桥中学（B区）"}}, "geometry": {"type": "Point", "coordinates": [106.4880228, 29.5969478]}}, {"type": "Feature", "properties": {"osm_id": 1014970478, "name": "松树桥中学", "category": "school", "poi_type": "sensitive", "tags": {"amenity": "school", "name": "松树桥中学"}}, "geometry": {"type": "Point", "coordinates": [106.4967034, 29.5882079]}}, {"type": "Feature", "properties": {"osm_id": 1015015111, "name": "江北区玉带山小学（北区）和重庆字水中学（北区）", "category": "school", "poi_type": "sensitive", "tags": {"amenity": "school", "name": "江北区玉带山小学（北区）和重庆字水中学（北区）"}}, "geometry": {"type": "Point", "coordinates": [106.4749636, 29.5995797]}}, {"type": "Feature", "properties": {"osm_id": 1015015137, "name": "爱贝贝幼儿园（源著北区校区）", "category": "kindergarten", "poi_type": "sensitive", "tags": {"amenity": "kindergarten", "name": "爱贝贝幼儿园（源著北区校区）"}}, "geometry": {"type": "Point", "coordinates": [106.4780867, 29.6011357]}}, {"type": "Feature", "properties": {"osm_id": 1015407054, "name": "重庆外语外事学院（两江校区）", "category": "college", "poi_type": "sensitive", "tags": {"amenity": "college", "name": "重庆外语外事学院（两江校区）", "name:en": "Chongqing Institute of Foreign Studies (Liangjiang Campus)", "name:zh": "重庆外语外事学院（两江校区）"}}, "geometry": {"type": "Point", "coordinates": [106.6034889, 29.6672952]}}, {"type": "Feature", "properties": {"osm_id": 1015407055, "name": "", "category": "kindergarten", "poi_type": "sensitive", "tags": {"amenity": "kindergarten"}}, "geometry": {"type": "Point", "coordinates": [106.6045712, 29.6695067]}}, {"type": "Feature", "properties": {"osm_id": 1015407056, "name": "", "category": "school", "poi_type": "sensitive", "tags": {"amenity": "school"}}, "geometry": {"type": "Point", "coordinates": [106.605541, 29.6740694]}}, {"type": "Feature", "properties": {"osm_id": 1018942894, "name": "江南水岸小学", "category": "school", "poi_type": "sensitive", "tags": {"amenity": "school", "name": "江南水岸小学"}}, "geometry": {"type": "Point", "coordinates": [106.6789486, 29.5138897]}}, {"type": "Feature", "properties": {"osm_id": 1018942914, "name": "江南广茂小学", "category": "school", "poi_type": "sensitive", "tags": {"amenity": "school", "name": "江南广茂小学"}}, "geometry": {"type": "Point", "coordinates": [106.6758416, 29.5163618]}}, {"type": "Feature", "properties": {"osm_id": 1020176796, "name": "重庆市巴渝学校", "category": "school", "poi_type": "sensitive", "tags": {"amenity": "school", "name": "重庆市巴渝学校"}}, "geometry": {"type": "Point", "coordinates": [106.4627389, 29.4900773]}}, {"type": "Feature", "properties": {"osm_id": 1020176813, "name": "双山实验小学", "category": "school", "poi_type": "sensitive", "tags": {"amenity": "school", "name": "双山实验小学"}}, "geometry": {"type": "Point", "coordinates": [106.4616784, 29.4956714]}}, {"type": "Feature", "properties": {"osm_id": 1020176833, "name": "3之3幼儿园", "category": "kindergarten", "poi_type": "sensitive", "tags": {"amenity": "kindergarten", "name": "3之3幼儿园"}}, "geometry": {"type": "Point", "coordinates": [106.4634066, 29.4910669]}}, {"type": "Feature", "properties": {"osm_id": 1020176834, "name": "伟才国际幼儿园", "category": "kindergarten", "poi_type": "sensitive", "tags": {"amenity": "kindergarten", "name": "伟才国际幼儿园"}}, "geometry": {"type": "Point", "coordinates": [106.4610572, 29.490708]}}, {"type": "Feature", "properties": {"osm_id": 1020188489, "name": "育才小学（双山校区）", "category": "school", "poi_type": "sensitive", "tags": {"amenity": "school", "name": "育才小学（双山校区）"}}, "geometry": {"type": "Point", "coordinates": [106.4716799, 29.4908774]}}, {"type": "Feature", "properties": {"osm_id": 1021029270, "name": "重庆市六十五中学", "category": "school", "poi_type": "sensitive", "tags": {"amenity": "school", "name": "重庆市六十五中学"}}, "geometry": {"type": "Point", "coordinates": [106.4632246, 29.5260844]}}, {"type": "Feature", "properties": {"osm_id": 1021402841, "name": "天宫殿小学", "category": "school", "poi_type": "sensitive", "tags": {"amenity": "school", "name": "天宫殿小学"}}, "geometry": {"type": "Point", "coordinates": [106.5501845, 29.6041582]}}, {"type": "Feature", "properties": {"osm_id": 1021402865, "name": "重庆北济医院", "category": "hospital", "poi_type": "sensitive", "tags": {"amenity": "hospital", "name": "重庆北济医院"}}, "geometry": {"type": "Point", "coordinates": [106.5512904, 29.6044127]}}, {"type": "Feature", "properties": {"osm_id": 1021402876, "name": "重庆市公安局北部新区分局天宫殿派出所", "category": "police", "poi_type": "sensitive", "tags": {"amenity": "police", "building": "yes", "name": "重庆市公安局北部新区分局天宫殿派出所"}}, "geometry": {"type": "Point", "coordinates": [106.5530082, 29.6066839]}}, {"type": "Feature", "properties": {"osm_id": 1021402890, "name": "龙城国际小金星幼儿园", "category": "kindergarten", "poi_type": "sensitive", "tags": {"amenity": "kindergarten", "name": "龙城国际小金星幼儿园"}}, "geometry": {"type": "Point", "coordinates": [106.5516569, 29.6019329]}}, {"type": "Feature", "properties": {"osm_id": 1021584357, "name": "巴蜀鲁能第二幼儿园", "category": "kindergarten", "poi_type": "sensitive", "tags": {"amenity": "kindergarten", "name": "巴蜀鲁能第二幼儿园"}}, "geometry": {"type": "Point", "coordinates": [106.5602023, 29.5993704]}}, {"type": "Feature", "properties": {"osm_id": 1021584364, "name": "重庆巴川量子学校", "category": "school", "poi_type": "sensitive", "tags": {"amenity": "school", "name": "重庆巴川量子学校"}}, "geometry": {"type": "Point", "coordinates": [106.5630577, 29.5941252]}}, {"type": "Feature", "properties": {"osm_id": 1021584382, "name": "重庆康心医院", "category": "hospital", "poi_type": "sensitive", "tags": {"amenity": "hospital", "name": "重庆康心医院"}}, "geometry": {"type": "Point", "coordinates": [106.56661, 29.602412]}}, {"type": "Feature", "properties": {"osm_id": 1021613183, "name": "小小藤幼儿园", "category": "kindergarten", "poi_type": "sensitive", "tags": {"amenity": "kindergarten", "name": "小小藤幼儿园"}}, "geometry": {"type": "Point", "coordinates": [106.6503035, 29.5218696]}}, {"type": "Feature", "properties": {"osm_id": 1021647932, "name": "南岸区广福未来学校", "category": "school", "poi_type": "sensitive", "tags": {"amenity": "school", "name": "南岸区广福未来学校"}}, "geometry": {"type": "Point", "coordinates": [106.6464472, 29.5154003]}}, {"type": "Feature", "properties": {"osm_id": 1022188352, "name": "南坪实验外国语小学", "category": "school", "poi_type": "sensitive", "tags": {"amenity": "school", "name": "南坪实验外国语小学"}}, "geometry": {"type": "Point", "coordinates": [106.558978, 29.4945951]}}, {"type": "Feature", "properties": {"osm_id": 1022188353, "name": "观塘中学", "category": "school", "poi_type": "sensitive", "tags": {"amenity": "school", "name": "观塘中学"}}, "geometry": {"type": "Point", "coordinates": [106.5589902, 29.4958192]}}, {"type": "Feature", "properties": {"osm_id": 1022566458, "name": "融汇清华实验中学校", "category": "school", "poi_type": "sensitive", "tags": {"amenity": "school", "name": "融汇清华实验中学校"}}, "geometry": {"type": "Point", "coordinates": [106.5068118, 29.4713014]}}, {"type": "Feature", "properties": {"osm_id": 1022566469, "name": "融汇大地幼儿园", "category": "kindergarten", "poi_type": "sensitive", "tags": {"amenity": "kindergarten", "name": "融汇大地幼儿园"}}, "geometry": {"type": "Point", "coordinates": [106.5096853, 29.4714704]}}, {"type": "Feature", "properties": {"osm_id": 1022758798, "name": "融汇小学", "category": "school", "poi_type": "sensitive", "tags": {"amenity": "school", "name": "融汇小学"}}, "geometry": {"type": "Point", "coordinates": [106.5114652, 29.4703649]}}, {"type": "Feature", "properties": {"osm_id": 1022758816, "name": "鱼洞二小(昕晖校区)", "category": "school", "poi_type": "sensitive", "tags": {"amenity": "school", "name": "鱼洞二小(昕晖校区)"}}, "geometry": {"type": "Point", "coordinates": [106.5047863, 29.4678839]}}, {"type": "Feature", "properties": {"osm_id": 1023298982, "name": "西南医院", "category": "hospital", "poi_type": "sensitive", "tags": {"amenity": "hospital", "name": "西南医院", "name:en": "Southwest Hospital", "name:zh": "西南医院"}}, "geometry": {"type": "Point", "coordinates": [106.4484506, 29.5392499]}}, {"type": "Feature", "properties": {"osm_id": 1025797978, "name": "渝中区公安局", "category": "police", "poi_type": "sensitive", "tags": {"addr:street": "管家巷", "amenity": "police", "building": "yes", "name": "渝中区公安局"}}, "geometry": {"type": "Point", "coordinates": [106.5658596, 29.5557106]}}, {"type": "Feature", "properties": {"osm_id": 1026012252, "name": "华东师范大学附属中旭学校", "category": "school", "poi_type": "sensitive", "tags": {"amenity": "school", "name": "华东师范大学附属中旭学校"}}, "geometry": {"type": "Point", "coordinates": [106.4843553, 29.6465451]}}, {"type": "Feature", "properties": {"osm_id": 1027621642, "name": "重庆佛学院", "category": "college", "poi_type": "sensitive", "tags": {"amenity": "college", "name": "重庆佛学院"}}, "geometry": {"type": "Point", "coordinates": [106.4405403, 29.4953548]}}, {"type": "Feature", "properties": {"osm_id": 1028280294, "name": "重庆开放大学（石桥铺校区）", "category": "university", "poi_type": "sensitive", "tags": {"amenity": "university", "name": "重庆开放大学（石桥铺校区）"}}, "geometry": {"type": "Point", "coordinates": [106.4826597, 29.5327688]}}, {"type": "Feature", "properties": {"osm_id": 1028949863, "name": "香溪小学", "category": "school", "poi_type": "sensitive", "tags": {"amenity": "school", "name": "香溪小学"}}, "geometry": {"type": "Point", "coordinates": [106.6490386, 29.493097]}}, {"type": "Feature", "properties": {"osm_id": 1035581319, "name": "友方医院", "category": "hospital", "poi_type": "sensitive", "tags": {"amenity": "hospital", "name": "友方医院"}}, "geometry": {"type": "Point", "coordinates": [106.442194, 29.460426]}}, {"type": "Feature", "properties": {"osm_id": 1035908448, "name": "重庆外国语学校森林小学彩云湖校区", "category": "school", "poi_type": "sensitive", "tags": {"amenity": "school", "name": "重庆外国语学校森林小学彩云湖校区"}}, "geometry": {"type": "Point", "coordinates": [106.4911953, 29.5138107]}}, {"type": "Feature", "properties": {"osm_id": 1036182336, "name": "南坪实验小学(康德校区)", "category": "school", "poi_type": "sensitive", "tags": {"amenity": "school", "name": "南坪实验小学(康德校区)"}}, "geometry": {"type": "Point", "coordinates": [106.5722004, 29.5300143]}}, {"type": "Feature", "properties": {"osm_id": 1036209814, "name": "重庆两江新区人民小学", "category": "school", "poi_type": "sensitive", "tags": {"amenity": "school", "name": "重庆两江新区人民小学"}}, "geometry": {"type": "Point", "coordinates": [106.518641, 29.6579519]}}, {"type": "Feature", "properties": {"osm_id": 1037881240, "name": "春天里幼儿园", "category": "kindergarten", "poi_type": "sensitive", "tags": {"amenity": "kindergarten", "name": "春天里幼儿园"}}, "geometry": {"type": "Point", "coordinates": [106.4920447, 29.5102956]}}, {"type": "Feature", "properties": {"osm_id": 1057490703, "name": "", "category": "kindergarten", "poi_type": "sensitive", "tags": {"amenity": "kindergarten"}}, "geometry": {"type": "Point", "coordinates": [106.4585733, 29.4965253]}}, {"type": "Feature", "properties": {"osm_id": 1057490713, "name": "公路运输公司汽车驾校", "category": "school", "poi_type": "sensitive", "tags": {"amenity": "school", "name": "公路运输公司汽车驾校"}}, "geometry": {"type": "Point", "coordinates": [106.4592819, 29.4940031]}}, {"type": "Feature", "properties": {"osm_id": 1063626666, "name": "观音桥小学五里坪校区", "category": "school", "poi_type": "sensitive", "tags": {"amenity": "school", "name": "观音桥小学五里坪校区"}}, "geometry": {"type": "Point", "coordinates": [106.6467914, 29.6218555]}}, {"type": "Feature", "properties": {"osm_id": 1068202723, "name": "胜利村小学", "category": "school", "poi_type": "sensitive", "tags": {"amenity": "school", "name": "胜利村小学"}}, "geometry": {"type": "Point", "coordinates": [106.6668772, 29.621079]}}, {"type": "Feature", "properties": {"osm_id": 1068202725, "name": "重庆市女子职业高级中学", "category": "school", "poi_type": "sensitive", "tags": {"amenity": "school", "name": "重庆市女子职业高级中学"}}, "geometry": {"type": "Point", "coordinates": [106.6699897, 29.6175156]}}, {"type": "Feature", "properties": {"osm_id": 1072038329, "name": "重庆市沙坪坝区人民医院（井双院区）", "category": "hospital", "poi_type": "sensitive", "tags": {"amenity": "hospital", "name": "重庆市沙坪坝区人民医院（井双院区）"}}, "geometry": {"type": "Point", "coordinates": [106.4365786, 29.63282]}}, {"type": "Feature", "properties": {"osm_id": 1073841941, "name": "重庆电子科技职业大学两江校区", "category": "school", "poi_type": "sensitive", "tags": {"amenity": "school", "name": "重庆电子科技职业大学两江校区"}}, "geometry": {"type": "Point", "coordinates": [106.4624663, 29.6286002]}}, {"type": "Feature", "properties": {"osm_id": 1076617376, "name": "川益小学", "category": "school", "poi_type": "sensitive", "tags": {"amenity": "school", "name": "川益小学"}}, "geometry": {"type": "Point", "coordinates": [106.5431225, 29.533439]}}, {"type": "Feature", "properties": {"osm_id": 1082244695, "name": "金德凯顿幼儿园", "category": "kindergarten", "poi_type": "sensitive", "tags": {"amenity": "kindergarten", "name": "金德凯顿幼儿园"}}, "geometry": {"type": "Point", "coordinates": [106.4963077, 29.5173575]}}, {"type": "Feature", "properties": {"osm_id": 1082244747, "name": "博苑幼儿园", "category": "kindergarten", "poi_type": "sensitive", "tags": {"amenity": "kindergarten", "name": "博苑幼儿园"}}, "geometry": {"type": "Point", "coordinates": [106.4938331, 29.5129644]}}, {"type": "Feature", "properties": {"osm_id": 1082368018, "name": "", "category": "kindergarten", "poi_type": "sensitive", "tags": {"amenity": "kindergarten"}}, "geometry": {"type": "Point", "coordinates": [106.449345, 29.5179389]}}, {"type": "Feature", "properties": {"osm_id": 1089392810, "name": "重庆行知育才学校", "category": "school", "poi_type": "sensitive", "tags": {"amenity": "school", "name": "重庆行知育才学校"}}, "geometry": {"type": "Point", "coordinates": [106.4426896, 29.4522909]}}, {"type": "Feature", "properties": {"osm_id": 1098731508, "name": "重庆开放大学", "category": "university", "poi_type": "sensitive", "tags": {"amenity": "university", "name": "重庆开放大学"}}, "geometry": {"type": "Point", "coordinates": [106.4494045, 29.5001825]}}, {"type": "Feature", "properties": {"osm_id": 1101495344, "name": "重庆两江新区星湖学校", "category": "school", "poi_type": "sensitive", "tags": {"amenity": "school", "name": "重庆两江新区星湖学校"}}, "geometry": {"type": "Point", "coordinates": [106.5057523, 29.6388195]}}, {"type": "Feature", "properties": {"osm_id": 1101495345, "name": "舜山府幼儿园", "category": "kindergarten", "poi_type": "sensitive", "tags": {"amenity": "kindergarten", "name": "舜山府幼儿园"}}, "geometry": {"type": "Point", "coordinates": [106.504364, 29.6380672]}}, {"type": "Feature", "properties": {"osm_id": 1101671538, "name": "重庆医科大学附属第二医院江南院区", "category": "hospital", "poi_type": "sensitive", "tags": {"amenity": "hospital", "name": "重庆医科大学附属第二医院江南院区"}}, "geometry": {"type": "Point", "coordinates": [106.6589557, 29.5415349]}}, {"type": "Feature", "properties": {"osm_id": 1112721477, "name": "铂爵郡幼儿园", "category": "kindergarten", "poi_type": "sensitive", "tags": {"amenity": "kindergarten", "name": "铂爵郡幼儿园"}}, "geometry": {"type": "Point", "coordinates": [106.6219997, 29.4667376]}}, {"type": "Feature", "properties": {"osm_id": 1112721485, "name": "重庆史迪威外语学校", "category": "school", "poi_type": "sensitive", "tags": {"amenity": "school", "name": "重庆史迪威外语学校"}}, "geometry": {"type": "Point", "coordinates": [106.6142366, 29.4667382]}}, {"type": "Feature", "properties": {"osm_id": 1112721487, "name": "树人立德小学", "category": "school", "poi_type": "sensitive", "tags": {"amenity": "school", "name": "树人立德小学"}}, "geometry": {"type": "Point", "coordinates": [106.6156256, 29.4653175]}}, {"type": "Feature", "properties": {"osm_id": 1112721490, "name": "融创欧麓长青·大地幼儿园", "category": "kindergarten", "poi_type": "sensitive", "tags": {"amenity": "kindergarten", "name": "融创欧麓长青·大地幼儿园"}}, "geometry": {"type": "Point", "coordinates": [106.6184704, 29.4648663]}}, {"type": "Feature", "properties": {"osm_id": 1116939297, "name": "渝北区宝圣湖小学校", "category": "school", "poi_type": "sensitive", "tags": {"amenity": "school", "name": "渝北区宝圣湖小学校"}}, "geometry": {"type": "Point", "coordinates": [106.5990653, 29.6535175]}}, {"type": "Feature", "properties": {"osm_id": 1120497361, "name": "华梁学校", "category": "school", "poi_type": "sensitive", "tags": {"amenity": "school", "name": "华梁学校"}}, "geometry": {"type": "Point", "coordinates": [106.4608237, 29.4778681]}}, {"type": "Feature", "properties": {"osm_id": 1120565718, "name": "重庆市渝高中学校(二郎校区)", "category": "school", "poi_type": "sensitive", "tags": {"amenity": "school", "name": "重庆市渝高中学校(二郎校区)"}}, "geometry": {"type": "Point", "coordinates": [106.4634549, 29.504888]}}, {"type": "Feature", "properties": {"osm_id": 1130923155, "name": "爱贝贝幼儿园", "category": "kindergarten", "poi_type": "sensitive", "tags": {"amenity": "kindergarten", "name": "爱贝贝幼儿园"}}, "geometry": {"type": "Point", "coordinates": [106.4968566, 29.6430146]}}, {"type": "Feature", "properties": {"osm_id": 1130923162, "name": "重庆市人民医院", "category": "hospital", "poi_type": "sensitive", "tags": {"amenity": "hospital", "name": "重庆市人民医院"}}, "geometry": {"type": "Point", "coordinates": [106.5042251, 29.6454092]}}, {"type": "Feature", "properties": {"osm_id": 1130928119, "name": "重光小学", "category": "school", "poi_type": "sensitive", "tags": {"amenity": "school", "name": "重光小学"}}, "geometry": {"type": "Point", "coordinates": [106.5145088, 29.6475838]}}, {"type": "Feature", "properties": {"osm_id": 1130928121, "name": "东方剑桥幼儿园", "category": "kindergarten", "poi_type": "sensitive", "tags": {"amenity": "kindergarten", "name": "东方剑桥幼儿园"}}, "geometry": {"type": "Point", "coordinates": [106.5130405, 29.647845]}}, {"type": "Feature", "properties": {"osm_id": 1132015787, "name": "星光九曲河学校", "category": "school", "poi_type": "sensitive", "tags": {"amenity": "school", "name": "星光九曲河学校"}}, "geometry": {"type": "Point", "coordinates": [106.4821991, 29.6594691]}}, {"type": "Feature", "properties": {"osm_id": 1137460515, "name": "两江新区人民医院", "category": "hospital", "poi_type": "sensitive", "tags": {"amenity": "hospital", "name": "两江新区人民医院"}}, "geometry": {"type": "Point", "coordinates": [106.5236287, 29.6256971]}}, {"type": "Feature", "properties": {"osm_id": 1137785136, "name": "金渝学校", "category": "school", "poi_type": "sensitive", "tags": {"amenity": "school", "name": "金渝学校"}}, "geometry": {"type": "Point", "coordinates": [106.55979, 29.6533076]}}, {"type": "Feature", "properties": {"osm_id": 1143801984, "name": "歇台子小学", "category": "school", "poi_type": "sensitive", "tags": {"amenity": "school", "name": "歇台子小学", "name:en": "Xietaizi Elementary School", "name:zh": "歇台子小学"}}, "geometry": {"type": "Point", "coordinates": [106.4958841, 29.5393215]}}, {"type": "Feature", "properties": {"osm_id": 1144617109, "name": "九龙坡区第一实验小学(江州校区)", "category": "school", "poi_type": "sensitive", "tags": {"amenity": "school", "name": "九龙坡区第一实验小学(江州校区)"}}, "geometry": {"type": "Point", "coordinates": [106.4886214, 29.5241828]}}, {"type": "Feature", "properties": {"osm_id": 1146417280, "name": "重庆市第三十七中学校（自成校区）", "category": "school", "poi_type": "sensitive", "tags": {"amenity": "school", "name": "重庆市第三十七中学校（自成校区）"}}, "geometry": {"type": "Point", "coordinates": [106.4556325, 29.4668461]}}, {"type": "Feature", "properties": {"osm_id": 1146495449, "name": "钰鑫小学教育集团义渡小学", "category": "school", "poi_type": "sensitive", "tags": {"amenity": "school", "name": "钰鑫小学教育集团义渡小学"}}, "geometry": {"type": "Point", "coordinates": [106.4620744, 29.4540035]}}, {"type": "Feature", "properties": {"osm_id": 1149374830, "name": "江北区知易外国语学校", "category": "school", "poi_type": "sensitive", "tags": {"amenity": "school", "name": "江北区知易外国语学校"}}, "geometry": {"type": "Point", "coordinates": [106.540769, 29.5864481]}}, {"type": "Feature", "properties": {"osm_id": 1149374832, "name": "新村正大国际小学", "category": "school", "poi_type": "sensitive", "tags": {"amenity": "school", "name": "新村正大国际小学"}}, "geometry": {"type": "Point", "coordinates": [106.5409841, 29.5852072]}}, {"type": "Feature", "properties": {"osm_id": 1153741548, "name": "珊瑚时代都汇幼儿园", "category": "kindergarten", "poi_type": "sensitive", "tags": {"amenity": "kindergarten", "name": "珊瑚时代都汇幼儿园"}}, "geometry": {"type": "Point", "coordinates": [106.6373038, 29.4947743]}}, {"type": "Feature", "properties": {"osm_id": 1153741550, "name": "珊瑚鲁能小学", "category": "school", "poi_type": "sensitive", "tags": {"amenity": "school", "name": "珊瑚鲁能小学"}}, "geometry": {"type": "Point", "coordinates": [106.6292728, 29.4981113]}}, {"type": "Feature", "properties": {"osm_id": 1153741552, "name": "重庆珊瑚中学（江南新城校区）", "category": "school", "poi_type": "sensitive", "tags": {"amenity": "school", "name": "重庆珊瑚中学（江南新城校区）"}}, "geometry": {"type": "Point", "coordinates": [106.630819, 29.4997843]}}, {"type": "Feature", "properties": {"osm_id": 1157912353, "name": "九龙坡区彩云湖小学校（B区）", "category": "school", "poi_type": "sensitive", "tags": {"amenity": "school", "name": "九龙坡区彩云湖小学校（B区）"}}, "geometry": {"type": "Point", "coordinates": [106.4671095, 29.5215831]}}, {"type": "Feature", "properties": {"osm_id": 1158997321, "name": "四川外国语大学九龙坡区附属小学", "category": "school", "poi_type": "sensitive", "tags": {"amenity": "school", "name": "四川外国语大学九龙坡区附属小学"}}, "geometry": {"type": "Point", "coordinates": [106.5248963, 29.5149082]}}, {"type": "Feature", "properties": {"osm_id": 1158997323, "name": "谢家湾博雅幼儿园", "category": "kindergarten", "poi_type": "sensitive", "tags": {"amenity": "kindergarten", "name": "谢家湾博雅幼儿园"}}, "geometry": {"type": "Point", "coordinates": [106.5246598, 29.5177329]}}, {"type": "Feature", "properties": {"osm_id": 1160389088, "name": "星海学校", "category": "school", "poi_type": "sensitive", "tags": {"amenity": "school", "name": "星海学校"}}, "geometry": {"type": "Point", "coordinates": [106.4819404, 29.638767]}}, {"type": "Feature", "properties": {"osm_id": 1161568520, "name": "欧亚斯特幼儿园", "category": "kindergarten", "poi_type": "sensitive", "tags": {"amenity": "kindergarten", "name": "欧亚斯特幼儿园"}}, "geometry": {"type": "Point", "coordinates": [106.4713041, 29.5183873]}}, {"type": "Feature", "properties": {"osm_id": 1161568523, "name": "伊顿慧智幼儿园（重庆恒基雍翠名门校园）", "category": "kindergarten", "poi_type": "sensitive", "tags": {"amenity": "kindergarten", "name": "伊顿慧智幼儿园（重庆恒基雍翠名门校园）"}}, "geometry": {"type": "Point", "coordinates": [106.4708636, 29.5167293]}}, {"type": "Feature", "properties": {"osm_id": 1164986070, "name": "礼嘉实验二小", "category": "school", "poi_type": "sensitive", "tags": {"amenity": "school", "name": "礼嘉实验二小"}}, "geometry": {"type": "Point", "coordinates": [106.4970703, 29.6804407]}}, {"type": "Feature", "properties": {"osm_id": 1165532918, "name": "徐悲鸿中学", "category": "school", "poi_type": "sensitive", "tags": {"amenity": "school", "name": "徐悲鸿中学"}}, "geometry": {"type": "Point", "coordinates": [106.5240211, 29.5661358]}}, {"type": "Feature", "properties": {"osm_id": 1165532919, "name": "重庆市江北区教师进修学院", "category": "college", "poi_type": "sensitive", "tags": {"amenity": "college", "name": "重庆市江北区教师进修学院"}}, "geometry": {"type": "Point", "coordinates": [106.5250171, 29.5657913]}}, {"type": "Feature", "properties": {"osm_id": 1171105179, "name": "九龙园派出所", "category": "police", "poi_type": "sensitive", "tags": {"amenity": "police", "building": "no", "name": "九龙园派出所"}}, "geometry": {"type": "Point", "coordinates": [106.4881695, 29.5030116]}}, {"type": "Feature", "properties": {"osm_id": 1171484230, "name": "重庆市九龙坡区育才实验学校", "category": "school", "poi_type": "sensitive", "tags": {"amenity": "school", "name": "重庆市九龙坡区育才实验学校"}}, "geometry": {"type": "Point", "coordinates": [106.5226545, 29.5060487]}}, {"type": "Feature", "properties": {"osm_id": 1171485715, "name": "江北区科技实验小学", "category": "school", "poi_type": "sensitive", "tags": {"amenity": "school", "name": "江北区科技实验小学"}}, "geometry": {"type": "Point", "coordinates": [106.4932213, 29.5682308]}}, {"type": "Feature", "properties": {"osm_id": 1173616468, "name": "", "category": "school", "poi_type": "sensitive", "tags": {"amenity": "school"}}, "geometry": {"type": "Point", "coordinates": [106.5942193, 29.5180896]}}, {"type": "Feature", "properties": {"osm_id": 1176121024, "name": "两江新区金山第二幼儿园", "category": "kindergarten", "poi_type": "sensitive", "tags": {"amenity": "kindergarten", "name": "两江新区金山第二幼儿园"}}, "geometry": {"type": "Point", "coordinates": [106.5612935, 29.6301499]}}, {"type": "Feature", "properties": {"osm_id": 1176121034, "name": "两江新区民心佳园小学", "category": "school", "poi_type": "sensitive", "tags": {"amenity": "school", "name": "两江新区民心佳园小学"}}, "geometry": {"type": "Point", "coordinates": [106.5609977, 29.6265524]}}, {"type": "Feature", "properties": {"osm_id": 1176121038, "name": "当当幼儿园", "category": "kindergarten", "poi_type": "sensitive", "tags": {"amenity": "kindergarten", "name": "当当幼儿园"}}, "geometry": {"type": "Point", "coordinates": [106.5614922, 29.6272703]}}, {"type": "Feature", "properties": {"osm_id": 1176130820, "name": "西南大学附属中学大竹林校区", "category": "school", "poi_type": "sensitive", "tags": {"amenity": "school", "name": "西南大学附属中学大竹林校区"}}, "geometry": {"type": "Point", "coordinates": [106.4718307, 29.6208771]}}, {"type": "Feature", "properties": {"osm_id": 1176130822, "name": "重庆竹林实验学校", "category": "school", "poi_type": "sensitive", "tags": {"amenity": "school", "name": "重庆竹林实验学校"}}, "geometry": {"type": "Point", "coordinates": [106.4727561, 29.6242147]}}, {"type": "Feature", "properties": {"osm_id": 1177468155, "name": "弹子石小学中海校区", "category": "school", "poi_type": "sensitive", "tags": {"amenity": "school", "name": "弹子石小学中海校区"}}, "geometry": {"type": "Point", "coordinates": [106.585791, 29.5938053]}}, {"type": "Feature", "properties": {"osm_id": 1177488233, "name": "弹子石中学校", "category": "school", "poi_type": "sensitive", "tags": {"amenity": "school", "name": "弹子石中学校"}}, "geometry": {"type": "Point", "coordinates": [106.5964478, 29.5913694]}}, {"type": "Feature", "properties": {"osm_id": 1177488234, "name": "南岸区大佛段小学校", "category": "school", "poi_type": "sensitive", "tags": {"amenity": "school", "name": "南岸区大佛段小学校"}}, "geometry": {"type": "Point", "coordinates": [106.596509, 29.5925603]}}, {"type": "Feature", "properties": {"osm_id": 1177834143, "name": "重庆市第五人民医院新院区", "category": "hospital", "poi_type": "sensitive", "tags": {"amenity": "hospital", "name": "重庆市第五人民医院新院区"}}, "geometry": {"type": "Point", "coordinates": [106.6034906, 29.6080468]}}, {"type": "Feature", "properties": {"osm_id": 1188333877, "name": "中国人民解放军陆军勤务学院", "category": "college", "poi_type": "sensitive", "tags": {"amenity": "college", "name": "中国人民解放军陆军勤务学院"}}, "geometry": {"type": "Point", "coordinates": [106.4916844, 29.5403181]}}, {"type": "Feature", "properties": {"osm_id": 1192979009, "name": "通用森林幼儿园", "category": "kindergarten", "poi_type": "sensitive", "tags": {"amenity": "kindergarten", "name": "通用森林幼儿园"}}, "geometry": {"type": "Point", "coordinates": [106.4881711, 29.5261239]}}, {"type": "Feature", "properties": {"osm_id": 1193106570, "name": "重庆消防医院", "category": "hospital", "poi_type": "sensitive", "tags": {"addr:street": "金开大道", "amenity": "hospital", "name": "重庆消防医院"}}, "geometry": {"type": "Point", "coordinates": [106.5570559, 29.6613102]}}, {"type": "Feature", "properties": {"osm_id": 1198056435, "name": "广阳湾珊瑚实验小学", "category": "school", "poi_type": "sensitive", "tags": {"amenity": "school", "name": "广阳湾珊瑚实验小学", "name:en": "Guangyangwan Shanhu Experimental Primary School", "name:zh": "广阳湾珊瑚实验小学"}}, "geometry": {"type": "Point", "coordinates": [106.6557299, 29.5354819]}}, {"type": "Feature", "properties": {"osm_id": 1200812975, "name": "加州实验小学", "category": "school", "poi_type": "sensitive", "tags": {"amenity": "school", "name": "加州实验小学"}}, "geometry": {"type": "Point", "coordinates": [106.5178726, 29.5898075]}}, {"type": "Feature", "properties": {"osm_id": 1203515674, "name": "沙坪坝区沙滨学校", "category": "school", "poi_type": "sensitive", "tags": {"amenity": "school", "name": "沙坪坝区沙滨学校", "name:en": "Shapingba District Shabin School", "name:zh": "沙坪坝区沙滨学校"}}, "geometry": {"type": "Point", "coordinates": [106.4422552, 29.5959835]}}, {"type": "Feature", "properties": {"osm_id": 1206414101, "name": "长生桥派出所", "category": "police", "poi_type": "sensitive", "tags": {"amenity": "police", "name": "长生桥派出所"}}, "geometry": {"type": "Point", "coordinates": [106.6525498, 29.5070266]}}, {"type": "Feature", "properties": {"osm_id": 1208215855, "name": "南岸区南坪实验光华小学", "category": "school", "poi_type": "sensitive", "tags": {"amenity": "school", "name": "南岸区南坪实验光华小学"}}, "geometry": {"type": "Point", "coordinates": [106.6288988, 29.4853419]}}, {"type": "Feature", "properties": {"osm_id": 1209751961, "name": "渝北区龙塔实验学校", "category": "school", "poi_type": "sensitive", "tags": {"amenity": "school", "name": "渝北区龙塔实验学校"}}, "geometry": {"type": "Point", "coordinates": [106.536421, 29.5973654]}}, {"type": "Feature", "properties": {"osm_id": 1209751985, "name": "皇冠实验中学", "category": "school", "poi_type": "sensitive", "tags": {"amenity": "school", "name": "皇冠实验中学"}}, "geometry": {"type": "Point", "coordinates": [106.5339578, 29.5941315]}}, {"type": "Feature", "properties": {"osm_id": 1210033586, "name": "重庆蜀都中学", "category": "school", "poi_type": "sensitive", "tags": {"amenity": "school", "name": "重庆蜀都中学"}}, "geometry": {"type": "Point", "coordinates": [106.5174559, 29.5747598]}}, {"type": "Feature", "properties": {"osm_id": 1210758684, "name": "才儿坊国宾城幼儿园", "category": "kindergarten", "poi_type": "sensitive", "tags": {"amenity": "kindergarten", "name": "才儿坊国宾城幼儿园"}}, "geometry": {"type": "Point", "coordinates": [106.5238756, 29.599783]}}, {"type": "Feature", "properties": {"osm_id": 1210758689, "name": "重庆市工业学校（渝北校区）", "category": "college", "poi_type": "sensitive", "tags": {"amenity": "college", "name": "重庆市工业学校（渝北校区）"}}, "geometry": {"type": "Point", "coordinates": [106.5231656, 29.5931557]}}, {"type": "Feature", "properties": {"osm_id": 1210758699, "name": "重庆市精神卫生中心", "category": "hospital", "poi_type": "sensitive", "tags": {"amenity": "hospital", "name": "重庆市精神卫生中心"}}, "geometry": {"type": "Point", "coordinates": [106.5269531, 29.5965487]}}, {"type": "Feature", "properties": {"osm_id": 1210855066, "name": "", "category": "police", "poi_type": "sensitive", "tags": {"amenity": "police", "building": "yes"}}, "geometry": {"type": "Point", "coordinates": [106.5019875, 29.5629306]}}, {"type": "Feature", "properties": {"osm_id": 1210995549, "name": "重庆工商大学茶园校区", "category": "university", "poi_type": "sensitive", "tags": {"amenity": "university", "name": "重庆工商大学茶园校区"}}, "geometry": {"type": "Point", "coordinates": [106.6503267, 29.5465088]}}, {"type": "Feature", "properties": {"osm_id": 1216781344, "name": "天台岗万国城小学", "category": "school", "poi_type": "sensitive", "tags": {"amenity": "school", "name": "天台岗万国城小学"}}, "geometry": {"type": "Point", "coordinates": [106.642058, 29.5214625]}}, {"type": "Feature", "properties": {"osm_id": 1216783953, "name": "重庆广阳湾珊瑚中学", "category": "school", "poi_type": "sensitive", "tags": {"amenity": "school", "name": "重庆广阳湾珊瑚中学"}}, "geometry": {"type": "Point", "coordinates": [106.6620945, 29.5345095]}}, {"type": "Feature", "properties": {"osm_id": 1216834217, "name": "江南艺术中学校", "category": "school", "poi_type": "sensitive", "tags": {"amenity": "school", "name": "江南艺术中学校"}}, "geometry": {"type": "Point", "coordinates": [106.6695838, 29.5300552]}}, {"type": "Feature", "properties": {"osm_id": 1217162536, "name": "星光柏溪学校", "category": "school", "poi_type": "sensitive", "tags": {"amenity": "school", "name": "星光柏溪学校"}}, "geometry": {"type": "Point", "coordinates": [106.4758075, 29.6167387]}}, {"type": "Feature", "properties": {"osm_id": 1217162574, "name": "嘉木小学校", "category": "school", "poi_type": "sensitive", "tags": {"amenity": "school", "name": "嘉木小学校"}}, "geometry": {"type": "Point", "coordinates": [106.475311, 29.632335]}}, {"type": "Feature", "properties": {"osm_id": 1217516028, "name": "巴学小苑幼儿园", "category": "kindergarten", "poi_type": "sensitive", "tags": {"amenity": "kindergarten", "name": "巴学小苑幼儿园"}}, "geometry": {"type": "Point", "coordinates": [106.6252845, 29.4962078]}}, {"type": "Feature", "properties": {"osm_id": 1218789551, "name": "江北区鸿恩实验学校", "category": "school", "poi_type": "sensitive", "tags": {"amenity": "school", "name": "江北区鸿恩实验学校"}}, "geometry": {"type": "Point", "coordinates": [106.5019773, 29.5655025]}}, {"type": "Feature", "properties": {"osm_id": 1218789552, "name": "重庆市二〇三中学校高中部", "category": "school", "poi_type": "sensitive", "tags": {"amenity": "school", "name": "重庆市二〇三中学校高中部"}}, "geometry": {"type": "Point", "coordinates": [106.4868948, 29.5651457]}}, {"type": "Feature", "properties": {"osm_id": 1222263247, "name": "博琅郡幼儿园", "category": "kindergarten", "poi_type": "sensitive", "tags": {"amenity": "kindergarten", "name": "博琅郡幼儿园"}}, "geometry": {"type": "Point", "coordinates": [106.631423, 29.4706125]}}, {"type": "Feature", "properties": {"osm_id": 1222263249, "name": "重庆清华中学（欧麓校区）", "category": "school", "poi_type": "sensitive", "tags": {"amenity": "school", "name": "重庆清华中学（欧麓校区）"}}, "geometry": {"type": "Point", "coordinates": [106.628614, 29.4684042]}}, {"type": "Feature", "properties": {"osm_id": 1222263250, "name": "鱼洞二小（融创校区）", "category": "school", "poi_type": "sensitive", "tags": {"amenity": "school", "name": "鱼洞二小（融创校区）"}}, "geometry": {"type": "Point", "coordinates": [106.6305908, 29.46709]}}, {"type": "Feature", "properties": {"osm_id": 1222263258, "name": "凤华巴蜀实验幼儿园", "category": "kindergarten", "poi_type": "sensitive", "tags": {"amenity": "kindergarten", "name": "凤华巴蜀实验幼儿园"}}, "geometry": {"type": "Point", "coordinates": [106.6361297, 29.4703873]}}, {"type": "Feature", "properties": {"osm_id": 1222778543, "name": "", "category": "school", "poi_type": "sensitive", "tags": {"amenity": "school"}}, "geometry": {"type": "Point", "coordinates": [106.4819563, 29.6109907]}}, {"type": "Feature", "properties": {"osm_id": 1222879977, "name": "龙湖水晶郦城幼儿园", "category": "kindergarten", "poi_type": "sensitive", "tags": {"amenity": "kindergarten", "name": "龙湖水晶郦城幼儿园"}}, "geometry": {"type": "Point", "coordinates": [106.4944998, 29.6083647]}}, {"type": "Feature", "properties": {"osm_id": 1222934816, "name": "两江新区中医院", "category": "hospital", "poi_type": "sensitive", "tags": {"amenity": "hospital", "name": "两江新区中医院"}}, "geometry": {"type": "Point", "coordinates": [106.4745386, 29.625546]}}, {"type": "Feature", "properties": {"osm_id": 1222934843, "name": "大竹林派出所", "category": "police", "poi_type": "sensitive", "tags": {"amenity": "police", "name": "大竹林派出所"}}, "geometry": {"type": "Point", "coordinates": [106.4745564, 29.6237956]}}, {"type": "Feature", "properties": {"osm_id": 1236298746, "name": "两江新区行远小学", "category": "school", "poi_type": "sensitive", "tags": {"amenity": "school", "name": "两江新区行远小学", "name:en": "Xingyuan Primary School", "name:zh": "两江新区行远小学"}}, "geometry": {"type": "Point", "coordinates": [106.5364618, 29.6229682]}}, {"type": "Feature", "properties": {"osm_id": 1239671461, "name": "陆军军医大学", "category": "university", "poi_type": "sensitive", "tags": {"amenity": "university", "name": "陆军军医大学"}}, "geometry": {"type": "Point", "coordinates": [106.4484132, 29.5367963]}}, {"type": "Feature", "properties": {"osm_id": 1257443400, "name": "人和街小学", "category": "school", "poi_type": "sensitive", "tags": {"amenity": "school", "name": "人和街小学"}}, "geometry": {"type": "Point", "coordinates": [106.5539598, 29.5636377]}}, {"type": "Feature", "properties": {"osm_id": 1259387950, "name": "江北区华新实验小学（鹿鸣校区）", "category": "school", "poi_type": "sensitive", "tags": {"amenity": "school", "name": "江北区华新实验小学（鹿鸣校区）"}}, "geometry": {"type": "Point", "coordinates": [106.4689444, 29.604433]}}, {"type": "Feature", "properties": {"osm_id": 1259387965, "name": "吉的堡幼儿园（重庆宏帆凤凰湾园）", "category": "kindergarten", "poi_type": "sensitive", "tags": {"amenity": "kindergarten", "name": "吉的堡幼儿园（重庆宏帆凤凰湾园）"}}, "geometry": {"type": "Point", "coordinates": [106.4633324, 29.5996975]}}, {"type": "Feature", "properties": {"osm_id": 1259701191, "name": "金州小学东校区", "category": "school", "poi_type": "sensitive", "tags": {"amenity": "school", "name": "金州小学东校区"}}, "geometry": {"type": "Point", "coordinates": [106.540729, 29.6469183]}}, {"type": "Feature", "properties": {"osm_id": 1263147984, "name": "南岸区弹子石幼儿园", "category": "kindergarten", "poi_type": "sensitive", "tags": {"amenity": "kindergarten", "name": "南岸区弹子石幼儿园"}}, "geometry": {"type": "Point", "coordinates": [106.5877383, 29.5797088]}}, {"type": "Feature", "properties": {"osm_id": 1263431796, "name": "重庆行政学院", "category": "college", "poi_type": "sensitive", "tags": {"amenity": "college", "name": "重庆行政学院"}}, "geometry": {"type": "Point", "coordinates": [106.4956529, 29.535821]}}, {"type": "Feature", "properties": {"osm_id": 1263749089, "name": "重庆市中医院（南桥寺院部）", "category": "hospital", "poi_type": "sensitive", "tags": {"amenity": "hospital", "name": "重庆市中医院（南桥寺院部）"}}, "geometry": {"type": "Point", "coordinates": [106.4766611, 29.5944196]}}, {"type": "Feature", "properties": {"osm_id": 1263749094, "name": "玉带山金色年华幼儿园", "category": "kindergarten", "poi_type": "sensitive", "tags": {"amenity": "kindergarten", "name": "玉带山金色年华幼儿园"}}, "geometry": {"type": "Point", "coordinates": [106.4756708, 29.5970472]}}, {"type": "Feature", "properties": {"osm_id": 1263749096, "name": "金凤凰可乐小镇幼儿园", "category": "kindergarten", "poi_type": "sensitive", "tags": {"amenity": "kindergarten", "name": "金凤凰可乐小镇幼儿园"}}, "geometry": {"type": "Point", "coordinates": [106.4748633, 29.5948044]}}, {"type": "Feature", "properties": {"osm_id": 1263756607, "name": "重庆市教科院华渝实验学校", "category": "school", "poi_type": "sensitive", "tags": {"amenity": "school", "name": "重庆市教科院华渝实验学校"}}, "geometry": {"type": "Point", "coordinates": [106.4760672, 29.5909969]}}, {"type": "Feature", "properties": {"osm_id": 1265206952, "name": "重庆人民（融侨）小学校", "category": "school", "poi_type": "sensitive", "tags": {"addr:street": "风临路", "amenity": "school", "name": "重庆人民（融侨）小学校", "name:en": "Chongqing Renmin (Rongqiao) Primary School", "name:zh": "重庆人民（融侨）小学校"}}, "geometry": {"type": "Point", "coordinates": [106.5400923, 29.530077]}}, {"type": "Feature", "properties": {"osm_id": 1265717632, "name": "百年幼儿园", "category": "kindergarten", "poi_type": "sensitive", "tags": {"amenity": "kindergarten", "name": "百年幼儿园"}}, "geometry": {"type": "Point", "coordinates": [106.4762738, 29.597191]}}, {"type": "Feature", "properties": {"osm_id": 1266179890, "name": "重庆西藏中学", "category": "school", "poi_type": "sensitive", "tags": {"amenity": "school", "name": "重庆西藏中学"}}, "geometry": {"type": "Point", "coordinates": [106.418219, 29.5734953]}}, {"type": "Feature", "properties": {"osm_id": 1266179895, "name": "歌乐山小学", "category": "school", "poi_type": "sensitive", "tags": {"amenity": "school", "name": "歌乐山小学"}}, "geometry": {"type": "Point", "coordinates": [106.4154949, 29.5707605]}}, {"type": "Feature", "properties": {"osm_id": 1266548074, "name": "福凯驾校（黄泥磅训练基地)）", "category": "driving_school", "poi_type": "sensitive", "tags": {"amenity": "driving_school", "name": "福凯驾校（黄泥磅训练基地)）"}}, "geometry": {"type": "Point", "coordinates": [106.5381408, 29.5890682]}}, {"type": "Feature", "properties": {"osm_id": 1267119183, "name": "重庆市华渝实验学校(东区)", "category": "school", "poi_type": "sensitive", "tags": {"amenity": "school", "name": "重庆市华渝实验学校(东区)"}}, "geometry": {"type": "Point", "coordinates": [106.4838249, 29.5907732]}}, {"type": "Feature", "properties": {"osm_id": 1267119198, "name": "渝北区龙山小学校", "category": "school", "poi_type": "sensitive", "tags": {"amenity": "school", "name": "渝北区龙山小学校"}}, "geometry": {"type": "Point", "coordinates": [106.4855494, 29.5892298]}}, {"type": "Feature", "properties": {"osm_id": 1267119205, "name": "重庆市妇幼保健院冉家坝院区", "category": "hospital", "poi_type": "sensitive", "tags": {"amenity": "hospital", "name": "重庆市妇幼保健院冉家坝院区"}}, "geometry": {"type": "Point", "coordinates": [106.4855714, 29.5933818]}}, {"type": "Feature", "properties": {"osm_id": 1267119208, "name": "龙山派出所", "category": "police", "poi_type": "sensitive", "tags": {"amenity": "police", "name": "龙山派出所"}}, "geometry": {"type": "Point", "coordinates": [106.4835026, 29.5957484]}}, {"type": "Feature", "properties": {"osm_id": 1271930994, "name": "重庆市第十一中金科学校", "category": "school", "poi_type": "sensitive", "tags": {"amenity": "school", "name": "重庆市第十一中金科学校"}}, "geometry": {"type": "Point", "coordinates": [106.6205235, 29.4822683]}}, {"type": "Feature", "properties": {"osm_id": 1271930995, "name": "南坪实验金科小学", "category": "school", "poi_type": "sensitive", "tags": {"amenity": "school", "name": "南坪实验金科小学"}}, "geometry": {"type": "Point", "coordinates": [106.622453, 29.4817987]}}, {"type": "Feature", "properties": {"osm_id": 1271930998, "name": "中共南岸区委党校", "category": "college", "poi_type": "sensitive", "tags": {"amenity": "college", "name": "中共南岸区委党校"}}, "geometry": {"type": "Point", "coordinates": [106.63463, 29.4844942]}}, {"type": "Feature", "properties": {"osm_id": 1272031279, "name": "重庆文德中学校", "category": "school", "poi_type": "sensitive", "tags": {"amenity": "school", "name": "重庆文德中学校"}}, "geometry": {"type": "Point", "coordinates": [106.6171897, 29.4733863]}}, {"type": "Feature", "properties": {"osm_id": 1272198724, "name": "重庆市机电工程高级技工学校", "category": "school", "poi_type": "sensitive", "tags": {"amenity": "school", "name": "重庆市机电工程高级技工学校"}}, "geometry": {"type": "Point", "coordinates": [106.6265731, 29.4787932]}}, {"type": "Feature", "properties": {"osm_id": 1274421712, "name": "重庆龙湖医院", "category": "hospital", "poi_type": "sensitive", "tags": {"amenity": "hospital", "name": "重庆龙湖医院"}}, "geometry": {"type": "Point", "coordinates": [106.5036281, 29.6012008]}}, {"type": "Feature", "properties": {"osm_id": 1274423260, "name": "诺林巴蜀外籍人员子女学校", "category": "school", "poi_type": "sensitive", "tags": {"amenity": "school", "name": "诺林巴蜀外籍人员子女学校"}}, "geometry": {"type": "Point", "coordinates": [106.5135774, 29.6072371]}}, {"type": "Feature", "properties": {"osm_id": 1274587191, "name": "新牌坊小学", "category": "school", "poi_type": "sensitive", "tags": {"amenity": "school", "name": "新牌坊小学"}}, "geometry": {"type": "Point", "coordinates": [106.508301, 29.6006855]}}, {"type": "Feature", "properties": {"osm_id": 1275322569, "name": "重庆市求精中学大坪学校", "category": "school", "poi_type": "sensitive", "tags": {"amenity": "school", "name": "重庆市求精中学大坪学校"}}, "geometry": {"type": "Point", "coordinates": [106.5175824, 29.5445653]}}, {"type": "Feature", "properties": {"osm_id": 1275717222, "name": "重庆公安经侦总队", "category": "police", "poi_type": "sensitive", "tags": {"amenity": "police", "name": "重庆公安经侦总队"}}, "geometry": {"type": "Point", "coordinates": [106.4943471, 29.5348161]}}, {"type": "Feature", "properties": {"osm_id": 1279010627, "name": "两江新区公安分局交巡警支队", "category": "police", "poi_type": "sensitive", "tags": {"amenity": "police", "name": "两江新区公安分局交巡警支队"}}, "geometry": {"type": "Point", "coordinates": [106.5113595, 29.6608607]}}, {"type": "Feature", "properties": {"osm_id": 1281887868, "name": "重庆建设医院", "category": "hospital", "poi_type": "sensitive", "tags": {"amenity": "hospital", "name": "重庆建设医院"}}, "geometry": {"type": "Point", "coordinates": [106.5179956, 29.5241832]}}, {"type": "Feature", "properties": {"osm_id": 1281925798, "name": "", "category": "kindergarten", "poi_type": "sensitive", "tags": {"amenity": "kindergarten"}}, "geometry": {"type": "Point", "coordinates": [106.5241316, 29.5083485]}}, {"type": "Feature", "properties": {"osm_id": 1282064041, "name": "重庆石坪桥小学", "category": "school", "poi_type": "sensitive", "tags": {"amenity": "school", "name": "重庆石坪桥小学"}}, "geometry": {"type": "Point", "coordinates": [106.4987232, 29.5220236]}}, {"type": "Feature", "properties": {"osm_id": 1282095877, "name": "两江新区金山小学（美利山校区）", "category": "school", "poi_type": "sensitive", "tags": {"amenity": "school", "name": "两江新区金山小学（美利山校区）"}}, "geometry": {"type": "Point", "coordinates": [106.5647243, 29.6784513]}}, {"type": "Feature", "properties": {"osm_id": 1282098201, "name": "港城园派出所", "category": "police", "poi_type": "sensitive", "tags": {"amenity": "police", "name": "港城园派出所"}}, "geometry": {"type": "Point", "coordinates": [106.6555249, 29.6275351]}}, {"type": "Feature", "properties": {"osm_id": 1282100395, "name": "鹅公岩小学", "category": "school", "poi_type": "sensitive", "tags": {"amenity": "school", "name": "鹅公岩小学"}}, "geometry": {"type": "Point", "coordinates": [106.5193813, 29.5259074]}}, {"type": "Feature", "properties": {"osm_id": 1282100396, "name": "重庆市田家炳中学", "category": "school", "poi_type": "sensitive", "tags": {"amenity": "school", "name": "重庆市田家炳中学"}}, "geometry": {"type": "Point", "coordinates": [106.5123683, 29.5313082]}}, {"type": "Feature", "properties": {"osm_id": 1282100397, "name": "谢家湾金茂小学", "category": "school", "poi_type": "sensitive", "tags": {"amenity": "school", "name": "谢家湾金茂小学"}}, "geometry": {"type": "Point", "coordinates": [106.5129456, 29.5275621]}}, {"type": "Feature", "properties": {"osm_id": 1284269227, "name": "重庆市南岸区教师进修学院", "category": "college", "poi_type": "sensitive", "tags": {"amenity": "college", "name": "重庆市南岸区教师进修学院"}}, "geometry": {"type": "Point", "coordinates": [106.6578669, 29.5432324]}}, {"type": "Feature", "properties": {"osm_id": 1285930488, "name": "九龙坡区人民医院", "category": "hospital", "poi_type": "sensitive", "tags": {"amenity": "hospital", "name": "九龙坡区人民医院"}}, "geometry": {"type": "Point", "coordinates": [106.5141648, 29.4919897]}}, {"type": "Feature", "properties": {"osm_id": 1285937273, "name": "南坪实验小学（正街校区）", "category": "school", "poi_type": "sensitive", "tags": {"amenity": "school", "name": "南坪实验小学（正街校区）"}}, "geometry": {"type": "Point", "coordinates": [106.5650131, 29.5372628]}}, {"type": "Feature", "properties": {"osm_id": 1286712510, "name": "鹿苹北郡西区幼儿园", "category": "kindergarten", "poi_type": "sensitive", "tags": {"amenity": "kindergarten", "name": "鹿苹北郡西区幼儿园"}}, "geometry": {"type": "Point", "coordinates": [106.5252132, 29.6627027]}}, {"type": "Feature", "properties": {"osm_id": 1286712512, "name": "鹿苹北郡东区幼儿园", "category": "kindergarten", "poi_type": "sensitive", "tags": {"amenity": "kindergarten", "name": "鹿苹北郡东区幼儿园"}}, "geometry": {"type": "Point", "coordinates": [106.5266617, 29.6575591]}}, {"type": "Feature", "properties": {"osm_id": 1293113095, "name": "两江国际实验学校", "category": "school", "poi_type": "sensitive", "tags": {"amenity": "school", "name": "两江国际实验学校"}}, "geometry": {"type": "Point", "coordinates": [106.5167341, 29.5621166]}}, {"type": "Feature", "properties": {"osm_id": 1295986708, "name": "重庆市南岸区教师进修学院附属小学校", "category": "school", "poi_type": "sensitive", "tags": {"amenity": "school", "name": "重庆市南岸区教师进修学院附属小学校"}}, "geometry": {"type": "Point", "coordinates": [106.6643725, 29.5083619]}}, {"type": "Feature", "properties": {"osm_id": 1295986709, "name": "重庆市南岸区第三人民医院", "category": "hospital", "poi_type": "sensitive", "tags": {"amenity": "hospital", "name": "重庆市南岸区第三人民医院"}}, "geometry": {"type": "Point", "coordinates": [106.6618667, 29.5095369]}}, {"type": "Feature", "properties": {"osm_id": 1303844052, "name": "重庆医科大学附属第一医院第一分院(虎头岩院区)", "category": "hospital", "poi_type": "sensitive", "tags": {"amenity": "hospital", "name": "重庆医科大学附属第一医院第一分院(虎头岩院区)"}}, "geometry": {"type": "Point", "coordinates": [106.5021196, 29.5465203]}}, {"type": "Feature", "properties": {"osm_id": 1303852190, "name": "巴蜀(华立)幼儿园", "category": "kindergarten", "poi_type": "sensitive", "tags": {"amenity": "kindergarten", "name": "巴蜀(华立)幼儿园"}}, "geometry": {"type": "Point", "coordinates": [106.5167283, 29.5787216]}}, {"type": "Feature", "properties": {"osm_id": 1303852195, "name": "锦帆驾校", "category": "driving_school", "poi_type": "sensitive", "tags": {"amenity": "driving_school", "name": "锦帆驾校", "name:en": "Jinfan Driving School"}}, "geometry": {"type": "Point", "coordinates": [106.5173875, 29.5789116]}}, {"type": "Feature", "properties": {"osm_id": 1303917672, "name": "重庆市中医骨科医院(化龙桥院区)", "category": "hospital", "poi_type": "sensitive", "tags": {"amenity": "hospital", "name": "重庆市中医骨科医院(化龙桥院区)"}}, "geometry": {"type": "Point", "coordinates": [106.504141, 29.5521419]}}, {"type": "Feature", "properties": {"osm_id": 1304044249, "name": "龙湖紫都城幼儿园", "category": "kindergarten", "poi_type": "sensitive", "tags": {"amenity": "kindergarten", "name": "龙湖紫都城幼儿园"}}, "geometry": {"type": "Point", "coordinates": [106.4940172, 29.5880468]}}, {"type": "Feature", "properties": {"osm_id": 1305963084, "name": "树人沙磁小学", "category": "school", "poi_type": "sensitive", "tags": {"amenity": "school", "name": "树人沙磁小学"}}, "geometry": {"type": "Point", "coordinates": [106.454787, 29.5789016]}}, {"type": "Feature", "properties": {"osm_id": 1314367855, "name": "仁义驾校凤鸣山总校", "category": "driving_school", "poi_type": "sensitive", "tags": {"amenity": "driving_school", "name": "仁义驾校凤鸣山总校"}}, "geometry": {"type": "Point", "coordinates": [106.44003, 29.521531]}}, {"type": "Feature", "properties": {"osm_id": 1315868866, "name": "渝北区渝开学校", "category": "school", "poi_type": "sensitive", "tags": {"amenity": "school", "name": "渝北区渝开学校"}}, "geometry": {"type": "Point", "coordinates": [106.4972094, 29.5817989]}}, {"type": "Feature", "properties": {"osm_id": 1319606968, "name": "重庆大学附属肿瘤医院", "category": "hospital", "poi_type": "sensitive", "tags": {"amenity": "hospital", "name": "重庆大学附属肿瘤医院"}}, "geometry": {"type": "Point", "coordinates": [106.4716107, 29.5632188]}}, {"type": "Feature", "properties": {"osm_id": 1320947981, "name": "重庆医科大学附属儿童医院（两江院区）", "category": "hospital", "poi_type": "sensitive", "tags": {"amenity": "hospital", "name": "重庆医科大学附属儿童医院（两江院区）"}}, "geometry": {"type": "Point", "coordinates": [106.487151, 29.6691093]}}, {"type": "Feature", "properties": {"osm_id": 1320947982, "name": "佑佑宝贝妇儿医院", "category": "hospital", "poi_type": "sensitive", "tags": {"amenity": "hospital", "name": "佑佑宝贝妇儿医院"}}, "geometry": {"type": "Point", "coordinates": [106.4881038, 29.6658597]}}, {"type": "Feature", "properties": {"osm_id": 1322587791, "name": "重庆市风景园林技工学校", "category": "school", "poi_type": "sensitive", "tags": {"amenity": "school", "name": "重庆市风景园林技工学校"}}, "geometry": {"type": "Point", "coordinates": [106.4761199, 29.5374018]}}, {"type": "Feature", "properties": {"osm_id": 1322587794, "name": "重庆高新区第一实验小学", "category": "school", "poi_type": "sensitive", "tags": {"amenity": "school", "name": "重庆高新区第一实验小学"}}, "geometry": {"type": "Point", "coordinates": [106.4800775, 29.5400182]}}, {"type": "Feature", "properties": {"osm_id": 1322587803, "name": "大渡口区育才小学红旭校区", "category": "school", "poi_type": "sensitive", "tags": {"amenity": "school", "name": "大渡口区育才小学红旭校区"}}, "geometry": {"type": "Point", "coordinates": [106.4551699, 29.488261]}}, {"type": "Feature", "properties": {"osm_id": 1322823323, "name": "重庆市教科院巴蜀实验学校", "category": "school", "poi_type": "sensitive", "tags": {"addr:street": "学府大道", "amenity": "school", "name": "重庆市教科院巴蜀实验学校"}}, "geometry": {"type": "Point", "coordinates": [106.5721869, 29.5044971]}}, {"type": "Feature", "properties": {"osm_id": 1323610387, "name": "名校联合外语小学", "category": "school", "poi_type": "sensitive", "tags": {"amenity": "school", "name": "名校联合外语小学"}}, "geometry": {"type": "Point", "coordinates": [106.456696, 29.5311064]}}, {"type": "Feature", "properties": {"osm_id": 1323837621, "name": "重庆市清华中学", "category": "school", "poi_type": "sensitive", "tags": {"amenity": "school", "name": "重庆市清华中学"}}, "geometry": {"type": "Point", "coordinates": [106.5341039, 29.4579091]}}, {"type": "Feature", "properties": {"osm_id": 1323849742, "name": "奥体驾校练车场", "category": "driving_school", "poi_type": "sensitive", "tags": {"amenity": "driving_school", "name": "奥体驾校练车场"}}, "geometry": {"type": "Point", "coordinates": [106.4890621, 29.5012037]}}, {"type": "Feature", "properties": {"osm_id": 1323867921, "name": "中窑小学", "category": "school", "poi_type": "sensitive", "tags": {"amenity": "school", "name": "中窑小学"}}, "geometry": {"type": "Point", "coordinates": [106.6110492, 29.6049167]}}, {"type": "Feature", "properties": {"osm_id": 1324226390, "name": "火炬小学", "category": "school", "poi_type": "sensitive", "tags": {"amenity": "school", "name": "火炬小学"}}, "geometry": {"type": "Point", "coordinates": [106.4770782, 29.5077212]}}, {"type": "Feature", "properties": {"osm_id": 1325080795, "name": "重庆明好医院", "category": "hospital", "poi_type": "sensitive", "tags": {"amenity": "hospital", "name": "重庆明好医院"}}, "geometry": {"type": "Point", "coordinates": [106.4819406, 29.5349075]}}, {"type": "Feature", "properties": {"osm_id": 1325080811, "name": "重庆市红光中学", "category": "school", "poi_type": "sensitive", "tags": {"amenity": "school", "name": "重庆市红光中学"}}, "geometry": {"type": "Point", "coordinates": [106.4850756, 29.5394177]}}, {"type": "Feature", "properties": {"osm_id": 1325281913, "name": "九龙坡区妇幼保健院A区", "category": "hospital", "poi_type": "sensitive", "tags": {"amenity": "hospital", "name": "九龙坡区妇幼保健院A区"}}, "geometry": {"type": "Point", "coordinates": [106.4941984, 29.5074374]}}, {"type": "Feature", "properties": {"osm_id": 1325600510, "name": "红光幼儿园", "category": "kindergarten", "poi_type": "sensitive", "tags": {"amenity": "kindergarten", "name": "红光幼儿园"}}, "geometry": {"type": "Point", "coordinates": [106.4846813, 29.5390422]}}, {"type": "Feature", "properties": {"osm_id": 1328502984, "name": "巴南区渝锦悦幼儿园", "category": "kindergarten", "poi_type": "sensitive", "tags": {"amenity": "kindergarten", "name": "巴南区渝锦悦幼儿园"}}, "geometry": {"type": "Point", "coordinates": [106.6333923, 29.4595931]}}, {"type": "Feature", "properties": {"osm_id": 1330117640, "name": "九龙坡区疾病预防控制中心", "category": "hospital", "poi_type": "sensitive", "tags": {"amenity": "hospital", "name": "九龙坡区疾病预防控制中心"}}, "geometry": {"type": "Point", "coordinates": [106.4741814, 29.5087682]}}, {"type": "Feature", "properties": {"osm_id": 1330635466, "name": "重庆市求精中学河运路校区", "category": "school", "poi_type": "sensitive", "tags": {"amenity": "school", "name": "重庆市求精中学河运路校区"}}, "geometry": {"type": "Point", "coordinates": [106.4984567, 29.5442709]}}, {"type": "Feature", "properties": {"osm_id": 1331866855, "name": "重庆工业管理职业学校", "category": "school", "poi_type": "sensitive", "tags": {"amenity": "school", "name": "重庆工业管理职业学校"}}, "geometry": {"type": "Point", "coordinates": [106.5491125, 29.4487553]}}, {"type": "Feature", "properties": {"osm_id": 1335993294, "name": "沙坪坝区嘉陵幼儿园", "category": "kindergarten", "poi_type": "sensitive", "tags": {"amenity": "kindergarten", "name": "沙坪坝区嘉陵幼儿园"}}, "geometry": {"type": "Point", "coordinates": [106.4471884, 29.6130491]}}, {"type": "Feature", "properties": {"osm_id": 1335993297, "name": "嘉陵小学", "category": "school", "poi_type": "sensitive", "tags": {"amenity": "school", "name": "嘉陵小学"}}, "geometry": {"type": "Point", "coordinates": [106.4494224, 29.6133401]}}, {"type": "Feature", "properties": {"osm_id": 1336751002, "name": "信科大楼(Information Technology Building)", "category": "school", "poi_type": "sensitive", "tags": {"amenity": "school", "building": "yes", "name": "信科大楼(Information Technology Building)"}}, "geometry": {"type": "Point", "coordinates": [106.6011426, 29.5339719]}}, {"type": "Feature", "properties": {"osm_id": 1337370057, "name": "重庆二十九中", "category": "school", "poi_type": "sensitive", "tags": {"amenity": "school", "name": "重庆二十九中"}}, "geometry": {"type": "Point", "coordinates": [106.5015873, 29.5523692]}}, {"type": "Feature", "properties": {"osm_id": 1338279075, "name": "鲤鱼池小学（钢锋校区）", "category": "school", "poi_type": "sensitive", "tags": {"amenity": "school", "name": "鲤鱼池小学（钢锋校区）"}}, "geometry": {"type": "Point", "coordinates": [106.5404197, 29.5741607]}}, {"type": "Feature", "properties": {"osm_id": 1338300641, "name": "江北区蜀都小学", "category": "school", "poi_type": "sensitive", "tags": {"amenity": "school", "name": "江北区蜀都小学"}}, "geometry": {"type": "Point", "coordinates": [106.525603, 29.5735975]}}, {"type": "Feature", "properties": {"osm_id": 1339776057, "name": "星光学校(礼嘉校区)", "category": "school", "poi_type": "sensitive", "tags": {"amenity": "school", "name": "星光学校(礼嘉校区)"}}, "geometry": {"type": "Point", "coordinates": [106.4929694, 29.67779]}}, {"type": "Feature", "properties": {"osm_id": 1339776058, "name": "礼嘉派出所", "category": "police", "poi_type": "sensitive", "tags": {"amenity": "police", "name": "礼嘉派出所"}}, "geometry": {"type": "Point", "coordinates": [106.4927025, 29.6785385]}}, {"type": "Feature", "properties": {"osm_id": 1339776060, "name": "嘉慧幼儿园", "category": "kindergarten", "poi_type": "sensitive", "tags": {"amenity": "kindergarten", "name": "嘉慧幼儿园"}}, "geometry": {"type": "Point", "coordinates": [106.4968492, 29.6793556]}}, {"type": "Feature", "properties": {"osm_id": 1339861283, "name": "", "category": "kindergarten", "poi_type": "sensitive", "tags": {"amenity": "kindergarten"}}, "geometry": {"type": "Point", "coordinates": [106.5293207, 29.5705417]}}, {"type": "Feature", "properties": {"osm_id": 1344345048, "name": "重庆莱克顿外籍人员子女学校", "category": "school", "poi_type": "sensitive", "tags": {"amenity": "school", "name": "重庆莱克顿外籍人员子女学校"}}, "geometry": {"type": "Point", "coordinates": [106.6754776, 29.6003313]}}, {"type": "Feature", "properties": {"osm_id": 1344547203, "name": "巴蜀常春藤正大德善校区小学部", "category": "school", "poi_type": "sensitive", "tags": {"amenity": "school", "name": "巴蜀常春藤正大德善校区小学部"}}, "geometry": {"type": "Point", "coordinates": [106.5245836, 29.60487]}}, {"type": "Feature", "properties": {"osm_id": 1344547210, "name": "笛迪香奈公馆幼儿园", "category": "kindergarten", "poi_type": "sensitive", "tags": {"amenity": "kindergarten", "name": "笛迪香奈公馆幼儿园"}}, "geometry": {"type": "Point", "coordinates": [106.525761, 29.6032935]}}, {"type": "Feature", "properties": {"osm_id": 1344547214, "name": "巴蜀常春藤正大德善校区初中部", "category": "school", "poi_type": "sensitive", "tags": {"amenity": "school", "name": "巴蜀常春藤正大德善校区初中部"}}, "geometry": {"type": "Point", "coordinates": [106.52065, 29.6033172]}}, {"type": "Feature", "properties": {"osm_id": 1348469162, "name": "大风车双语幼儿园", "category": "kindergarten", "poi_type": "sensitive", "tags": {"amenity": "kindergarten", "name": "大风车双语幼儿园"}}, "geometry": {"type": "Point", "coordinates": [106.4861561, 29.506515]}}, {"type": "Feature", "properties": {"osm_id": 1349234000, "name": "重庆市字水中学（玉带山校区）", "category": "school", "poi_type": "sensitive", "tags": {"amenity": "school", "name": "重庆市字水中学（玉带山校区）"}}, "geometry": {"type": "Point", "coordinates": [106.4742985, 29.5812376]}}, {"type": "Feature", "properties": {"osm_id": 1349234001, "name": "重庆玉带山小学", "category": "school", "poi_type": "sensitive", "tags": {"amenity": "school", "name": "重庆玉带山小学"}}, "geometry": {"type": "Point", "coordinates": [106.4709815, 29.5824184]}}, {"type": "Feature", "properties": {"osm_id": 1351197171, "name": "渝北区交巡警龙山大队", "category": "police", "poi_type": "sensitive", "tags": {"amenity": "police", "name": "渝北区交巡警龙山大队"}}, "geometry": {"type": "Point", "coordinates": [106.4869178, 29.5921164]}}, {"type": "Feature", "properties": {"osm_id": 1355360855, "name": "重庆珊瑚初级中学（明佳校区）", "category": "school", "poi_type": "sensitive", "tags": {"amenity": "school", "name": "重庆珊瑚初级中学（明佳校区）"}}, "geometry": {"type": "Point", "coordinates": [106.544122, 29.5258619]}}, {"type": "Feature", "properties": {"osm_id": 1356932354, "name": "重庆八中宏帆中学", "category": "school", "poi_type": "sensitive", "tags": {"amenity": "school", "name": "重庆八中宏帆中学"}}, "geometry": {"type": "Point", "coordinates": [106.4623051, 29.5921641]}}, {"type": "Feature", "properties": {"osm_id": 1356932355, "name": "重庆市行知学校", "category": "school", "poi_type": "sensitive", "tags": {"amenity": "school", "name": "重庆市行知学校"}}, "geometry": {"type": "Point", "coordinates": [106.4564987, 29.5907265]}}, {"type": "Feature", "properties": {"osm_id": 1360330115, "name": "卓洋·金贝幼儿园", "category": "kindergarten", "poi_type": "sensitive", "tags": {"amenity": "kindergarten", "name": "卓洋·金贝幼儿园"}}, "geometry": {"type": "Point", "coordinates": [106.5172283, 29.5604838]}}, {"type": "Feature", "properties": {"osm_id": 1361467412, "name": "江北区新村致远实验小学", "category": "school", "poi_type": "sensitive", "tags": {"amenity": "school", "name": "江北区新村致远实验小学"}}, "geometry": {"type": "Point", "coordinates": [106.5590919, 29.5789669]}}, {"type": "Feature", "properties": {"osm_id": 1362287456, "name": "恒大山水城幼儿园", "category": "kindergarten", "poi_type": "sensitive", "tags": {"amenity": "kindergarten", "name": "恒大山水城幼儿园"}}, "geometry": {"type": "Point", "coordinates": [106.5153919, 29.6393336]}}, {"type": "Feature", "properties": {"osm_id": 1362287470, "name": "绿宝贝幼儿园", "category": "kindergarten", "poi_type": "sensitive", "tags": {"amenity": "kindergarten", "name": "绿宝贝幼儿园"}}, "geometry": {"type": "Point", "coordinates": [106.5037227, 29.6347626]}}, {"type": "Feature", "properties": {"osm_id": 1362287475, "name": "重庆聆宝幼儿园", "category": "kindergarten", "poi_type": "sensitive", "tags": {"amenity": "kindergarten", "name": "重庆聆宝幼儿园"}}, "geometry": {"type": "Point", "coordinates": [106.4926692, 29.6397621]}}, {"type": "Feature", "properties": {"osm_id": 1362287484, "name": "德宏星湖幼儿园", "category": "kindergarten", "poi_type": "sensitive", "tags": {"amenity": "kindergarten", "name": "德宏星湖幼儿园"}}, "geometry": {"type": "Point", "coordinates": [106.5014805, 29.6424089]}}, {"type": "Feature", "properties": {"osm_id": 1362840387, "name": "贝克尔幼儿园", "category": "kindergarten", "poi_type": "sensitive", "tags": {"amenity": "kindergarten", "name": "贝克尔幼儿园"}}, "geometry": {"type": "Point", "coordinates": [106.5267474, 29.4992211]}}, {"type": "Feature", "properties": {"osm_id": 1362840397, "name": "重庆市铁路中学校A区", "category": "school", "poi_type": "sensitive", "tags": {"amenity": "school", "name": "重庆市铁路中学校A区"}}, "geometry": {"type": "Point", "coordinates": [106.5304928, 29.4924795]}}, {"type": "Feature", "properties": {"osm_id": 1362842448, "name": "重庆电力高等专科学校（东区）", "category": "college", "poi_type": "sensitive", "tags": {"amenity": "college", "name": "重庆电力高等专科学校（东区）"}}, "geometry": {"type": "Point", "coordinates": [106.5338392, 29.4915541]}}, {"type": "Feature", "properties": {"osm_id": 1363597589, "name": "重庆市铁路中学校B区", "category": "school", "poi_type": "sensitive", "tags": {"amenity": "school", "name": "重庆市铁路中学校B区"}}, "geometry": {"type": "Point", "coordinates": [106.5349291, 29.4893329]}}, {"type": "Feature", "properties": {"osm_id": 1363597590, "name": "重庆市工艺美术学校", "category": "school", "poi_type": "sensitive", "tags": {"amenity": "school", "name": "重庆市工艺美术学校"}}, "geometry": {"type": "Point", "coordinates": [106.5349894, 29.4923029]}}, {"type": "Feature", "properties": {"osm_id": 1363597591, "name": "重庆电力高等专科学校（西区）", "category": "school", "poi_type": "sensitive", "tags": {"amenity": "school", "name": "重庆电力高等专科学校（西区）"}}, "geometry": {"type": "Point", "coordinates": [106.5299128, 29.4891603]}}, {"type": "Feature", "properties": {"osm_id": 1363985591, "name": "重庆市字水中学校（东区）", "category": "school", "poi_type": "sensitive", "tags": {"amenity": "school", "name": "重庆市字水中学校（东区）"}}, "geometry": {"type": "Point", "coordinates": [106.5506725, 29.5859523]}}, {"type": "Feature", "properties": {"osm_id": 1363985593, "name": "重庆三博长安医院", "category": "hospital", "poi_type": "sensitive", "tags": {"amenity": "hospital", "name": "重庆三博长安医院"}}, "geometry": {"type": "Point", "coordinates": [106.5480665, 29.5789451]}}, {"type": "Feature", "properties": {"osm_id": 1363985596, "name": "雨花小学", "category": "school", "poi_type": "sensitive", "tags": {"amenity": "school", "name": "雨花小学"}}, "geometry": {"type": "Point", "coordinates": [106.5498151, 29.5795751]}}, {"type": "Feature", "properties": {"osm_id": 1364011495, "name": "两江新区雅心幼儿园", "category": "kindergarten", "poi_type": "sensitive", "tags": {"amenity": "kindergarten", "name": "两江新区雅心幼儿园"}}, "geometry": {"type": "Point", "coordinates": [106.472001, 29.6383374]}}, {"type": "Feature", "properties": {"osm_id": 1364011496, "name": "重庆莱佛士医院", "category": "hospital", "poi_type": "sensitive", "tags": {"amenity": "hospital", "name": "重庆莱佛士医院"}}, "geometry": {"type": "Point", "coordinates": [106.4677891, 29.6389403]}}, {"type": "Feature", "properties": {"osm_id": 1364011499, "name": "杰夫天元道幼儿园", "category": "kindergarten", "poi_type": "sensitive", "tags": {"amenity": "kindergarten", "name": "杰夫天元道幼儿园"}}, "geometry": {"type": "Point", "coordinates": [106.4683145, 29.637007]}}, {"type": "Feature", "properties": {"osm_id": 1364011842, "name": "两江新区嘉成小学", "category": "school", "poi_type": "sensitive", "tags": {"amenity": "school", "name": "两江新区嘉成小学"}}, "geometry": {"type": "Point", "coordinates": [106.4821588, 29.6427736]}}, {"type": "Feature", "properties": {"osm_id": 1364034906, "name": "巴山小学", "category": "school", "poi_type": "sensitive", "tags": {"amenity": "school", "name": "巴山小学"}}, "geometry": {"type": "Point", "coordinates": [106.4602049, 29.5199699]}}, {"type": "Feature", "properties": {"osm_id": 1370599625, "name": "南岸区爱弥儿幼儿园", "category": "kindergarten", "poi_type": "sensitive", "tags": {"amenity": "kindergarten", "name": "南岸区爱弥儿幼儿园"}}, "geometry": {"type": "Point", "coordinates": [106.5835793, 29.5938162]}}, {"type": "Feature", "properties": {"osm_id": 1374182721, "name": "西南大学国际教育中心", "category": "school", "poi_type": "sensitive", "tags": {"amenity": "school", "name": "西南大学国际教育中心"}}, "geometry": {"type": "Point", "coordinates": [106.5061979, 29.5799353]}}, {"type": "Feature", "properties": {"osm_id": 1374795048, "name": "重庆复旦中学外国语学校", "category": "school", "poi_type": "sensitive", "tags": {"amenity": "school", "name": "重庆复旦中学外国语学校", "name:zh": "重庆复旦中学外国语学校"}}, "geometry": {"type": "Point", "coordinates": [106.5567102, 29.5544408]}}, {"type": "Feature", "properties": {"osm_id": 1374934368, "name": "渝中区两路口小学", "category": "school", "poi_type": "sensitive", "tags": {"amenity": "school", "name": "渝中区两路口小学"}}, "geometry": {"type": "Point", "coordinates": [106.537228, 29.5524622]}}, {"type": "Feature", "properties": {"osm_id": 1374937021, "name": "重庆精一民族小学", "category": "school", "poi_type": "sensitive", "tags": {"amenity": "school", "name": "重庆精一民族小学"}}, "geometry": {"type": "Point", "coordinates": [106.5687166, 29.555404]}}, {"type": "Feature", "properties": {"osm_id": 1375313531, "name": "洋河花园实验小学翰澜校区", "category": "school", "poi_type": "sensitive", "tags": {"amenity": "school", "name": "洋河花园实验小学翰澜校区"}}, "geometry": {"type": "Point", "coordinates": [106.5633794, 29.596226]}}, {"type": "Feature", "properties": {"osm_id": 1376492824, "name": "渝中区解放小学", "category": "school", "poi_type": "sensitive", "tags": {"amenity": "school", "name": "渝中区解放小学"}}, "geometry": {"type": "Point", "coordinates": [106.5208294, 29.546098]}}, {"type": "Feature", "properties": {"osm_id": 1377498170, "name": "重庆铁路小学", "category": "school", "poi_type": "sensitive", "tags": {"amenity": "school", "name": "重庆铁路小学"}}, "geometry": {"type": "Point", "coordinates": [106.5376694, 29.4952545]}}, {"type": "Feature", "properties": {"osm_id": 1378036924, "name": "", "category": "kindergarten", "poi_type": "sensitive", "tags": {"amenity": "kindergarten"}}, "geometry": {"type": "Point", "coordinates": [106.6148233, 29.6285736]}}, {"type": "Feature", "properties": {"osm_id": 1378036925, "name": "鲤鱼池泽善小学", "category": "school", "poi_type": "sensitive", "tags": {"amenity": "school", "name": "鲤鱼池泽善小学"}}, "geometry": {"type": "Point", "coordinates": [106.6200613, 29.6294101]}}, {"type": "Feature", "properties": {"osm_id": 1378049682, "name": "马家堡小学", "category": "school", "poi_type": "sensitive", "tags": {"amenity": "school", "name": "马家堡小学", "name:zh": "马家堡小学"}}, "geometry": {"type": "Point", "coordinates": [106.5098866, 29.5402706]}}, {"type": "Feature", "properties": {"osm_id": 1378241501, "name": "金德凯顿爱德蒙幼儿园", "category": "kindergarten", "poi_type": "sensitive", "tags": {"amenity": "kindergarten", "name": "金德凯顿爱德蒙幼儿园"}}, "geometry": {"type": "Point", "coordinates": [106.573384, 29.6577615]}}, {"type": "Feature", "properties": {"osm_id": 1378241503, "name": "逸翠小学", "category": "school", "poi_type": "sensitive", "tags": {"amenity": "school", "name": "逸翠小学"}}, "geometry": {"type": "Point", "coordinates": [106.5736367, 29.6583617]}}, {"type": "Feature", "properties": {"osm_id": 1379326037, "name": "重庆市御龙天峰十八中学", "category": "school", "poi_type": "sensitive", "tags": {"amenity": "school", "name": "重庆市御龙天峰十八中学", "name:en": "Chongqing Yulong-Tianfeng No.18 Middle School", "name:zh": "重庆市御龙天峰十八中学"}}, "geometry": {"type": "Point", "coordinates": [106.5383973, 29.5715506]}}, {"type": "Feature", "properties": {"osm_id": 1380818570, "name": "长江航运公安局重庆分局", "category": "police", "poi_type": "sensitive", "tags": {"amenity": "police", "name": "长江航运公安局重庆分局"}}, "geometry": {"type": "Point", "coordinates": [106.5809632, 29.5863758]}}, {"type": "Feature", "properties": {"osm_id": 1381166512, "name": "弹子石小学（卫国路校区）", "category": "school", "poi_type": "sensitive", "tags": {"amenity": "school", "name": "弹子石小学（卫国路校区）", "name:zh": "弹子石小学（卫国路校区）"}}, "geometry": {"type": "Point", "coordinates": [106.5827205, 29.5863122]}}, {"type": "Feature", "properties": {"osm_id": 1381166513, "name": "武警重庆总队医院", "category": "hospital", "poi_type": "sensitive", "tags": {"amenity": "hospital", "name": "武警重庆总队医院", "name:zh": "武警重庆总队医院"}}, "geometry": {"type": "Point", "coordinates": [106.583492, 29.5854467]}}, {"type": "Feature", "properties": {"osm_id": 1382587631, "name": "歇台子派出所", "category": "police", "poi_type": "sensitive", "tags": {"amenity": "police", "name": "歇台子派出所"}}, "geometry": {"type": "Point", "coordinates": [106.4943632, 29.5342749]}}, {"type": "Feature", "properties": {"osm_id": 1382587636, "name": "蒲公英幼儿园", "category": "kindergarten", "poi_type": "sensitive", "tags": {"amenity": "kindergarten", "name": "蒲公英幼儿园"}}, "geometry": {"type": "Point", "coordinates": [106.4908393, 29.535236]}}, {"type": "Feature", "properties": {"osm_id": 1382587646, "name": "中共重庆市委党校", "category": "school", "poi_type": "sensitive", "tags": {"amenity": "school", "name": "中共重庆市委党校"}}, "geometry": {"type": "Point", "coordinates": [106.4927396, 29.5364411]}}, {"type": "Feature", "properties": {"osm_id": 1383565792, "name": "重庆市第十一中学校", "category": "school", "poi_type": "sensitive", "tags": {"amenity": "school", "name": "重庆市第十一中学校"}}, "geometry": {"type": "Point", "coordinates": [106.5962939, 29.5854044]}}, {"type": "Feature", "properties": {"osm_id": 1385344371, "name": "渝北区龙塔实验学校初中部", "category": "school", "poi_type": "sensitive", "tags": {"amenity": "school", "name": "渝北区龙塔实验学校初中部"}}, "geometry": {"type": "Point", "coordinates": [106.5395434, 29.595755]}}, {"type": "Feature", "properties": {"osm_id": 1385344382, "name": "渝北区龙头寺小学", "category": "school", "poi_type": "sensitive", "tags": {"amenity": "school", "name": "渝北区龙头寺小学"}}, "geometry": {"type": "Point", "coordinates": [106.542871, 29.5990899]}}, {"type": "Feature", "properties": {"osm_id": 1385344387, "name": "渝北区龙头寺小学附属幼儿园", "category": "kindergarten", "poi_type": "sensitive", "tags": {"amenity": "kindergarten", "name": "渝北区龙头寺小学附属幼儿园"}}, "geometry": {"type": "Point", "coordinates": [106.5437766, 29.5994406]}}, {"type": "Feature", "properties": {"osm_id": 1386473147, "name": "大渡口小学", "category": "school", "poi_type": "sensitive", "tags": {"amenity": "school", "name": "大渡口小学"}}, "geometry": {"type": "Point", "coordinates": [106.47478, 29.4624096]}}, {"type": "Feature", "properties": {"osm_id": 1386473159, "name": "大渡口公安局", "category": "police", "poi_type": "sensitive", "tags": {"amenity": "police", "name": "大渡口公安局"}}, "geometry": {"type": "Point", "coordinates": [106.4701608, 29.4701347]}}, {"type": "Feature", "properties": {"osm_id": 1386473160, "name": "大渡口人民医院", "category": "hospital", "poi_type": "sensitive", "tags": {"amenity": "hospital", "name": "大渡口人民医院"}}, "geometry": {"type": "Point", "coordinates": [106.4701654, 29.4694395]}}, {"type": "Feature", "properties": {"osm_id": 1386473168, "name": "钢花小学", "category": "school", "poi_type": "sensitive", "tags": {"amenity": "school", "name": "钢花小学"}}, "geometry": {"type": "Point", "coordinates": [106.4804984, 29.4681515]}}, {"type": "Feature", "properties": {"osm_id": 1386473169, "name": "育才幼儿园(万有分园)", "category": "kindergarten", "poi_type": "sensitive", "tags": {"amenity": "kindergarten", "name": "育才幼儿园(万有分园)"}}, "geometry": {"type": "Point", "coordinates": [106.464112, 29.4722755]}}, {"type": "Feature", "properties": {"osm_id": 1386473171, "name": "自启学校", "category": "school", "poi_type": "sensitive", "tags": {"addr:street": "凤祥路北段", "amenity": "school", "name": "自启学校"}}, "geometry": {"type": "Point", "coordinates": [106.4665603, 29.4726716]}}, {"type": "Feature", "properties": {"osm_id": 1387439271, "name": "重庆笛迪国际艺术幼儿园", "category": "kindergarten", "poi_type": "sensitive", "tags": {"amenity": "kindergarten", "name": "重庆笛迪国际艺术幼儿园"}}, "geometry": {"type": "Point", "coordinates": [106.5382789, 29.5966985]}}, {"type": "Feature", "properties": {"osm_id": 1387941912, "name": "百花小学", "category": "school", "poi_type": "sensitive", "tags": {"amenity": "school", "name": "百花小学"}}, "geometry": {"type": "Point", "coordinates": [106.4836619, 29.4673063]}}, {"type": "Feature", "properties": {"osm_id": 1390068356, "name": "重庆市公安局沙坪坝分局", "category": "police", "poi_type": "sensitive", "tags": {"amenity": "police", "name": "重庆市公安局沙坪坝分局", "name:zh": "重庆市公安局沙坪坝分局"}}, "geometry": {"type": "Point", "coordinates": [106.4522917, 29.5442812]}}, {"type": "Feature", "properties": {"osm_id": 1396230694, "name": "重庆市公共卫生医疗救治中心", "category": "hospital", "poi_type": "sensitive", "tags": {"amenity": "hospital", "name": "重庆市公共卫生医疗救治中心"}}, "geometry": {"type": "Point", "coordinates": [106.4199104, 29.5767748]}}, {"type": "Feature", "properties": {"osm_id": 1408393212, "name": "南岸区珊瑚浦辉实验小学", "category": "school", "poi_type": "sensitive", "tags": {"amenity": "school", "name": "南岸区珊瑚浦辉实验小学", "name:zh": "南岸区珊瑚浦辉实验小学"}}, "geometry": {"type": "Point", "coordinates": [106.5774146, 29.5387422]}}, {"type": "Feature", "properties": {"osm_id": 1408811113, "name": "重庆滨江实验学校", "category": "school", "poi_type": "sensitive", "tags": {"amenity": "school", "name": "重庆滨江实验学校"}}, "geometry": {"type": "Point", "coordinates": [106.5955455, 29.5768316]}}, {"type": "Feature", "properties": {"osm_id": 1408811114, "name": "南岸区滨江幼儿园", "category": "kindergarten", "poi_type": "sensitive", "tags": {"amenity": "kindergarten", "name": "南岸区滨江幼儿园"}}, "geometry": {"type": "Point", "coordinates": [106.5946626, 29.5760141]}}, {"type": "Feature", "properties": {"osm_id": 1412244887, "name": "清华小学（渝汇校区）", "category": "school", "poi_type": "sensitive", "tags": {"amenity": "school", "name": "清华小学（渝汇校区）", "name:en": "Qinghua Primary School (Yuhui Campus)", "name:zh": "清华小学（渝汇校区）"}}, "geometry": {"type": "Point", "coordinates": [106.5190467, 29.4610014]}}, {"type": "Feature", "properties": {"osm_id": 1412730838, "name": "南岸区南山珊瑚实验小学", "category": "school", "poi_type": "sensitive", "tags": {"amenity": "school", "name": "南岸区南山珊瑚实验小学", "name:en": "Nan'an District Nanshan-Shanhu Experimental Primary School", "name:zh": "南岸区南山珊瑚实验小学"}}, "geometry": {"type": "Point", "coordinates": [106.5997022, 29.5145211]}}, {"type": "Feature", "properties": {"osm_id": 1414667840, "name": "重庆市南岸区精神卫生中心", "category": "hospital", "poi_type": "sensitive", "tags": {"amenity": "hospital", "name": "重庆市南岸区精神卫生中心"}}, "geometry": {"type": "Point", "coordinates": [106.5974201, 29.5008837]}}, {"type": "Feature", "properties": {"osm_id": 1414667845, "name": "重庆市广益中学（文峰校区）", "category": "school", "poi_type": "sensitive", "tags": {"amenity": "school", "name": "重庆市广益中学（文峰校区）", "name:zh": "重庆市广益中学（文峰校区）"}}, "geometry": {"type": "Point", "coordinates": [106.5965834, 29.5051816]}}, {"type": "Feature", "properties": {"osm_id": 1415417495, "name": "重庆市残疾人综合服务中心", "category": "hospital", "poi_type": "sensitive", "tags": {"amenity": "hospital", "name": "重庆市残疾人综合服务中心", "name:zh": "重庆市残疾人综合服务中心"}}, "geometry": {"type": "Point", "coordinates": [106.5646656, 29.5216128]}}, {"type": "Feature", "properties": {"osm_id": 1415578388, "name": "重庆骑士医院", "category": "hospital", "poi_type": "sensitive", "tags": {"amenity": "hospital", "name": "重庆骑士医院"}}, "geometry": {"type": "Point", "coordinates": [106.4885397, 29.5728746]}}, {"type": "Feature", "properties": {"osm_id": 1415578390, "name": "重庆三博江陵医院", "category": "hospital", "poi_type": "sensitive", "tags": {"amenity": "hospital", "name": "重庆三博江陵医院"}}, "geometry": {"type": "Point", "coordinates": [106.4888545, 29.5716445]}}, {"type": "Feature", "properties": {"osm_id": 1416313981, "name": "重庆交通大学（大坪分部）", "category": "university", "poi_type": "sensitive", "tags": {"amenity": "university", "name": "重庆交通大学（大坪分部）"}}, "geometry": {"type": "Point", "coordinates": [106.522893, 29.5374607]}}, {"type": "Feature", "properties": {"osm_id": 1417492370, "name": "重庆市人和中学", "category": "school", "poi_type": "sensitive", "tags": {"amenity": "school", "name": "重庆市人和中学"}}, "geometry": {"type": "Point", "coordinates": [106.4396197, 29.4841986]}}, {"type": "Feature", "properties": {"osm_id": 1419148132, "name": "龙门浩隆平第二小学校", "category": "school", "poi_type": "sensitive", "tags": {"amenity": "school", "name": "龙门浩隆平第二小学校"}}, "geometry": {"type": "Point", "coordinates": [106.5978277, 29.5834528]}}, {"type": "Feature", "properties": {"osm_id": 1422708622, "name": "中央美地幼儿园", "category": "kindergarten", "poi_type": "sensitive", "tags": {"amenity": "kindergarten", "name": "中央美地幼儿园"}}, "geometry": {"type": "Point", "coordinates": [106.5286625, 29.6155301]}}, {"type": "Feature", "properties": {"osm_id": 1422717151, "name": "义鑫驾校", "category": "driving_school", "poi_type": "sensitive", "tags": {"amenity": "driving_school", "name": "义鑫驾校"}}, "geometry": {"type": "Point", "coordinates": [106.5239309, 29.6146673]}}, {"type": "Feature", "properties": {"osm_id": 1423321227, "name": "江北区培新小学校", "category": "school", "poi_type": "sensitive", "tags": {"amenity": "school", "name": "江北区培新小学校", "name:zh": "江北区培新小学校"}}, "geometry": {"type": "Point", "coordinates": [106.5427409, 29.5831976]}}, {"type": "Feature", "properties": {"osm_id": 1427660332, "name": "重庆市田家炳中学（B区）", "category": "school", "poi_type": "sensitive", "tags": {"amenity": "school", "name": "重庆市田家炳中学（B区）", "name:en": "Chongqing Tianjiabing Middle School (District B)", "name:zh": "重庆市田家炳中学（B区）"}}, "geometry": {"type": "Point", "coordinates": [106.42939, 29.4678878]}}, {"type": "Feature", "properties": {"osm_id": 1429001833, "name": "重庆市巴南区南华小学校", "category": "school", "poi_type": "sensitive", "tags": {"amenity": "school", "name": "重庆市巴南区南华小学校"}}, "geometry": {"type": "Point", "coordinates": [106.5300671, 29.4708344]}}, {"type": "Feature", "properties": {"osm_id": 1430306931, "name": "重庆巴蜀中学（张家花园校区）", "category": "school", "poi_type": "sensitive", "tags": {"amenity": "school", "name": "重庆巴蜀中学（张家花园校区）", "name:en": "Chongqing Bashu Middle School (Zhangjia-huayuan Campus)", "name:zh": "重庆巴蜀中学（张家花园校区）"}}, "geometry": {"type": "Point", "coordinates": [106.5538085, 29.5607894]}}, {"type": "Feature", "properties": {"osm_id": 1442150366, "name": "肖家沟小学", "category": "school", "poi_type": "sensitive", "tags": {"amenity": "school", "name": "肖家沟小学"}}, "geometry": {"type": "Point", "coordinates": [106.5435629, 29.5545848]}}, {"type": "Feature", "properties": {"osm_id": 1444543980, "name": "重庆巴蜀中学虎头岩校区", "category": "school", "poi_type": "sensitive", "tags": {"amenity": "school", "name": "重庆巴蜀中学虎头岩校区", "name:zh": "重庆巴蜀中学虎头岩校区"}}, "geometry": {"type": "Point", "coordinates": [106.4834465, 29.5524967]}}, {"type": "Feature", "properties": {"osm_id": 1448413252, "name": "松树桥中学（A区）", "category": "school", "poi_type": "sensitive", "tags": {"amenity": "school", "name": "松树桥中学（A区）"}}, "geometry": {"type": "Point", "coordinates": [106.5078635, 29.5903868]}}, {"type": "Feature", "properties": {"osm_id": 1448413253, "name": "龙溪小学校", "category": "school", "poi_type": "sensitive", "tags": {"amenity": "school", "name": "龙溪小学校"}}, "geometry": {"type": "Point", "coordinates": [106.5086329, 29.5901603]}}, {"type": "Feature", "properties": {"osm_id": 1451018860, "name": "重庆龙山团圆口腔医院", "category": "hospital", "poi_type": "sensitive", "tags": {"amenity": "hospital", "name": "重庆龙山团圆口腔医院"}}, "geometry": {"type": "Point", "coordinates": [106.4906356, 29.5826699]}}, {"type": "Feature", "properties": {"osm_id": 1457525883, "name": "重庆海扶医院", "category": "hospital", "poi_type": "sensitive", "tags": {"amenity": "hospital", "name": "重庆海扶医院", "name:en": "Chongqing Haifu hospital", "name:zh": "重庆海扶医院"}}, "geometry": {"type": "Point", "coordinates": [106.5089903, 29.6250389]}}, {"type": "Feature", "properties": {"osm_id": 1457525900, "name": "两江新区人和小学", "category": "school", "poi_type": "sensitive", "tags": {"amenity": "school", "name": "两江新区人和小学", "name:zh": "两江新区人和小学"}}, "geometry": {"type": "Point", "coordinates": [106.5204521, 29.6184054]}}, {"type": "Feature", "properties": {"osm_id": 1461856784, "name": "金石小学", "category": "school", "poi_type": "sensitive", "tags": {"amenity": "school", "name": "金石小学", "name:zh": "金石小学"}}, "geometry": {"type": "Point", "coordinates": [106.5846103, 29.638203]}}, {"type": "Feature", "properties": {"osm_id": 1462241599, "name": "尚岭景德幼儿园", "category": "kindergarten", "poi_type": "sensitive", "tags": {"amenity": "kindergarten", "name": "尚岭景德幼儿园"}}, "geometry": {"type": "Point", "coordinates": [106.5656398, 29.6483246]}}, {"type": "Feature", "properties": {"osm_id": 1465785267, "name": "重庆市公共卫生医疗救治中心平顶山院区", "category": "hospital", "poi_type": "sensitive", "tags": {"amenity": "hospital", "name": "重庆市公共卫生医疗救治中心平顶山院区", "name:zh": "重庆市公共卫生医疗救治中心平顶山院区"}}, "geometry": {"type": "Point", "coordinates": [106.4670579, 29.5533503]}}, {"type": "Feature", "properties": {"osm_id": 1465785273, "name": "沙坪坝区第一实验小学校", "category": "school", "poi_type": "sensitive", "tags": {"amenity": "school", "name": "沙坪坝区第一实验小学校", "name:en": "Shapingba District No.1 Experimental Primary School", "name:zh": "沙坪坝区第一实验小学校"}}, "geometry": {"type": "Point", "coordinates": [106.4628938, 29.5530481]}}, {"type": "Feature", "properties": {"osm_id": 1465788583, "name": "重庆市第七中学校（沙磁校区）", "category": "school", "poi_type": "sensitive", "tags": {"amenity": "school", "name": "重庆市第七中学校（沙磁校区）", "name:en": "Chongqing No.7 Middle School (Shaci Campus)", "name:zh": "重庆市第七中学校（沙磁校区）"}}, "geometry": {"type": "Point", "coordinates": [106.4472676, 29.5787964]}}, {"type": "Feature", "properties": {"osm_id": 1466188565, "name": "春江天镜幼儿园", "category": "kindergarten", "poi_type": "sensitive", "tags": {"amenity": "kindergarten", "name": "春江天镜幼儿园", "name:zh": "春江天镜幼儿园"}}, "geometry": {"type": "Point", "coordinates": [106.5032938, 29.4691603]}}, {"type": "Feature", "properties": {"osm_id": 1466188566, "name": "重庆市巴南巴蜀中学校滨江校区", "category": "school", "poi_type": "sensitive", "tags": {"amenity": "school", "name": "重庆市巴南巴蜀中学校滨江校区"}}, "geometry": {"type": "Point", "coordinates": [106.5034188, 29.4677672]}}, {"type": "Feature", "properties": {"osm_id": 1466753200, "name": "鲤鱼池小学", "category": "school", "poi_type": "sensitive", "tags": {"amenity": "school", "name": "鲤鱼池小学", "name:zh": "鲤鱼池小学"}}, "geometry": {"type": "Point", "coordinates": [106.5398153, 29.5773435]}}, {"type": "Feature", "properties": {"osm_id": 1467282273, "name": "融汇沙坪坝小学", "category": "school", "poi_type": "sensitive", "tags": {"amenity": "school", "name": "融汇沙坪坝小学", "name:en": "Ronghui-Shapingba Primary School", "name:zh": "融汇沙坪坝小学"}}, "geometry": {"type": "Point", "coordinates": [106.4367902, 29.5470958]}}, {"type": "Feature", "properties": {"osm_id": 1467285791, "name": "重庆市凤鸣山中学", "category": "school", "poi_type": "sensitive", "tags": {"amenity": "school", "name": "重庆市凤鸣山中学", "name:en": "Chongqing Fengmingshan Middle School", "name:zh": "重庆市凤鸣山中学"}}, "geometry": {"type": "Point", "coordinates": [106.4449091, 29.5314962]}}, {"type": "Feature", "properties": {"osm_id": 1467641259, "name": "大渡口幼儿园朵力迎宾园", "category": "kindergarten", "poi_type": "sensitive", "tags": {"amenity": "kindergarten", "name": "大渡口幼儿园朵力迎宾园"}}, "geometry": {"type": "Point", "coordinates": [106.4551761, 29.492423]}}, {"type": "Feature", "properties": {"osm_id": 1467641265, "name": "大渡口区育才幼儿园(星辰分园)", "category": "kindergarten", "poi_type": "sensitive", "tags": {"amenity": "kindergarten", "name": "大渡口区育才幼儿园(星辰分园)"}}, "geometry": {"type": "Point", "coordinates": [106.4529678, 29.4880059]}}, {"type": "Feature", "properties": {"osm_id": 1469381810, "name": "两江新区湖畔幼儿园", "category": "kindergarten", "poi_type": "sensitive", "tags": {"amenity": "kindergarten", "name": "两江新区湖畔幼儿园"}}, "geometry": {"type": "Point", "coordinates": [106.4910602, 29.6737703]}}, {"type": "Feature", "properties": {"osm_id": 1470044856, "name": "重庆市大渡口区联大儿童之家", "category": "kindergarten", "poi_type": "sensitive", "tags": {"amenity": "kindergarten", "name": "重庆市大渡口区联大儿童之家"}}, "geometry": {"type": "Point", "coordinates": [106.4733959, 29.4954727]}}, {"type": "Feature", "properties": {"osm_id": 1470044863, "name": "重庆邮电大学附属重钢总医院", "category": "hospital", "poi_type": "sensitive", "tags": {"amenity": "hospital", "name": "重庆邮电大学附属重钢总医院"}}, "geometry": {"type": "Point", "coordinates": [106.4769199, 29.4925395]}}, {"type": "Feature", "properties": {"osm_id": 1476217272, "name": "金辰环山幼儿园", "category": "kindergarten", "poi_type": "sensitive", "tags": {"amenity": "kindergarten", "name": "金辰环山幼儿园"}}, "geometry": {"type": "Point", "coordinates": [106.6091704, 29.6636775]}}, {"type": "Feature", "properties": {"osm_id": 1476217298, "name": "家纺城大地幼儿园", "category": "kindergarten", "poi_type": "sensitive", "tags": {"amenity": "kindergarten", "name": "家纺城大地幼儿园"}}, "geometry": {"type": "Point", "coordinates": [106.6077341, 29.6689276]}}, {"type": "Feature", "properties": {"osm_id": 1478755401, "name": "石桥铺派出所", "category": "police", "poi_type": "sensitive", "tags": {"amenity": "police", "building": "yes", "name": "石桥铺派出所"}}, "geometry": {"type": "Point", "coordinates": [106.4565016, 29.5175494]}}], "metadata": {"source": "OpenStreetMap via Overpass API", "total_pois": 528, "poi_type": "sensitive"}}