{"type": "FeatureCollection", "features": [{"type": "Feature", "properties": {"osm_id": 2828708472, "name": "大坪派出所", "category": "police", "poi_type": "sensitive", "tags": {"addr:street": "长江二路", "amenity": "police", "name": "大坪派出所"}}, "geometry": {"type": "Point", "coordinates": [106.5146914, 29.5419098]}}, {"type": "Feature", "properties": {"osm_id": 3179109946, "name": "重庆复旦高中", "category": "school", "poi_type": "sensitive", "tags": {"amenity": "school", "name": "重庆复旦高中", "name:en": "Fudan High School"}}, "geometry": {"type": "Point", "coordinates": [106.5727625, 29.554115]}}, {"type": "Feature", "properties": {"osm_id": 4139951946, "name": "重庆二十九中学", "category": "school", "poi_type": "sensitive", "tags": {"amenity": "school", "name": "重庆二十九中学", "name:en": "Chongqing No.29 High School"}}, "geometry": {"type": "Point", "coordinates": [106.5690493, 29.5610226]}}, {"type": "Feature", "properties": {"osm_id": 4139951947, "name": "重庆医科大学附属第二医院", "category": "hospital", "poi_type": "sensitive", "tags": {"amenity": "hospital", "name": "重庆医科大学附属第二医院"}}, "geometry": {"type": "Point", "coordinates": [106.5698495, 29.5627506]}}, {"type": "Feature", "properties": {"osm_id": 4139952095, "name": "重庆骨科医院", "category": "hospital", "poi_type": "sensitive", "tags": {"amenity": "hospital", "name": "重庆骨科医院", "name:en": "Chongqing Orthopaedics Hospital"}}, "geometry": {"type": "Point", "coordinates": [106.5729069, 29.5554739]}}, {"type": "Feature", "properties": {"osm_id": 4143850848, "name": "中山小学", "category": "school", "poi_type": "sensitive", "tags": {"amenity": "school", "name": "中山小学", "name:en": "Zhongshan Primary School"}}, "geometry": {"type": "Point", "coordinates": [106.5577242, 29.5605382]}}, {"type": "Feature", "properties": {"osm_id": 4143850865, "name": "重庆市口腔医院", "category": "hospital", "poi_type": "sensitive", "tags": {"amenity": "hospital", "name": "重庆市口腔医院", "name:en": "Chongqing Stomatological Hospital"}}, "geometry": {"type": "Point", "coordinates": [106.5427841, 29.5623741]}}, {"type": "Feature", "properties": {"osm_id": 6631214656, "name": "", "category": "police", "poi_type": "sensitive", "tags": {"amenity": "police"}}, "geometry": {"type": "Point", "coordinates": [106.5774209, 29.5646207]}}, {"type": "Feature", "properties": {"osm_id": 7873546275, "name": "渝中利奥幼儿园", "category": "kindergarten", "poi_type": "sensitive", "tags": {"amenity": "kindergarten", "name": "渝中利奥幼儿园"}}, "geometry": {"type": "Point", "coordinates": [106.5186206, 29.5399828]}}, {"type": "Feature", "properties": {"osm_id": 11987914505, "name": "山城老年大学", "category": "college", "poi_type": "sensitive", "tags": {"amenity": "college", "name": "山城老年大学"}}, "geometry": {"type": "Point", "coordinates": [106.5550537, 29.5591603]}}, {"type": "Feature", "properties": {"osm_id": 12292087599, "name": "重庆市人民医院", "category": "hospital", "poi_type": "sensitive", "tags": {"amenity": "hospital", "name": "重庆市人民医院"}}, "geometry": {"type": "Point", "coordinates": [106.549792, 29.5563564]}}, {"type": "Feature", "properties": {"osm_id": 12294008831, "name": "解放西路小学", "category": "school", "poi_type": "sensitive", "tags": {"amenity": "school", "name": "解放西路小学"}}, "geometry": {"type": "Point", "coordinates": [106.5723204, 29.5522512]}}, {"type": "Feature", "properties": {"osm_id": 13232880680, "name": "诺亚医疗.生长发育中心", "category": "clinic", "poi_type": "sensitive", "tags": {"amenity": "clinic", "name": "诺亚医疗.生长发育中心"}}, "geometry": {"type": "Point", "coordinates": [106.5451564, 29.5551443]}}, {"type": "Feature", "properties": {"osm_id": 150453849, "name": "重庆医科大学", "category": "university", "poi_type": "sensitive", "tags": {"addr:street": "医学院路", "amenity": "university", "name": "重庆医科大学", "name:en": "Chongqing Medical University", "name:zh": "重庆医科大学"}}, "geometry": {"type": "Point", "coordinates": [106.5035895, 29.5356528]}}, {"type": "Feature", "properties": {"osm_id": 240658970, "name": "大坪小学", "category": "school", "poi_type": "sensitive", "tags": {"amenity": "school", "name": "大坪小学", "name:en": "Daping privary school"}}, "geometry": {"type": "Point", "coordinates": [106.5139162, 29.5443323]}}, {"type": "Feature", "properties": {"osm_id": 242496963, "name": "复旦中学（竹园校区）", "category": "school", "poi_type": "sensitive", "tags": {"amenity": "school", "name": "复旦中学（竹园校区）", "name:en": "Fudan Middle School(Zhuyuan Campus)"}}, "geometry": {"type": "Point", "coordinates": [106.5261878, 29.5423868]}}, {"type": "Feature", "properties": {"osm_id": 249649766, "name": "巴蜀中学", "category": "school", "poi_type": "sensitive", "tags": {"amenity": "school", "name": "巴蜀中学", "name:en": "Bashu Secondary School - Main Campus", "name:zh": "巴蜀中学"}}, "geometry": {"type": "Point", "coordinates": [106.5574574, 29.5635934]}}, {"type": "Feature", "properties": {"osm_id": 278775623, "name": "重庆医科大学附属第一医院", "category": "hospital", "poi_type": "sensitive", "tags": {"addr:street": "友谊路", "amenity": "hospital", "name": "重庆医科大学附属第一医院", "name:en": "1st Affiliated Hospital of Chongqing Medical University"}}, "geometry": {"type": "Point", "coordinates": [106.5093574, 29.5338738]}}, {"type": "Feature", "properties": {"osm_id": 412876070, "name": "重庆第三十中学", "category": "school", "poi_type": "sensitive", "tags": {"amenity": "school", "name": "重庆第三十中学", "name:en": "Chongqing No.30 High School"}}, "geometry": {"type": "Point", "coordinates": [106.5415794, 29.553792]}}, {"type": "Feature", "properties": {"osm_id": 413054275, "name": "重庆医科大学附属儿童医院（渝中院区）", "category": "hospital", "poi_type": "sensitive", "tags": {"addr:street": "中山二路136号", "amenity": "hospital", "name": "重庆医科大学附属儿童医院（渝中院区）"}}, "geometry": {"type": "Point", "coordinates": [106.550953, 29.5590391]}}, {"type": "Feature", "properties": {"osm_id": 553175170, "name": "陆军特色医学中心", "category": "hospital", "poi_type": "sensitive", "tags": {"amenity": "hospital", "name": "陆军特色医学中心"}}, "geometry": {"type": "Point", "coordinates": [106.5202342, 29.5472354]}}, {"type": "Feature", "properties": {"osm_id": 572049432, "name": "鹅岭小学", "category": "school", "poi_type": "sensitive", "tags": {"amenity": "school", "name": "鹅岭小学"}}, "geometry": {"type": "Point", "coordinates": [106.5317706, 29.5502714]}}, {"type": "Feature", "properties": {"osm_id": 572050908, "name": "重庆市第五十七中学", "category": "school", "poi_type": "sensitive", "tags": {"amenity": "school", "name": "重庆市第五十七中学"}}, "geometry": {"type": "Point", "coordinates": [106.5365945, 29.5575256]}}, {"type": "Feature", "properties": {"osm_id": 583427161, "name": "大田湾小学", "category": "school", "poi_type": "sensitive", "tags": {"amenity": "school", "name": "大田湾小学"}}, "geometry": {"type": "Point", "coordinates": [106.5378388, 29.5589156]}}, {"type": "Feature", "properties": {"osm_id": 583430770, "name": "求精中学", "category": "school", "poi_type": "sensitive", "tags": {"amenity": "school", "name": "求精中学"}}, "geometry": {"type": "Point", "coordinates": [106.5422269, 29.5662652]}}, {"type": "Feature", "properties": {"osm_id": 583430774, "name": "人民小学", "category": "school", "poi_type": "sensitive", "tags": {"amenity": "school", "name": "人民小学"}}, "geometry": {"type": "Point", "coordinates": [106.542334, 29.5649549]}}, {"type": "Feature", "properties": {"osm_id": 734031546, "name": "中四路小学", "category": "school", "poi_type": "sensitive", "tags": {"amenity": "school", "name": "中四路小学"}}, "geometry": {"type": "Point", "coordinates": [106.5432196, 29.5662207]}}, {"type": "Feature", "properties": {"osm_id": 863637301, "name": "巴蜀小学", "category": "school", "poi_type": "sensitive", "tags": {"amenity": "school", "name": "巴蜀小学", "name:en": "Bashu Primary School"}}, "geometry": {"type": "Point", "coordinates": [106.5559832, 29.5617741]}}, {"type": "Feature", "properties": {"osm_id": 938069707, "name": "石油路小学", "category": "school", "poi_type": "sensitive", "tags": {"amenity": "school", "name": "石油路小学"}}, "geometry": {"type": "Point", "coordinates": [106.498184, 29.5470664]}}, {"type": "Feature", "properties": {"osm_id": 938074655, "name": "重庆长航医院", "category": "hospital", "poi_type": "sensitive", "tags": {"amenity": "hospital", "name": "重庆长航医院"}}, "geometry": {"type": "Point", "coordinates": [106.5005054, 29.5394987]}}, {"type": "Feature", "properties": {"osm_id": 939578291, "name": "第四人民医院", "category": "hospital", "poi_type": "sensitive", "tags": {"amenity": "hospital", "name": "第四人民医院"}}, "geometry": {"type": "Point", "coordinates": [106.5423306, 29.5551627]}}, {"type": "Feature", "properties": {"osm_id": 950173507, "name": "红岩幼儿园(朝天门隧道)", "category": "kindergarten", "poi_type": "sensitive", "tags": {"amenity": "kindergarten", "name": "红岩幼儿园(朝天门隧道)"}}, "geometry": {"type": "Point", "coordinates": [106.5797412, 29.564918]}}, {"type": "Feature", "properties": {"osm_id": 950179345, "name": "东水门小学", "category": "school", "poi_type": "sensitive", "tags": {"amenity": "school", "name": "东水门小学"}}, "geometry": {"type": "Point", "coordinates": [106.5836341, 29.5624683]}}, {"type": "Feature", "properties": {"osm_id": 951637959, "name": "渝中区实验幼儿园", "category": "kindergarten", "poi_type": "sensitive", "tags": {"amenity": "kindergarten", "name": "渝中区实验幼儿园"}}, "geometry": {"type": "Point", "coordinates": [106.5665295, 29.5632]}}, {"type": "Feature", "properties": {"osm_id": 974637152, "name": "中华路小学", "category": "school", "poi_type": "sensitive", "tags": {"amenity": "school", "name": "中华路小学", "name:zh": "中华路小学"}}, "geometry": {"type": "Point", "coordinates": [106.5652945, 29.5578574]}}, {"type": "Feature", "properties": {"osm_id": 993252417, "name": "重庆人民医院", "category": "hospital", "poi_type": "sensitive", "tags": {"amenity": "hospital", "name": "重庆人民医院", "name:en": "Chongqing General Hospital"}}, "geometry": {"type": "Point", "coordinates": [106.5557973, 29.5590445]}}, {"type": "Feature", "properties": {"osm_id": 1025797978, "name": "渝中区公安局", "category": "police", "poi_type": "sensitive", "tags": {"addr:street": "管家巷", "amenity": "police", "building": "yes", "name": "渝中区公安局"}}, "geometry": {"type": "Point", "coordinates": [106.5658596, 29.5557106]}}, {"type": "Feature", "properties": {"osm_id": 1188333877, "name": "中国人民解放军陆军勤务学院", "category": "college", "poi_type": "sensitive", "tags": {"amenity": "college", "name": "中国人民解放军陆军勤务学院"}}, "geometry": {"type": "Point", "coordinates": [106.4916844, 29.5403181]}}, {"type": "Feature", "properties": {"osm_id": 1257443400, "name": "人和街小学", "category": "school", "poi_type": "sensitive", "tags": {"amenity": "school", "name": "人和街小学"}}, "geometry": {"type": "Point", "coordinates": [106.5539598, 29.5636377]}}, {"type": "Feature", "properties": {"osm_id": 1263431796, "name": "重庆行政学院", "category": "college", "poi_type": "sensitive", "tags": {"amenity": "college", "name": "重庆行政学院"}}, "geometry": {"type": "Point", "coordinates": [106.4956529, 29.535821]}}, {"type": "Feature", "properties": {"osm_id": 1275322569, "name": "重庆市求精中学大坪学校", "category": "school", "poi_type": "sensitive", "tags": {"amenity": "school", "name": "重庆市求精中学大坪学校"}}, "geometry": {"type": "Point", "coordinates": [106.5175824, 29.5445653]}}, {"type": "Feature", "properties": {"osm_id": 1303844052, "name": "重庆医科大学附属第一医院第一分院(虎头岩院区)", "category": "hospital", "poi_type": "sensitive", "tags": {"amenity": "hospital", "name": "重庆医科大学附属第一医院第一分院(虎头岩院区)"}}, "geometry": {"type": "Point", "coordinates": [106.5021196, 29.5465203]}}, {"type": "Feature", "properties": {"osm_id": 1303917672, "name": "重庆市中医骨科医院(化龙桥院区)", "category": "hospital", "poi_type": "sensitive", "tags": {"amenity": "hospital", "name": "重庆市中医骨科医院(化龙桥院区)"}}, "geometry": {"type": "Point", "coordinates": [106.504141, 29.5521419]}}, {"type": "Feature", "properties": {"osm_id": 1330635466, "name": "重庆市求精中学河运路校区", "category": "school", "poi_type": "sensitive", "tags": {"amenity": "school", "name": "重庆市求精中学河运路校区"}}, "geometry": {"type": "Point", "coordinates": [106.4984567, 29.5442709]}}, {"type": "Feature", "properties": {"osm_id": 1337370057, "name": "重庆二十九中", "category": "school", "poi_type": "sensitive", "tags": {"amenity": "school", "name": "重庆二十九中"}}, "geometry": {"type": "Point", "coordinates": [106.5015873, 29.5523692]}}, {"type": "Feature", "properties": {"osm_id": 1374795048, "name": "重庆复旦中学外国语学校", "category": "school", "poi_type": "sensitive", "tags": {"amenity": "school", "name": "重庆复旦中学外国语学校", "name:zh": "重庆复旦中学外国语学校"}}, "geometry": {"type": "Point", "coordinates": [106.5567102, 29.5544408]}}, {"type": "Feature", "properties": {"osm_id": 1374934368, "name": "渝中区两路口小学", "category": "school", "poi_type": "sensitive", "tags": {"amenity": "school", "name": "渝中区两路口小学"}}, "geometry": {"type": "Point", "coordinates": [106.537228, 29.5524622]}}, {"type": "Feature", "properties": {"osm_id": 1374937021, "name": "重庆精一民族小学", "category": "school", "poi_type": "sensitive", "tags": {"amenity": "school", "name": "重庆精一民族小学"}}, "geometry": {"type": "Point", "coordinates": [106.5687166, 29.555404]}}, {"type": "Feature", "properties": {"osm_id": 1376492824, "name": "渝中区解放小学", "category": "school", "poi_type": "sensitive", "tags": {"amenity": "school", "name": "渝中区解放小学"}}, "geometry": {"type": "Point", "coordinates": [106.5208294, 29.546098]}}, {"type": "Feature", "properties": {"osm_id": 1378049682, "name": "马家堡小学", "category": "school", "poi_type": "sensitive", "tags": {"amenity": "school", "name": "马家堡小学", "name:zh": "马家堡小学"}}, "geometry": {"type": "Point", "coordinates": [106.5098866, 29.5402706]}}, {"type": "Feature", "properties": {"osm_id": 1416313981, "name": "重庆交通大学（大坪分部）", "category": "university", "poi_type": "sensitive", "tags": {"amenity": "university", "name": "重庆交通大学（大坪分部）"}}, "geometry": {"type": "Point", "coordinates": [106.522893, 29.5374607]}}, {"type": "Feature", "properties": {"osm_id": 1430306931, "name": "重庆巴蜀中学（张家花园校区）", "category": "school", "poi_type": "sensitive", "tags": {"amenity": "school", "name": "重庆巴蜀中学（张家花园校区）", "name:en": "Chongqing Bashu Middle School (Zhangjia-huayuan Campus)", "name:zh": "重庆巴蜀中学（张家花园校区）"}}, "geometry": {"type": "Point", "coordinates": [106.5538085, 29.5607894]}}, {"type": "Feature", "properties": {"osm_id": 1442150366, "name": "肖家沟小学", "category": "school", "poi_type": "sensitive", "tags": {"amenity": "school", "name": "肖家沟小学"}}, "geometry": {"type": "Point", "coordinates": [106.5435629, 29.5545848]}}, {"type": "Feature", "properties": {"osm_id": 1444543980, "name": "重庆巴蜀中学虎头岩校区", "category": "school", "poi_type": "sensitive", "tags": {"amenity": "school", "name": "重庆巴蜀中学虎头岩校区", "name:zh": "重庆巴蜀中学虎头岩校区"}}, "geometry": {"type": "Point", "coordinates": [106.4834465, 29.5524967]}}, {"type": "Feature", "properties": {"osm_id": 1727325747, "name": "一教(First Teaching Building)", "category": "school", "poi_type": "sensitive", "tags": {"amenity": "school", "name": "一教(First Teaching Building)"}}, "geometry": {"type": "Point", "coordinates": [106.6017569, 29.5342445]}}, {"type": "Feature", "properties": {"osm_id": 1727325766, "name": "七教(Seventh Teaching Building)", "category": "school", "poi_type": "sensitive", "tags": {"amenity": "school", "name": "七教(Seventh Teaching Building)"}}, "geometry": {"type": "Point", "coordinates": [106.6011716, 29.5352202]}}, {"type": "Feature", "properties": {"osm_id": 1727325767, "name": "信科大楼(Information Technology Building)", "category": "school", "poi_type": "sensitive", "tags": {"amenity": "school", "name": "信科大楼(Information Technology Building)"}}, "geometry": {"type": "Point", "coordinates": [106.6010059, 29.5338337]}}, {"type": "Feature", "properties": {"osm_id": 4139987104, "name": "康平医院", "category": "hospital", "poi_type": "sensitive", "tags": {"amenity": "hospital", "name": "康平医院", "name:en": "Kangping Hospital", "name:zh": "康平医院"}}, "geometry": {"type": "Point", "coordinates": [106.5635368, 29.5243072]}}, {"type": "Feature", "properties": {"osm_id": 4140409990, "name": "江南小学", "category": "school", "poi_type": "sensitive", "tags": {"amenity": "school", "name": "江南小学", "name:en": "Jiangnan Primary School"}}, "geometry": {"type": "Point", "coordinates": [106.5681232, 29.5131117]}}, {"type": "Feature", "properties": {"osm_id": 4140850960, "name": "玛瑙学校", "category": "school", "poi_type": "sensitive", "tags": {"amenity": "school", "name": "玛瑙学校"}}, "geometry": {"type": "Point", "coordinates": [106.5706094, 29.5385617]}}, {"type": "Feature", "properties": {"osm_id": 5473007183, "name": "重庆社会主义学院", "category": "college", "poi_type": "sensitive", "tags": {"amenity": "college", "name": "重庆社会主义学院"}}, "geometry": {"type": "Point", "coordinates": [106.5926633, 29.557732]}}, {"type": "Feature", "properties": {"osm_id": 12998717919, "name": "刘愉口腔诊所", "category": "hospital", "poi_type": "sensitive", "tags": {"amenity": "hospital", "name": "刘愉口腔诊所"}}, "geometry": {"type": "Point", "coordinates": [106.5660019, 29.5314988]}}, {"type": "Feature", "properties": {"osm_id": 249648470, "name": "天台岗小学 - 主校区", "category": "school", "poi_type": "sensitive", "tags": {"amenity": "school", "name": "天台岗小学 - 主校区", "name:en": "Tiantaigang Primary School - Main Campus"}}, "geometry": {"type": "Point", "coordinates": [106.555525, 29.5295903]}}, {"type": "Feature", "properties": {"osm_id": 249649207, "name": "珊瑚实验小学", "category": "school", "poi_type": "sensitive", "tags": {"amenity": "school", "name": "珊瑚实验小学", "name:en": "Shanhu Experimental Primary School", "name:zh": "珊瑚实验小学"}}, "geometry": {"type": "Point", "coordinates": [106.5633437, 29.5214201]}}, {"type": "Feature", "properties": {"osm_id": 249649391, "name": "重庆南坪中学", "category": "school", "poi_type": "sensitive", "tags": {"amenity": "school", "name": "重庆南坪中学", "name:en": "Nanping High School", "name:zh": "重庆南坪中学"}}, "geometry": {"type": "Point", "coordinates": [106.5631992, 29.51727]}}, {"type": "Feature", "properties": {"osm_id": 249652151, "name": "电建子弟校(金山路小学)", "category": "school", "poi_type": "sensitive", "tags": {"amenity": "school", "name": "电建子弟校(金山路小学)", "name:en": "Dianjian Community School"}}, "geometry": {"type": "Point", "coordinates": [106.5562489, 29.520444]}}, {"type": "Feature", "properties": {"osm_id": 249652293, "name": "天台岗小学(上海城校区)", "category": "school", "poi_type": "sensitive", "tags": {"amenity": "school", "name": "天台岗小学(上海城校区)", "name:en": "Tiantaigang Primary School (Shanghai Town Campus)"}}, "geometry": {"type": "Point", "coordinates": [106.5546974, 29.5318204]}}, {"type": "Feature", "properties": {"osm_id": 249652369, "name": "天台岗小学（花园村校区）", "category": "school", "poi_type": "sensitive", "tags": {"amenity": "school", "name": "天台岗小学（花园村校区）", "name:en": "Tiantaigang Primary School - Huayuan Village Campus"}}, "geometry": {"type": "Point", "coordinates": [106.5481644, 29.5248036]}}, {"type": "Feature", "properties": {"osm_id": 249652414, "name": "青龙路小学", "category": "school", "poi_type": "sensitive", "tags": {"amenity": "school", "name": "青龙路小学", "name:en": "Qinglong Road Primary School"}}, "geometry": {"type": "Point", "coordinates": [106.5568694, 29.5153561]}}, {"type": "Feature", "properties": {"osm_id": 249652648, "name": "珊瑚中学", "category": "school", "poi_type": "sensitive", "tags": {"amenity": "school", "name": "珊瑚中学", "name:en": "Shanhu High School - Main Campus"}}, "geometry": {"type": "Point", "coordinates": [106.5591417, 29.5277922]}}, {"type": "Feature", "properties": {"osm_id": 249661910, "name": "重庆南开（融侨）中学校", "category": "school", "poi_type": "sensitive", "tags": {"addr:street": "风临路", "amenity": "school", "name": "重庆南开（融侨）中学校", "name:en": "Chongqing Nankai (Rongqiao) Secondary School", "name:zh": "重庆南开（融侨）中学校"}}, "geometry": {"type": "Point", "coordinates": [106.5388462, 29.5287879]}}, {"type": "Feature", "properties": {"osm_id": 412586972, "name": "重庆第二外国语学校", "category": "school", "poi_type": "sensitive", "tags": {"amenity": "school", "name": "重庆第二外国语学校", "name:en": "Chongqing Second Foreign Language High School", "name:zh": "重庆第二外国语学校"}}, "geometry": {"type": "Point", "coordinates": [106.6059696, 29.544725]}}, {"type": "Feature", "properties": {"osm_id": 412587000, "name": "重庆第二师范学院（南山校区）", "category": "university", "poi_type": "sensitive", "tags": {"amenity": "university", "name": "重庆第二师范学院（南山校区）", "name:en": "Chongqing No.2 Normal College at South Mountain", "name:zh": "重庆第二师范学院（南山校区）"}}, "geometry": {"type": "Point", "coordinates": [106.5933107, 29.4996478]}}, {"type": "Feature", "properties": {"osm_id": 412587728, "name": "重庆邮电大学", "category": "university", "poi_type": "sensitive", "tags": {"addr:street": "崇文路", "amenity": "university", "name": "重庆邮电大学", "name:en": "Chongqing University of Posts and Telecommunications"}}, "geometry": {"type": "Point", "coordinates": [106.6042216, 29.532035]}}, {"type": "Feature", "properties": {"osm_id": 412616791, "name": "重庆市第六人民医院", "category": "hospital", "poi_type": "sensitive", "tags": {"amenity": "hospital", "name": "重庆市第六人民医院", "name:en": "Chongqing No.6 Hospital"}}, "geometry": {"type": "Point", "coordinates": [106.5515702, 29.5239989]}}, {"type": "Feature", "properties": {"osm_id": 412677865, "name": "重庆工商大学", "category": "university", "poi_type": "sensitive", "tags": {"addr:street": "Xuefu avenue", "amenity": "university", "name": "重庆工商大学", "name:en": "Chongqing University of Technology and Business"}}, "geometry": {"type": "Point", "coordinates": [106.5785148, 29.5083705]}}, {"type": "Feature", "properties": {"osm_id": 412677867, "name": "天台岗小学 - 雅居乐校区", "category": "school", "poi_type": "sensitive", "tags": {"amenity": "school", "name": "天台岗小学 - 雅居乐校区", "name:en": "Tiantaigang Primary School - Yajule"}}, "geometry": {"type": "Point", "coordinates": [106.555021, 29.5025757]}}, {"type": "Feature", "properties": {"osm_id": 412677871, "name": "重庆交通大学", "category": "university", "poi_type": "sensitive", "tags": {"addr:street": "学府大道", "amenity": "university", "name": "重庆交通大学", "name:en": "Chongqing Jiaotong University"}}, "geometry": {"type": "Point", "coordinates": [106.567229, 29.4903657]}}, {"type": "Feature", "properties": {"osm_id": 412742024, "name": "天台岗小学（融创校区）", "category": "school", "poi_type": "sensitive", "tags": {"amenity": "school", "name": "天台岗小学（融创校区）", "name:en": "Tiantaigang Primary School - Rongchuang Campus"}}, "geometry": {"type": "Point", "coordinates": [106.553938, 29.5372313]}}, {"type": "Feature", "properties": {"osm_id": 412742031, "name": "辅仁中学", "category": "school", "poi_type": "sensitive", "tags": {"amenity": "school", "name": "辅仁中学", "name:en": "Furen High School"}}, "geometry": {"type": "Point", "coordinates": [106.5757593, 29.5327711]}}, {"type": "Feature", "properties": {"osm_id": 497715818, "name": "重庆市第三十八中学校", "category": "school", "poi_type": "sensitive", "tags": {"amenity": "school", "name": "重庆市第三十八中学校"}}, "geometry": {"type": "Point", "coordinates": [106.5958129, 29.5979297]}}, {"type": "Feature", "properties": {"osm_id": 553175176, "name": "重庆市龙门浩职业中学", "category": "school", "poi_type": "sensitive", "tags": {"amenity": "school", "name": "重庆市龙门浩职业中学", "name:en": "Chongqing Longmenhao Vocational School"}}, "geometry": {"type": "Point", "coordinates": [106.6555666, 29.5049546]}}, {"type": "Feature", "properties": {"osm_id": 582460713, "name": "校医院", "category": "hospital", "poi_type": "sensitive", "tags": {"amenity": "hospital", "name": "校医院"}}, "geometry": {"type": "Point", "coordinates": [106.6002657, 29.535199]}}, {"type": "Feature", "properties": {"osm_id": 607831615, "name": "重庆工商大学-兰花湖校区", "category": "university", "poi_type": "sensitive", "tags": {"amenity": "university", "name": "重庆工商大学-兰花湖校区"}}, "geometry": {"type": "Point", "coordinates": [106.5638644, 29.5055697]}}, {"type": "Feature", "properties": {"osm_id": 621220505, "name": "", "category": "kindergarten", "poi_type": "sensitive", "tags": {"amenity": "kindergarten"}}, "geometry": {"type": "Point", "coordinates": [106.5517847, 29.5030909]}}, {"type": "Feature", "properties": {"osm_id": 621220507, "name": "110中学 - 雅居乐校区", "category": "school", "poi_type": "sensitive", "tags": {"amenity": "school", "name": "110中学 - 雅居乐校区"}}, "geometry": {"type": "Point", "coordinates": [106.5557656, 29.5009951]}}, {"type": "Feature", "properties": {"osm_id": 707842548, "name": "南岸区珊瑚幼儿园", "category": "kindergarten", "poi_type": "sensitive", "tags": {"amenity": "kindergarten", "name": "南岸区珊瑚幼儿园"}}, "geometry": {"type": "Point", "coordinates": [106.5557534, 29.5270776]}}, {"type": "Feature", "properties": {"osm_id": 809027096, "name": "城南家园小学", "category": "school", "poi_type": "sensitive", "tags": {"amenity": "school", "name": "城南家园小学", "name:en": "Chengnan Jiayuan Elementary School"}}, "geometry": {"type": "Point", "coordinates": [106.644688, 29.5197238]}}, {"type": "Feature", "properties": {"osm_id": 809027100, "name": "新城幼儿园", "category": "kindergarten", "poi_type": "sensitive", "tags": {"amenity": "kindergarten", "name": "新城幼儿园"}}, "geometry": {"type": "Point", "coordinates": [106.6478088, 29.518914]}}, {"type": "Feature", "properties": {"osm_id": 809027122, "name": "诺维亚幼儿园", "category": "kindergarten", "poi_type": "sensitive", "tags": {"amenity": "kindergarten", "name": "诺维亚幼儿园"}}, "geometry": {"type": "Point", "coordinates": [106.6462619, 29.5168314]}}, {"type": "Feature", "properties": {"osm_id": 863652713, "name": "黄桷垭小学", "category": "school", "poi_type": "sensitive", "tags": {"amenity": "school", "name": "黄桷垭小学"}}, "geometry": {"type": "Point", "coordinates": [106.6018751, 29.5416784]}}, {"type": "Feature", "properties": {"osm_id": 863657602, "name": "Xinshichang Primary School", "category": "school", "poi_type": "sensitive", "tags": {"amenity": "school", "name": "Xinshichang Primary School"}}, "geometry": {"type": "Point", "coordinates": [106.6004893, 29.5232639]}}, {"type": "Feature", "properties": {"osm_id": 863657603, "name": "重庆机电工程技术学校", "category": "college", "poi_type": "sensitive", "tags": {"amenity": "college", "name": "重庆机电工程技术学校", "name:en": "Chongqing Electromechanical Engineering School", "name:zh": "重庆机电工程技术学校"}}, "geometry": {"type": "Point", "coordinates": [106.5777741, 29.5166185]}}, {"type": "Feature", "properties": {"osm_id": 863657604, "name": "重庆第二师范学院学府大道校区", "category": "college", "poi_type": "sensitive", "tags": {"amenity": "college", "name": "重庆第二师范学院学府大道校区"}}, "geometry": {"type": "Point", "coordinates": [106.5737837, 29.5133883]}}, {"type": "Feature", "properties": {"osm_id": 863657605, "name": "重庆110中学", "category": "school", "poi_type": "sensitive", "tags": {"amenity": "school", "name": "重庆110中学", "name:en": "Chongqing No.110 Middle School", "name:zh": "重庆110中学"}}, "geometry": {"type": "Point", "coordinates": [106.571536, 29.5112228]}}, {"type": "Feature", "properties": {"osm_id": 863879894, "name": "重庆市南岸区南坪长江实验学校", "category": "school", "poi_type": "sensitive", "tags": {"amenity": "school", "name": "重庆市南岸区南坪长江实验学校", "name:en": "Nanping Changjiang Experimental School", "name:zh": "重庆市南岸区南坪长江实验学校"}}, "geometry": {"type": "Point", "coordinates": [106.5433399, 29.5382309]}}, {"type": "Feature", "properties": {"osm_id": 863879896, "name": "珊瑚中铁小学", "category": "school", "poi_type": "sensitive", "tags": {"amenity": "school", "name": "珊瑚中铁小学", "name:en": "Zhongtie Shanhu Primary School"}}, "geometry": {"type": "Point", "coordinates": [106.6565351, 29.5032743]}}, {"type": "Feature", "properties": {"osm_id": 863879897, "name": "重庆东南医院", "category": "hospital", "poi_type": "sensitive", "tags": {"amenity": "hospital", "name": "重庆东南医院", "name:en": "Chongqing Southeast Hospital"}}, "geometry": {"type": "Point", "coordinates": [106.650523, 29.5095558]}}, {"type": "Feature", "properties": {"osm_id": 863879898, "name": "长生桥中学", "category": "school", "poi_type": "sensitive", "tags": {"amenity": "school", "name": "长生桥中学", "name:en": "Changshengqiao High School"}}, "geometry": {"type": "Point", "coordinates": [106.6576836, 29.5154881]}}, {"type": "Feature", "properties": {"osm_id": 863879901, "name": "长生小学", "category": "school", "poi_type": "sensitive", "tags": {"amenity": "school", "name": "长生小学", "name:en": "Changsheng Primary School"}}, "geometry": {"type": "Point", "coordinates": [106.657538, 29.5092746]}}, {"type": "Feature", "properties": {"osm_id": 950129569, "name": "广益中学", "category": "school", "poi_type": "sensitive", "tags": {"amenity": "school", "name": "广益中学", "name:en": "Guangyi High School"}}, "geometry": {"type": "Point", "coordinates": [106.5968657, 29.5362487]}}, {"type": "Feature", "properties": {"osm_id": 950134128, "name": "重庆航运旅游学校", "category": "school", "poi_type": "sensitive", "tags": {"amenity": "school", "name": "重庆航运旅游学校"}}, "geometry": {"type": "Point", "coordinates": [106.5932701, 29.5452977]}}, {"type": "Feature", "properties": {"osm_id": 1004918337, "name": "体育学院", "category": "college", "poi_type": "sensitive", "tags": {"amenity": "college", "name": "体育学院"}}, "geometry": {"type": "Point", "coordinates": [106.6057299, 29.5370694]}}, {"type": "Feature", "properties": {"osm_id": 1018942894, "name": "江南水岸小学", "category": "school", "poi_type": "sensitive", "tags": {"amenity": "school", "name": "江南水岸小学"}}, "geometry": {"type": "Point", "coordinates": [106.6789486, 29.5138897]}}, {"type": "Feature", "properties": {"osm_id": 1018942914, "name": "江南广茂小学", "category": "school", "poi_type": "sensitive", "tags": {"amenity": "school", "name": "江南广茂小学"}}, "geometry": {"type": "Point", "coordinates": [106.6758416, 29.5163618]}}, {"type": "Feature", "properties": {"osm_id": 1021613183, "name": "小小藤幼儿园", "category": "kindergarten", "poi_type": "sensitive", "tags": {"amenity": "kindergarten", "name": "小小藤幼儿园"}}, "geometry": {"type": "Point", "coordinates": [106.6503035, 29.5218696]}}, {"type": "Feature", "properties": {"osm_id": 1021647932, "name": "南岸区广福未来学校", "category": "school", "poi_type": "sensitive", "tags": {"amenity": "school", "name": "南岸区广福未来学校"}}, "geometry": {"type": "Point", "coordinates": [106.6464472, 29.5154003]}}, {"type": "Feature", "properties": {"osm_id": 1022188352, "name": "南坪实验外国语小学", "category": "school", "poi_type": "sensitive", "tags": {"amenity": "school", "name": "南坪实验外国语小学"}}, "geometry": {"type": "Point", "coordinates": [106.558978, 29.4945951]}}, {"type": "Feature", "properties": {"osm_id": 1022188353, "name": "观塘中学", "category": "school", "poi_type": "sensitive", "tags": {"amenity": "school", "name": "观塘中学"}}, "geometry": {"type": "Point", "coordinates": [106.5589902, 29.4958192]}}, {"type": "Feature", "properties": {"osm_id": 1028949863, "name": "香溪小学", "category": "school", "poi_type": "sensitive", "tags": {"amenity": "school", "name": "香溪小学"}}, "geometry": {"type": "Point", "coordinates": [106.6490386, 29.493097]}}, {"type": "Feature", "properties": {"osm_id": 1036182336, "name": "南坪实验小学(康德校区)", "category": "school", "poi_type": "sensitive", "tags": {"amenity": "school", "name": "南坪实验小学(康德校区)"}}, "geometry": {"type": "Point", "coordinates": [106.5722004, 29.5300143]}}, {"type": "Feature", "properties": {"osm_id": 1076617376, "name": "川益小学", "category": "school", "poi_type": "sensitive", "tags": {"amenity": "school", "name": "川益小学"}}, "geometry": {"type": "Point", "coordinates": [106.5431225, 29.533439]}}, {"type": "Feature", "properties": {"osm_id": 1101671538, "name": "重庆医科大学附属第二医院江南院区", "category": "hospital", "poi_type": "sensitive", "tags": {"amenity": "hospital", "name": "重庆医科大学附属第二医院江南院区"}}, "geometry": {"type": "Point", "coordinates": [106.6589557, 29.5415349]}}, {"type": "Feature", "properties": {"osm_id": 1153741548, "name": "珊瑚时代都汇幼儿园", "category": "kindergarten", "poi_type": "sensitive", "tags": {"amenity": "kindergarten", "name": "珊瑚时代都汇幼儿园"}}, "geometry": {"type": "Point", "coordinates": [106.6373038, 29.4947743]}}, {"type": "Feature", "properties": {"osm_id": 1153741550, "name": "珊瑚鲁能小学", "category": "school", "poi_type": "sensitive", "tags": {"amenity": "school", "name": "珊瑚鲁能小学"}}, "geometry": {"type": "Point", "coordinates": [106.6292728, 29.4981113]}}, {"type": "Feature", "properties": {"osm_id": 1153741552, "name": "重庆珊瑚中学（江南新城校区）", "category": "school", "poi_type": "sensitive", "tags": {"amenity": "school", "name": "重庆珊瑚中学（江南新城校区）"}}, "geometry": {"type": "Point", "coordinates": [106.630819, 29.4997843]}}, {"type": "Feature", "properties": {"osm_id": 1173616468, "name": "", "category": "school", "poi_type": "sensitive", "tags": {"amenity": "school"}}, "geometry": {"type": "Point", "coordinates": [106.5942193, 29.5180896]}}, {"type": "Feature", "properties": {"osm_id": 1177468155, "name": "弹子石小学中海校区", "category": "school", "poi_type": "sensitive", "tags": {"amenity": "school", "name": "弹子石小学中海校区"}}, "geometry": {"type": "Point", "coordinates": [106.585791, 29.5938053]}}, {"type": "Feature", "properties": {"osm_id": 1177488233, "name": "弹子石中学校", "category": "school", "poi_type": "sensitive", "tags": {"amenity": "school", "name": "弹子石中学校"}}, "geometry": {"type": "Point", "coordinates": [106.5964478, 29.5913694]}}, {"type": "Feature", "properties": {"osm_id": 1177488234, "name": "南岸区大佛段小学校", "category": "school", "poi_type": "sensitive", "tags": {"amenity": "school", "name": "南岸区大佛段小学校"}}, "geometry": {"type": "Point", "coordinates": [106.596509, 29.5925603]}}, {"type": "Feature", "properties": {"osm_id": 1177834143, "name": "重庆市第五人民医院新院区", "category": "hospital", "poi_type": "sensitive", "tags": {"amenity": "hospital", "name": "重庆市第五人民医院新院区"}}, "geometry": {"type": "Point", "coordinates": [106.6034906, 29.6080468]}}, {"type": "Feature", "properties": {"osm_id": 1198056435, "name": "广阳湾珊瑚实验小学", "category": "school", "poi_type": "sensitive", "tags": {"amenity": "school", "name": "广阳湾珊瑚实验小学", "name:en": "Guangyangwan Shanhu Experimental Primary School", "name:zh": "广阳湾珊瑚实验小学"}}, "geometry": {"type": "Point", "coordinates": [106.6557299, 29.5354819]}}, {"type": "Feature", "properties": {"osm_id": 1206414101, "name": "长生桥派出所", "category": "police", "poi_type": "sensitive", "tags": {"amenity": "police", "name": "长生桥派出所"}}, "geometry": {"type": "Point", "coordinates": [106.6525498, 29.5070266]}}, {"type": "Feature", "properties": {"osm_id": 1208215855, "name": "南岸区南坪实验光华小学", "category": "school", "poi_type": "sensitive", "tags": {"amenity": "school", "name": "南岸区南坪实验光华小学"}}, "geometry": {"type": "Point", "coordinates": [106.6288988, 29.4853419]}}, {"type": "Feature", "properties": {"osm_id": 1210995549, "name": "重庆工商大学茶园校区", "category": "university", "poi_type": "sensitive", "tags": {"amenity": "university", "name": "重庆工商大学茶园校区"}}, "geometry": {"type": "Point", "coordinates": [106.6503267, 29.5465088]}}, {"type": "Feature", "properties": {"osm_id": 1216781344, "name": "天台岗万国城小学", "category": "school", "poi_type": "sensitive", "tags": {"amenity": "school", "name": "天台岗万国城小学"}}, "geometry": {"type": "Point", "coordinates": [106.642058, 29.5214625]}}, {"type": "Feature", "properties": {"osm_id": 1216783953, "name": "重庆广阳湾珊瑚中学", "category": "school", "poi_type": "sensitive", "tags": {"amenity": "school", "name": "重庆广阳湾珊瑚中学"}}, "geometry": {"type": "Point", "coordinates": [106.6620945, 29.5345095]}}, {"type": "Feature", "properties": {"osm_id": 1216834217, "name": "江南艺术中学校", "category": "school", "poi_type": "sensitive", "tags": {"amenity": "school", "name": "江南艺术中学校"}}, "geometry": {"type": "Point", "coordinates": [106.6695838, 29.5300552]}}, {"type": "Feature", "properties": {"osm_id": 1217516028, "name": "巴学小苑幼儿园", "category": "kindergarten", "poi_type": "sensitive", "tags": {"amenity": "kindergarten", "name": "巴学小苑幼儿园"}}, "geometry": {"type": "Point", "coordinates": [106.6252845, 29.4962078]}}, {"type": "Feature", "properties": {"osm_id": 1263147984, "name": "南岸区弹子石幼儿园", "category": "kindergarten", "poi_type": "sensitive", "tags": {"amenity": "kindergarten", "name": "南岸区弹子石幼儿园"}}, "geometry": {"type": "Point", "coordinates": [106.5877383, 29.5797088]}}, {"type": "Feature", "properties": {"osm_id": 1265206952, "name": "重庆人民（融侨）小学校", "category": "school", "poi_type": "sensitive", "tags": {"addr:street": "风临路", "amenity": "school", "name": "重庆人民（融侨）小学校", "name:en": "Chongqing Renmin (Rongqiao) Primary School", "name:zh": "重庆人民（融侨）小学校"}}, "geometry": {"type": "Point", "coordinates": [106.5400923, 29.530077]}}, {"type": "Feature", "properties": {"osm_id": 1271930994, "name": "重庆市第十一中金科学校", "category": "school", "poi_type": "sensitive", "tags": {"amenity": "school", "name": "重庆市第十一中金科学校"}}, "geometry": {"type": "Point", "coordinates": [106.6205235, 29.4822683]}}, {"type": "Feature", "properties": {"osm_id": 1271930995, "name": "南坪实验金科小学", "category": "school", "poi_type": "sensitive", "tags": {"amenity": "school", "name": "南坪实验金科小学"}}, "geometry": {"type": "Point", "coordinates": [106.622453, 29.4817987]}}, {"type": "Feature", "properties": {"osm_id": 1271930998, "name": "中共南岸区委党校", "category": "college", "poi_type": "sensitive", "tags": {"amenity": "college", "name": "中共南岸区委党校"}}, "geometry": {"type": "Point", "coordinates": [106.63463, 29.4844942]}}, {"type": "Feature", "properties": {"osm_id": 1272031279, "name": "重庆文德中学校", "category": "school", "poi_type": "sensitive", "tags": {"amenity": "school", "name": "重庆文德中学校"}}, "geometry": {"type": "Point", "coordinates": [106.6171897, 29.4733863]}}, {"type": "Feature", "properties": {"osm_id": 1272198724, "name": "重庆市机电工程高级技工学校", "category": "school", "poi_type": "sensitive", "tags": {"amenity": "school", "name": "重庆市机电工程高级技工学校"}}, "geometry": {"type": "Point", "coordinates": [106.6265731, 29.4787932]}}, {"type": "Feature", "properties": {"osm_id": 1284269227, "name": "重庆市南岸区教师进修学院", "category": "college", "poi_type": "sensitive", "tags": {"amenity": "college", "name": "重庆市南岸区教师进修学院"}}, "geometry": {"type": "Point", "coordinates": [106.6578669, 29.5432324]}}, {"type": "Feature", "properties": {"osm_id": 1285937273, "name": "南坪实验小学（正街校区）", "category": "school", "poi_type": "sensitive", "tags": {"amenity": "school", "name": "南坪实验小学（正街校区）"}}, "geometry": {"type": "Point", "coordinates": [106.5650131, 29.5372628]}}, {"type": "Feature", "properties": {"osm_id": 1295986708, "name": "重庆市南岸区教师进修学院附属小学校", "category": "school", "poi_type": "sensitive", "tags": {"amenity": "school", "name": "重庆市南岸区教师进修学院附属小学校"}}, "geometry": {"type": "Point", "coordinates": [106.6643725, 29.5083619]}}, {"type": "Feature", "properties": {"osm_id": 1295986709, "name": "重庆市南岸区第三人民医院", "category": "hospital", "poi_type": "sensitive", "tags": {"amenity": "hospital", "name": "重庆市南岸区第三人民医院"}}, "geometry": {"type": "Point", "coordinates": [106.6618667, 29.5095369]}}, {"type": "Feature", "properties": {"osm_id": 1299983851, "name": "重庆市公安局渝中区分局执法办案管理中心", "category": "police", "poi_type": "sensitive", "tags": {"amenity": "police", "building": "yes", "name": "重庆市公安局渝中区分局执法办案管理中心"}}, "geometry": {"type": "Point", "coordinates": [106.7120436, 29.5302567]}}, {"type": "Feature", "properties": {"osm_id": 1299983858, "name": "迎龙小学", "category": "school", "poi_type": "sensitive", "tags": {"amenity": "school", "name": "迎龙小学"}}, "geometry": {"type": "Point", "coordinates": [106.7091066, 29.5244112]}}, {"type": "Feature", "properties": {"osm_id": 1299983861, "name": "迎龙中学", "category": "school", "poi_type": "sensitive", "tags": {"amenity": "school", "name": "迎龙中学"}}, "geometry": {"type": "Point", "coordinates": [106.7107072, 29.5236888]}}, {"type": "Feature", "properties": {"osm_id": 1299983870, "name": "迎龙镇卫生院", "category": "hospital", "poi_type": "sensitive", "tags": {"amenity": "hospital", "name": "迎龙镇卫生院"}}, "geometry": {"type": "Point", "coordinates": [106.7047292, 29.5238753]}}, {"type": "Feature", "properties": {"osm_id": 1299985712, "name": "迎龙镇中心幼儿园", "category": "kindergarten", "poi_type": "sensitive", "tags": {"amenity": "kindergarten", "name": "迎龙镇中心幼儿园"}}, "geometry": {"type": "Point", "coordinates": [106.7063486, 29.5256456]}}, {"type": "Feature", "properties": {"osm_id": 1299985717, "name": "迎龙派出所", "category": "police", "poi_type": "sensitive", "tags": {"amenity": "police", "building": "yes", "name": "迎龙派出所"}}, "geometry": {"type": "Point", "coordinates": [106.7108769, 29.5261256]}}, {"type": "Feature", "properties": {"osm_id": 1319569903, "name": "长江生态文明干部学院", "category": "college", "poi_type": "sensitive", "tags": {"amenity": "college", "name": "长江生态文明干部学院"}}, "geometry": {"type": "Point", "coordinates": [106.739463, 29.585138]}}, {"type": "Feature", "properties": {"osm_id": 1322823323, "name": "重庆市教科院巴蜀实验学校", "category": "school", "poi_type": "sensitive", "tags": {"addr:street": "学府大道", "amenity": "school", "name": "重庆市教科院巴蜀实验学校"}}, "geometry": {"type": "Point", "coordinates": [106.5721869, 29.5044971]}}, {"type": "Feature", "properties": {"osm_id": 1323867921, "name": "中窑小学", "category": "school", "poi_type": "sensitive", "tags": {"amenity": "school", "name": "中窑小学"}}, "geometry": {"type": "Point", "coordinates": [106.6110492, 29.6049167]}}, {"type": "Feature", "properties": {"osm_id": 1336751002, "name": "信科大楼(Information Technology Building)", "category": "school", "poi_type": "sensitive", "tags": {"amenity": "school", "building": "yes", "name": "信科大楼(Information Technology Building)"}}, "geometry": {"type": "Point", "coordinates": [106.6011426, 29.5339719]}}, {"type": "Feature", "properties": {"osm_id": 1355360855, "name": "重庆珊瑚初级中学（明佳校区）", "category": "school", "poi_type": "sensitive", "tags": {"amenity": "school", "name": "重庆珊瑚初级中学（明佳校区）"}}, "geometry": {"type": "Point", "coordinates": [106.544122, 29.5258619]}}, {"type": "Feature", "properties": {"osm_id": 1370599625, "name": "南岸区爱弥儿幼儿园", "category": "kindergarten", "poi_type": "sensitive", "tags": {"amenity": "kindergarten", "name": "南岸区爱弥儿幼儿园"}}, "geometry": {"type": "Point", "coordinates": [106.5835793, 29.5938162]}}, {"type": "Feature", "properties": {"osm_id": 1380818570, "name": "长江航运公安局重庆分局", "category": "police", "poi_type": "sensitive", "tags": {"amenity": "police", "name": "长江航运公安局重庆分局"}}, "geometry": {"type": "Point", "coordinates": [106.5809632, 29.5863758]}}, {"type": "Feature", "properties": {"osm_id": 1381166512, "name": "弹子石小学（卫国路校区）", "category": "school", "poi_type": "sensitive", "tags": {"amenity": "school", "name": "弹子石小学（卫国路校区）", "name:zh": "弹子石小学（卫国路校区）"}}, "geometry": {"type": "Point", "coordinates": [106.5827205, 29.5863122]}}, {"type": "Feature", "properties": {"osm_id": 1381166513, "name": "武警重庆总队医院", "category": "hospital", "poi_type": "sensitive", "tags": {"amenity": "hospital", "name": "武警重庆总队医院", "name:zh": "武警重庆总队医院"}}, "geometry": {"type": "Point", "coordinates": [106.583492, 29.5854467]}}, {"type": "Feature", "properties": {"osm_id": 1383565792, "name": "重庆市第十一中学校", "category": "school", "poi_type": "sensitive", "tags": {"amenity": "school", "name": "重庆市第十一中学校"}}, "geometry": {"type": "Point", "coordinates": [106.5962939, 29.5854044]}}, {"type": "Feature", "properties": {"osm_id": 1408393212, "name": "南岸区珊瑚浦辉实验小学", "category": "school", "poi_type": "sensitive", "tags": {"amenity": "school", "name": "南岸区珊瑚浦辉实验小学", "name:zh": "南岸区珊瑚浦辉实验小学"}}, "geometry": {"type": "Point", "coordinates": [106.5774146, 29.5387422]}}, {"type": "Feature", "properties": {"osm_id": 1408811113, "name": "重庆滨江实验学校", "category": "school", "poi_type": "sensitive", "tags": {"amenity": "school", "name": "重庆滨江实验学校"}}, "geometry": {"type": "Point", "coordinates": [106.5955455, 29.5768316]}}, {"type": "Feature", "properties": {"osm_id": 1408811114, "name": "南岸区滨江幼儿园", "category": "kindergarten", "poi_type": "sensitive", "tags": {"amenity": "kindergarten", "name": "南岸区滨江幼儿园"}}, "geometry": {"type": "Point", "coordinates": [106.5946626, 29.5760141]}}, {"type": "Feature", "properties": {"osm_id": 1412730838, "name": "南岸区南山珊瑚实验小学", "category": "school", "poi_type": "sensitive", "tags": {"amenity": "school", "name": "南岸区南山珊瑚实验小学", "name:en": "Nan'an District Nanshan-Shanhu Experimental Primary School", "name:zh": "南岸区南山珊瑚实验小学"}}, "geometry": {"type": "Point", "coordinates": [106.5997022, 29.5145211]}}, {"type": "Feature", "properties": {"osm_id": 1414667840, "name": "重庆市南岸区精神卫生中心", "category": "hospital", "poi_type": "sensitive", "tags": {"amenity": "hospital", "name": "重庆市南岸区精神卫生中心"}}, "geometry": {"type": "Point", "coordinates": [106.5974201, 29.5008837]}}, {"type": "Feature", "properties": {"osm_id": 1414667845, "name": "重庆市广益中学（文峰校区）", "category": "school", "poi_type": "sensitive", "tags": {"amenity": "school", "name": "重庆市广益中学（文峰校区）", "name:zh": "重庆市广益中学（文峰校区）"}}, "geometry": {"type": "Point", "coordinates": [106.5965834, 29.5051816]}}, {"type": "Feature", "properties": {"osm_id": 1415417495, "name": "重庆市残疾人综合服务中心", "category": "hospital", "poi_type": "sensitive", "tags": {"amenity": "hospital", "name": "重庆市残疾人综合服务中心", "name:zh": "重庆市残疾人综合服务中心"}}, "geometry": {"type": "Point", "coordinates": [106.5646656, 29.5216128]}}, {"type": "Feature", "properties": {"osm_id": 1419148132, "name": "龙门浩隆平第二小学校", "category": "school", "poi_type": "sensitive", "tags": {"amenity": "school", "name": "龙门浩隆平第二小学校"}}, "geometry": {"type": "Point", "coordinates": [106.5978277, 29.5834528]}}, {"type": "Feature", "properties": {"osm_id": 2404787511, "name": "宁波大学科技学院", "category": "school", "poi_type": "sensitive", "tags": {"amenity": "school", "name": "宁波大学科技学院"}}, "geometry": {"type": "Point", "coordinates": [121.6255376, 29.9128535]}}, {"type": "Feature", "properties": {"osm_id": 2404787514, "name": "宁波大学", "category": "school", "poi_type": "sensitive", "tags": {"amenity": "school", "name": "宁波大学"}}, "geometry": {"type": "Point", "coordinates": [121.6331682, 29.9111409]}}, {"type": "Feature", "properties": {"osm_id": 7651319119, "name": "宁波大学音乐学院", "category": "college", "poi_type": "sensitive", "tags": {"amenity": "college", "name": "宁波大学音乐学院"}}, "geometry": {"type": "Point", "coordinates": [121.6241482, 29.9115794]}}, {"type": "Feature", "properties": {"osm_id": 11815806242, "name": "宁波江北公安分局刑事侦查大队", "category": "police", "poi_type": "sensitive", "tags": {"amenity": "police", "name": "宁波江北公安分局刑事侦查大队"}}, "geometry": {"type": "Point", "coordinates": [121.5657524, 29.9124443]}}, {"type": "Feature", "properties": {"osm_id": 12369654907, "name": "无人机培训点", "category": "school", "poi_type": "sensitive", "tags": {"amenity": "school", "name": "无人机培训点"}}, "geometry": {"type": "Point", "coordinates": [121.4937258, 29.9742885]}}, {"type": "Feature", "properties": {"osm_id": 12492461876, "name": "江北外滩派出所", "category": "police", "poi_type": "sensitive", "tags": {"amenity": "police", "name": "江北外滩派出所"}}, "geometry": {"type": "Point", "coordinates": [121.5524494, 29.8910052]}}, {"type": "Feature", "properties": {"osm_id": 12623561634, "name": "宁波公安江北分局综合执法保障大队", "category": "police", "poi_type": "sensitive", "tags": {"amenity": "police", "name": "宁波公安江北分局综合执法保障大队"}}, "geometry": {"type": "Point", "coordinates": [121.5515281, 29.8928672]}}, {"type": "Feature", "properties": {"osm_id": 12688531699, "name": "江北区公安分局网警大队", "category": "police", "poi_type": "sensitive", "tags": {"amenity": "police", "name": "江北区公安分局网警大队"}}, "geometry": {"type": "Point", "coordinates": [121.565959, 29.9124234]}}, {"type": "Feature", "properties": {"osm_id": 13165629788, "name": "宁波乔治亚外籍人员子女学校", "category": "school", "poi_type": "sensitive", "tags": {"amenity": "school", "name": "宁波乔治亚外籍人员子女学校", "name:en": "Ningbo Georgia School"}}, "geometry": {"type": "Point", "coordinates": [121.5139738, 29.9321808]}}, {"type": "Feature", "properties": {"osm_id": 232138019, "name": "浙江纺织服装职业技术学院", "category": "college", "poi_type": "sensitive", "tags": {"amenity": "college", "name": "浙江纺织服装职业技术学院"}}, "geometry": {"type": "Point", "coordinates": [121.618845, 29.9164987]}}, {"type": "Feature", "properties": {"osm_id": 232138028, "name": "宁波工程学院", "category": "university", "poi_type": "sensitive", "tags": {"amenity": "university", "name": "宁波工程学院", "name:en": "Ningbo University of Technology"}}, "geometry": {"type": "Point", "coordinates": [121.6081997, 29.9139752]}}, {"type": "Feature", "properties": {"osm_id": 232142799, "name": "宁波市江北区第二实验小学", "category": "school", "poi_type": "sensitive", "tags": {"amenity": "school", "name": "宁波市江北区第二实验小学"}}, "geometry": {"type": "Point", "coordinates": [121.5914221, 29.9104605]}}, {"type": "Feature", "properties": {"osm_id": 232142810, "name": "怡江小学", "category": "school", "poi_type": "sensitive", "tags": {"amenity": "school", "name": "怡江小学"}}, "geometry": {"type": "Point", "coordinates": [121.5928014, 29.9047246]}}, {"type": "Feature", "properties": {"osm_id": 232142836, "name": "宁波大学", "category": "university", "poi_type": "sensitive", "tags": {"amenity": "university", "name": "宁波大学", "name:en": "Ningbo University"}}, "geometry": {"type": "Point", "coordinates": [121.6333312, 29.909197]}}, {"type": "Feature", "properties": {"osm_id": 235144668, "name": "惠贞书院小学部", "category": "school", "poi_type": "sensitive", "tags": {"amenity": "school", "name": "惠贞书院小学部"}}, "geometry": {"type": "Point", "coordinates": [121.5390216, 29.9146246]}}, {"type": "Feature", "properties": {"osm_id": 235144689, "name": "宁波技师学院", "category": "college", "poi_type": "sensitive", "tags": {"amenity": "college", "name": "宁波技师学院"}}, "geometry": {"type": "Point", "coordinates": [121.5130678, 29.9220756]}}, {"type": "Feature", "properties": {"osm_id": 251616675, "name": "宁波市江北实验中学", "category": "school", "poi_type": "sensitive", "tags": {"amenity": "school", "name": "宁波市江北实验中学"}}, "geometry": {"type": "Point", "coordinates": [121.5485767, 29.8969966]}}, {"type": "Feature", "properties": {"osm_id": 251616676, "name": "宁波市江北区中心幼儿园", "category": "kindergarten", "poi_type": "sensitive", "tags": {"amenity": "kindergarten", "name": "宁波市江北区中心幼儿园"}}, "geometry": {"type": "Point", "coordinates": [121.5489483, 29.8961827]}}, {"type": "Feature", "properties": {"osm_id": 302021269, "name": "江北区实验小学(东校区)", "category": "school", "poi_type": "sensitive", "tags": {"amenity": "school", "name": "江北区实验小学(东校区)"}}, "geometry": {"type": "Point", "coordinates": [121.5526204, 29.8968845]}}, {"type": "Feature", "properties": {"osm_id": 304171769, "name": "宁波大学医学院附属医院(外滩院区)", "category": "hospital", "poi_type": "sensitive", "tags": {"addr:street": "人民路", "amenity": "hospital", "name": "宁波大学医学院附属医院(外滩院区)", "name:en": "Ningbo No.3 Hospital"}}, "geometry": {"type": "Point", "coordinates": [121.5565263, 29.885506]}}, {"type": "Feature", "properties": {"osm_id": 304171773, "name": "江北中心小学", "category": "school", "poi_type": "sensitive", "tags": {"amenity": "school", "name": "江北中心小学"}}, "geometry": {"type": "Point", "coordinates": [121.5559727, 29.8865147]}}, {"type": "Feature", "properties": {"osm_id": 497851474, "name": "江北外国语学校", "category": "school", "poi_type": "sensitive", "tags": {"amenity": "school", "name": "江北外国语学校"}}, "geometry": {"type": "Point", "coordinates": [121.5428907, 29.9210325]}}, {"type": "Feature", "properties": {"osm_id": 504332222, "name": "宁波市特殊教育中心学校", "category": "school", "poi_type": "sensitive", "tags": {"amenity": "school", "name": "宁波市特殊教育中心学校"}}, "geometry": {"type": "Point", "coordinates": [121.5469566, 29.9704363]}}, {"type": "Feature", "properties": {"osm_id": 507687039, "name": "宁波江北区外国语艺术学校", "category": "school", "poi_type": "sensitive", "tags": {"addr:street": "星湖路", "amenity": "school", "name": "宁波江北区外国语艺术学校", "name:en": "Ningbo Jiangbei Foreign Language School of Art"}}, "geometry": {"type": "Point", "coordinates": [121.5555334, 29.9050344]}}, {"type": "Feature", "properties": {"osm_id": 819862204, "name": "宁波大学（北校区）", "category": "university", "poi_type": "sensitive", "tags": {"amenity": "university", "name": "宁波大学（北校区）"}}, "geometry": {"type": "Point", "coordinates": [121.6274234, 29.9168115]}}, {"type": "Feature", "properties": {"osm_id": 963121048, "name": "宁波大学附属学校", "category": "school", "poi_type": "sensitive", "tags": {"amenity": "school", "name": "宁波大学附属学校"}}, "geometry": {"type": "Point", "coordinates": [121.5110913, 29.9129216]}}, {"type": "Feature", "properties": {"osm_id": 963121236, "name": "宁波市第九医院", "category": "hospital", "poi_type": "sensitive", "tags": {"amenity": "hospital", "name": "宁波市第九医院", "name:en": "Ningbo Ninth Hospital"}}, "geometry": {"type": "Point", "coordinates": [121.5110631, 29.9192446]}}, {"type": "Feature", "properties": {"osm_id": 963126181, "name": "宁波市江北区云水湾幼儿园", "category": "kindergarten", "poi_type": "sensitive", "tags": {"amenity": "kindergarten", "name": "宁波市江北区云水湾幼儿园"}}, "geometry": {"type": "Point", "coordinates": [121.5046095, 29.921911]}}, {"type": "Feature", "properties": {"osm_id": 963126183, "name": "宁波大学青藤书院", "category": "school", "poi_type": "sensitive", "tags": {"amenity": "school", "name": "宁波大学青藤书院"}}, "geometry": {"type": "Point", "coordinates": [121.5042792, 29.925092]}}, {"type": "Feature", "properties": {"osm_id": 963127431, "name": "洪塘中心小学", "category": "school", "poi_type": "sensitive", "tags": {"amenity": "school", "name": "洪塘中心小学"}}, "geometry": {"type": "Point", "coordinates": [121.5003407, 29.9354034]}}, {"type": "Feature", "properties": {"osm_id": 963327881, "name": "上海交大教育集团宁波实验学校", "category": "school", "poi_type": "sensitive", "tags": {"amenity": "school", "name": "上海交大教育集团宁波实验学校"}}, "geometry": {"type": "Point", "coordinates": [121.5680579, 29.8982261]}}, {"type": "Feature", "properties": {"osm_id": 1229038676, "name": "宁波市水上运动训练基地", "category": "school", "poi_type": "sensitive", "tags": {"amenity": "school", "name": "宁波市水上运动训练基地", "name:en": "Ningbo Water Sports Training Base", "name:zh": "宁波市水上运动训练基地"}}, "geometry": {"type": "Point", "coordinates": [121.5579666, 29.9080232]}}, {"type": "Feature", "properties": {"osm_id": 1229111444, "name": "宁波市江北区实验幼儿园", "category": "kindergarten", "poi_type": "sensitive", "tags": {"amenity": "kindergarten", "name": "宁波市江北区实验幼儿园"}}, "geometry": {"type": "Point", "coordinates": [121.5547341, 29.9025612]}}, {"type": "Feature", "properties": {"osm_id": 1229121156, "name": "宁波市江北中心学校", "category": "school", "poi_type": "sensitive", "tags": {"amenity": "school", "name": "宁波市江北中心学校"}}, "geometry": {"type": "Point", "coordinates": [121.5537233, 29.8915354]}}, {"type": "Feature", "properties": {"osm_id": 1229122639, "name": "宁波市第二医院北院区", "category": "hospital", "poi_type": "sensitive", "tags": {"amenity": "hospital", "name": "宁波市第二医院北院区"}}, "geometry": {"type": "Point", "coordinates": [121.5376493, 29.8942172]}}, {"type": "Feature", "properties": {"osm_id": 1229131139, "name": "宁波技师学院(清江校区)", "category": "school", "poi_type": "sensitive", "tags": {"amenity": "school", "name": "宁波技师学院(清江校区)"}}, "geometry": {"type": "Point", "coordinates": [121.5472096, 29.8978183]}}, {"type": "Feature", "properties": {"osm_id": 1229131140, "name": "宁波市江北区实验小学(西校区)", "category": "school", "poi_type": "sensitive", "tags": {"amenity": "school", "name": "宁波市江北区实验小学(西校区)"}}, "geometry": {"type": "Point", "coordinates": [121.5498412, 29.8972087]}}, {"type": "Feature", "properties": {"osm_id": 1229143481, "name": "浙江省宁波市第四中学", "category": "school", "poi_type": "sensitive", "tags": {"amenity": "school", "name": "浙江省宁波市第四中学", "name:en": "Ningbo No.4 Middle School"}}, "geometry": {"type": "Point", "coordinates": [121.5346909, 29.9004292]}}, {"type": "Feature", "properties": {"osm_id": 1229143482, "name": "浙江开放大学市场监管学院", "category": "school", "poi_type": "sensitive", "tags": {"amenity": "school", "name": "浙江开放大学市场监管学院"}}, "geometry": {"type": "Point", "coordinates": [121.5347531, 29.9021239]}}, {"type": "Feature", "properties": {"osm_id": 1229143483, "name": "宁波市甬江职业高级中学(育才校区)", "category": "school", "poi_type": "sensitive", "tags": {"amenity": "school", "name": "宁波市甬江职业高级中学(育才校区)"}}, "geometry": {"type": "Point", "coordinates": [121.5319454, 29.9011435]}}, {"type": "Feature", "properties": {"osm_id": 1229143485, "name": "宁波幼儿师范高等专科学校", "category": "school", "poi_type": "sensitive", "tags": {"amenity": "school", "name": "宁波幼儿师范高等专科学校"}}, "geometry": {"type": "Point", "coordinates": [121.5341841, 29.8984633]}}, {"type": "Feature", "properties": {"osm_id": 1229143487, "name": "惠贞书院", "category": "school", "poi_type": "sensitive", "tags": {"amenity": "school", "name": "惠贞书院", "name:en": "Ningbo Huizhen Middle School"}}, "geometry": {"type": "Point", "coordinates": [121.5347995, 29.8976207]}}, {"type": "Feature", "properties": {"osm_id": 1229143488, "name": "文教派出所", "category": "police", "poi_type": "sensitive", "tags": {"amenity": "police", "name": "文教派出所"}}, "geometry": {"type": "Point", "coordinates": [121.5356948, 29.8981687]}}, {"type": "Feature", "properties": {"osm_id": 1229182190, "name": "宁波市江北区湖滨幼儿园", "category": "kindergarten", "poi_type": "sensitive", "tags": {"amenity": "kindergarten", "name": "宁波市江北区湖滨幼儿园"}}, "geometry": {"type": "Point", "coordinates": [121.5530018, 29.898593]}}, {"type": "Feature", "properties": {"osm_id": 1229190783, "name": "宁波市江北区槐树幼儿园", "category": "kindergarten", "poi_type": "sensitive", "tags": {"amenity": "kindergarten", "name": "宁波市江北区槐树幼儿园"}}, "geometry": {"type": "Point", "coordinates": [121.5498568, 29.8912]}}, {"type": "Feature", "properties": {"osm_id": 1229194084, "name": "童蒙翡翠东方幼儿园", "category": "kindergarten", "poi_type": "sensitive", "tags": {"amenity": "kindergarten", "name": "童蒙翡翠东方幼儿园"}}, "geometry": {"type": "Point", "coordinates": [121.5681286, 29.899796]}}, {"type": "Feature", "properties": {"osm_id": 1229461121, "name": "宁波市税务干部学校", "category": "school", "poi_type": "sensitive", "tags": {"amenity": "school", "name": "宁波市税务干部学校"}}, "geometry": {"type": "Point", "coordinates": [121.5323117, 29.9024662]}}, {"type": "Feature", "properties": {"osm_id": 1229461122, "name": "宁波东易大名医院", "category": "hospital", "poi_type": "sensitive", "tags": {"amenity": "hospital", "name": "宁波东易大名医院"}}, "geometry": {"type": "Point", "coordinates": [121.5300903, 29.9026521]}}, {"type": "Feature", "properties": {"osm_id": 1229461124, "name": "大连理工大学宁波研究院", "category": "school", "poi_type": "sensitive", "tags": {"amenity": "school", "name": "大连理工大学宁波研究院"}}, "geometry": {"type": "Point", "coordinates": [121.5326996, 29.9041685]}}, {"type": "Feature", "properties": {"osm_id": 1229461126, "name": "育才实验学校", "category": "school", "poi_type": "sensitive", "tags": {"amenity": "school", "name": "育才实验学校"}}, "geometry": {"type": "Point", "coordinates": [121.5300228, 29.9038134]}}, {"type": "Feature", "properties": {"osm_id": 1229514512, "name": "宁波大学继续教育学院", "category": "college", "poi_type": "sensitive", "tags": {"amenity": "college", "name": "宁波大学继续教育学院"}}, "geometry": {"type": "Point", "coordinates": [121.5318954, 29.8983617]}}, {"type": "Feature", "properties": {"osm_id": 1229711414, "name": "宁波大学附属学校小学部", "category": "school", "poi_type": "sensitive", "tags": {"amenity": "school", "name": "宁波大学附属学校小学部"}}, "geometry": {"type": "Point", "coordinates": [121.5139168, 29.9130266]}}, {"type": "Feature", "properties": {"osm_id": 1230954240, "name": "江北公安分局治安大队", "category": "police", "poi_type": "sensitive", "tags": {"amenity": "police", "building": "yes", "name": "江北公安分局治安大队"}}, "geometry": {"type": "Point", "coordinates": [121.5491113, 29.891674]}}, {"type": "Feature", "properties": {"osm_id": 1230983266, "name": "宁波市江北区桃源幼儿园", "category": "kindergarten", "poi_type": "sensitive", "tags": {"amenity": "kindergarten", "name": "宁波市江北区桃源幼儿园"}}, "geometry": {"type": "Point", "coordinates": [121.5536351, 29.894466]}}, {"type": "Feature", "properties": {"osm_id": 1231758172, "name": "宁波爱尔光明眼科医院", "category": "hospital", "poi_type": "sensitive", "tags": {"addr:street": "环城北路", "amenity": "hospital", "name": "宁波爱尔光明眼科医院"}}, "geometry": {"type": "Point", "coordinates": [121.5650058, 29.9022312]}}, {"type": "Feature", "properties": {"osm_id": 1232504486, "name": "", "category": "kindergarten", "poi_type": "sensitive", "tags": {"amenity": "kindergarten"}}, "geometry": {"type": "Point", "coordinates": [121.5429276, 29.9169875]}}, {"type": "Feature", "properties": {"osm_id": 1234385388, "name": "宁波市江北区红梅小学", "category": "school", "poi_type": "sensitive", "tags": {"amenity": "school", "name": "宁波市江北区红梅小学"}}, "geometry": {"type": "Point", "coordinates": [121.5800281, 29.9029926]}}, {"type": "Feature", "properties": {"osm_id": 1234385390, "name": "宁波市孔浦中学", "category": "school", "poi_type": "sensitive", "tags": {"amenity": "school", "name": "宁波市孔浦中学"}}, "geometry": {"type": "Point", "coordinates": [121.5855651, 29.9060164]}}, {"type": "Feature", "properties": {"osm_id": 1234385391, "name": "孔浦派出所", "category": "police", "poi_type": "sensitive", "tags": {"amenity": "police", "building": "yes", "name": "孔浦派出所"}}, "geometry": {"type": "Point", "coordinates": [121.5865462, 29.9054863]}}, {"type": "Feature", "properties": {"osm_id": 1235573786, "name": "新悦幼儿园(范江岸路)", "category": "kindergarten", "poi_type": "sensitive", "tags": {"amenity": "kindergarten", "name": "新悦幼儿园(范江岸路)"}}, "geometry": {"type": "Point", "coordinates": [121.5304714, 29.8946849]}}, {"type": "Feature", "properties": {"osm_id": 1241097852, "name": "新城外国语学校小学部", "category": "school", "poi_type": "sensitive", "tags": {"amenity": "school", "name": "新城外国语学校小学部"}}, "geometry": {"type": "Point", "coordinates": [121.4410673, 29.9670483]}}, {"type": "Feature", "properties": {"osm_id": 1241097853, "name": "宁波市妇女儿童医院（北部院区）", "category": "hospital", "poi_type": "sensitive", "tags": {"amenity": "hospital", "name": "宁波市妇女儿童医院（北部院区）"}}, "geometry": {"type": "Point", "coordinates": [121.4399019, 29.9651965]}}, {"type": "Feature", "properties": {"osm_id": 1241097854, "name": "江北新城外国语学校", "category": "school", "poi_type": "sensitive", "tags": {"amenity": "school", "name": "江北新城外国语学校"}}, "geometry": {"type": "Point", "coordinates": [121.4394727, 29.9629378]}}, {"type": "Feature", "properties": {"osm_id": 1243181899, "name": "慈城中心小学", "category": "school", "poi_type": "sensitive", "tags": {"amenity": "school", "name": "慈城中心小学"}}, "geometry": {"type": "Point", "coordinates": [121.4651904, 29.9788508]}}, {"type": "Feature", "properties": {"osm_id": 1243181917, "name": "中城小学", "category": "school", "poi_type": "sensitive", "tags": {"amenity": "school", "name": "中城小学"}}, "geometry": {"type": "Point", "coordinates": [121.4468299, 29.9850319]}}, {"type": "Feature", "properties": {"osm_id": 1243181918, "name": "普迪学校小学部", "category": "school", "poi_type": "sensitive", "tags": {"amenity": "school", "name": "普迪学校小学部"}}, "geometry": {"type": "Point", "coordinates": [121.4470003, 29.9836564]}}, {"type": "Feature", "properties": {"osm_id": 1243193044, "name": "至成学校", "category": "school", "poi_type": "sensitive", "tags": {"amenity": "school", "name": "至成学校"}}, "geometry": {"type": "Point", "coordinates": [121.5135016, 29.9307795]}}, {"type": "Feature", "properties": {"osm_id": 1243193053, "name": "宁波市交通高级技工学校", "category": "college", "poi_type": "sensitive", "tags": {"amenity": "college", "name": "宁波市交通高级技工学校"}}, "geometry": {"type": "Point", "coordinates": [121.4938028, 29.9419936]}}, {"type": "Feature", "properties": {"osm_id": 1243193057, "name": "洪塘实验学校", "category": "school", "poi_type": "sensitive", "tags": {"amenity": "school", "name": "洪塘实验学校"}}, "geometry": {"type": "Point", "coordinates": [121.4949429, 29.9347883]}}, {"type": "Feature", "properties": {"osm_id": 1243241147, "name": "宁波福山正达外国语学校", "category": "school", "poi_type": "sensitive", "tags": {"amenity": "school", "name": "宁波福山正达外国语学校"}}, "geometry": {"type": "Point", "coordinates": [121.481986, 29.9413372]}}, {"type": "Feature", "properties": {"osm_id": 1245662453, "name": "宁波市公安局江北分局", "category": "police", "poi_type": "sensitive", "tags": {"addr:street": "环城北路", "amenity": "police", "name": "宁波市公安局江北分局"}}, "geometry": {"type": "Point", "coordinates": [121.5622562, 29.9023221]}}, {"type": "Feature", "properties": {"osm_id": 1249862965, "name": "慈湖中学", "category": "school", "poi_type": "sensitive", "tags": {"amenity": "school", "name": "慈湖中学"}}, "geometry": {"type": "Point", "coordinates": [121.4489583, 29.9954042]}}, {"type": "Feature", "properties": {"osm_id": 1251201837, "name": "宁波市江北区启慧托育园", "category": "kindergarten", "poi_type": "sensitive", "tags": {"amenity": "kindergarten", "name": "宁波市江北区启慧托育园"}}, "geometry": {"type": "Point", "coordinates": [121.5389122, 29.8938626]}}, {"type": "Feature", "properties": {"osm_id": 1251950217, "name": "宁波开放大学", "category": "college", "poi_type": "sensitive", "tags": {"amenity": "college", "name": "宁波开放大学"}}, "geometry": {"type": "Point", "coordinates": [121.5348803, 29.8965477]}}, {"type": "Feature", "properties": {"osm_id": 1261382402, "name": "天水幼儿园", "category": "kindergarten", "poi_type": "sensitive", "tags": {"amenity": "kindergarten", "name": "天水幼儿园"}}, "geometry": {"type": "Point", "coordinates": [121.5398182, 29.912825]}}, {"type": "Feature", "properties": {"osm_id": 1263371508, "name": "万象幼儿园", "category": "kindergarten", "poi_type": "sensitive", "tags": {"amenity": "kindergarten", "name": "万象幼儿园"}}, "geometry": {"type": "Point", "coordinates": [121.5566048, 29.90918]}}, {"type": "Feature", "properties": {"osm_id": 1269197360, "name": "宁波海关培训基地", "category": "college", "poi_type": "sensitive", "tags": {"amenity": "college", "name": "宁波海关培训基地"}}, "geometry": {"type": "Point", "coordinates": [121.5121982, 29.9432701]}}, {"type": "Feature", "properties": {"osm_id": 1269197361, "name": "宁波公交职业学校", "category": "school", "poi_type": "sensitive", "tags": {"amenity": "school", "name": "宁波公交职业学校"}}, "geometry": {"type": "Point", "coordinates": [121.5058949, 29.9406042]}}, {"type": "Feature", "properties": {"osm_id": 1269197363, "name": "颐和艺术幼儿园", "category": "kindergarten", "poi_type": "sensitive", "tags": {"amenity": "kindergarten", "name": "颐和艺术幼儿园"}}, "geometry": {"type": "Point", "coordinates": [121.5058588, 29.9468743]}}, {"type": "Feature", "properties": {"osm_id": 1269197372, "name": "宁波洪塘中学", "category": "school", "poi_type": "sensitive", "tags": {"amenity": "school", "name": "宁波洪塘中学"}}, "geometry": {"type": "Point", "coordinates": [121.5008993, 29.9475559]}}, {"type": "Feature", "properties": {"osm_id": 1269204966, "name": "宁波惠贞高级中学", "category": "school", "poi_type": "sensitive", "tags": {"amenity": "school", "name": "宁波惠贞高级中学"}}, "geometry": {"type": "Point", "coordinates": [121.5228791, 29.9217238]}}, {"type": "Feature", "properties": {"osm_id": 1269204971, "name": "海外滩幼儿园", "category": "kindergarten", "poi_type": "sensitive", "tags": {"amenity": "kindergarten", "name": "海外滩幼儿园"}}, "geometry": {"type": "Point", "coordinates": [121.5187442, 29.9146867]}}, {"type": "Feature", "properties": {"osm_id": 1269204976, "name": "宁波大学附属学校小学部", "category": "school", "poi_type": "sensitive", "tags": {"amenity": "school", "name": "宁波大学附属学校小学部"}}, "geometry": {"type": "Point", "coordinates": [121.5208813, 29.9191265]}}, {"type": "Feature", "properties": {"osm_id": 1269204982, "name": "博悦幼儿园", "category": "kindergarten", "poi_type": "sensitive", "tags": {"amenity": "kindergarten", "name": "博悦幼儿园"}}, "geometry": {"type": "Point", "coordinates": [121.5372363, 29.9216512]}}, {"type": "Feature", "properties": {"osm_id": 1269205016, "name": "宁波博雅幼儿园", "category": "kindergarten", "poi_type": "sensitive", "tags": {"amenity": "kindergarten", "name": "宁波博雅幼儿园"}}, "geometry": {"type": "Point", "coordinates": [121.5026854, 29.9372973]}}, {"type": "Feature", "properties": {"osm_id": 1270141455, "name": "宁静幼儿园", "category": "kindergarten", "poi_type": "sensitive", "tags": {"amenity": "kindergarten", "name": "宁静幼儿园"}}, "geometry": {"type": "Point", "coordinates": [121.504347, 29.9290193]}}, {"type": "Feature", "properties": {"osm_id": 1270141457, "name": "灵峰学校", "category": "school", "poi_type": "sensitive", "tags": {"amenity": "school", "name": "灵峰学校"}}, "geometry": {"type": "Point", "coordinates": [121.5015877, 29.9547591]}}, {"type": "Feature", "properties": {"osm_id": 1270141535, "name": "洪塘街道中心幼儿园", "category": "kindergarten", "poi_type": "sensitive", "tags": {"amenity": "kindergarten", "name": "洪塘街道中心幼儿园"}}, "geometry": {"type": "Point", "coordinates": [121.5056066, 29.9311052]}}, {"type": "Feature", "properties": {"osm_id": 1271013632, "name": "卓越美式幼儿园", "category": "kindergarten", "poi_type": "sensitive", "tags": {"amenity": "kindergarten", "name": "卓越美式幼儿园"}}, "geometry": {"type": "Point", "coordinates": [121.4961731, 29.9346898]}}, {"type": "Feature", "properties": {"osm_id": 1271013709, "name": "洪塘中心幼儿园分园", "category": "kindergarten", "poi_type": "sensitive", "tags": {"amenity": "kindergarten", "name": "洪塘中心幼儿园分园"}}, "geometry": {"type": "Point", "coordinates": [121.5028278, 29.9293816]}}, {"type": "Feature", "properties": {"osm_id": 1271647090, "name": "慈城高中", "category": "school", "poi_type": "sensitive", "tags": {"amenity": "school", "name": "慈城高中"}}, "geometry": {"type": "Point", "coordinates": [121.4502606, 29.955612]}}, {"type": "Feature", "properties": {"osm_id": 1271647097, "name": "慈信·维拉幼儿园", "category": "kindergarten", "poi_type": "sensitive", "tags": {"amenity": "kindergarten", "name": "慈信·维拉幼儿园"}}, "geometry": {"type": "Point", "coordinates": [121.4490818, 29.958073]}}, {"type": "Feature", "properties": {"osm_id": 1271647102, "name": "云鹭湾幼儿园", "category": "kindergarten", "poi_type": "sensitive", "tags": {"amenity": "kindergarten", "name": "云鹭湾幼儿园"}}, "geometry": {"type": "Point", "coordinates": [121.4382416, 29.9575464]}}, {"type": "Feature", "properties": {"osm_id": 1272166189, "name": "中共宁波党校", "category": "college", "poi_type": "sensitive", "tags": {"amenity": "college", "name": "中共宁波党校"}}, "geometry": {"type": "Point", "coordinates": [121.4565852, 29.9590698]}}, {"type": "Feature", "properties": {"osm_id": 1272489587, "name": "慈城派出所", "category": "police", "poi_type": "sensitive", "tags": {"amenity": "police", "name": "慈城派出所"}}, "geometry": {"type": "Point", "coordinates": [121.4339118, 29.9831969]}}, {"type": "Feature", "properties": {"osm_id": 1273645911, "name": "茗馨幼儿园", "category": "kindergarten", "poi_type": "sensitive", "tags": {"amenity": "kindergarten", "name": "茗馨幼儿园"}}, "geometry": {"type": "Point", "coordinates": [121.5437584, 29.9358266]}}, {"type": "Feature", "properties": {"osm_id": 1273645934, "name": "江北志道幼儿园", "category": "kindergarten", "poi_type": "sensitive", "tags": {"amenity": "kindergarten", "name": "江北志道幼儿园"}}, "geometry": {"type": "Point", "coordinates": [121.5467812, 29.9218644]}}, {"type": "Feature", "properties": {"osm_id": 1275795671, "name": "宁波上海世界外国语学校", "category": "school", "poi_type": "sensitive", "tags": {"amenity": "school", "name": "宁波上海世界外国语学校"}}, "geometry": {"type": "Point", "coordinates": [121.5007715, 29.9265207]}}, {"type": "Feature", "properties": {"osm_id": 1279766179, "name": "倡棋幼儿园", "category": "kindergarten", "poi_type": "sensitive", "tags": {"amenity": "kindergarten", "name": "倡棋幼儿园"}}, "geometry": {"type": "Point", "coordinates": [121.4471443, 29.9852865]}}, {"type": "Feature", "properties": {"osm_id": 1287750915, "name": "绿梅幼儿园", "category": "kindergarten", "poi_type": "sensitive", "tags": {"amenity": "kindergarten", "name": "绿梅幼儿园"}}, "geometry": {"type": "Point", "coordinates": [121.580978, 29.9038226]}}, {"type": "Feature", "properties": {"osm_id": 1289450239, "name": "宁波公安交通警察江北大队", "category": "police", "poi_type": "sensitive", "tags": {"amenity": "police", "name": "宁波公安交通警察江北大队"}}, "geometry": {"type": "Point", "coordinates": [121.5881113, 29.9151353]}}, {"type": "Feature", "properties": {"osm_id": 1289450240, "name": "甬江派出所", "category": "police", "poi_type": "sensitive", "tags": {"amenity": "police", "name": "甬江派出所"}}, "geometry": {"type": "Point", "coordinates": [121.5885606, 29.9146645]}}, {"type": "Feature", "properties": {"osm_id": 1345246222, "name": "宁波市公安局交通警察局江北大队慈城中队", "category": "police", "poi_type": "sensitive", "tags": {"amenity": "police", "name": "宁波市公安局交通警察局江北大队慈城中队"}}, "geometry": {"type": "Point", "coordinates": [121.4387977, 29.9800884]}}, {"type": "Feature", "properties": {"osm_id": 1350375712, "name": "三水湾幼儿园", "category": "kindergarten", "poi_type": "sensitive", "tags": {"amenity": "kindergarten", "name": "三水湾幼儿园"}}, "geometry": {"type": "Point", "coordinates": [121.545125, 29.9028176]}}, {"type": "Feature", "properties": {"osm_id": 1351885253, "name": "宁波老年康复医院", "category": "hospital", "poi_type": "sensitive", "tags": {"amenity": "hospital", "name": "宁波老年康复医院"}}, "geometry": {"type": "Point", "coordinates": [121.5135339, 29.9343065]}}, {"type": "Feature", "properties": {"osm_id": 1354145458, "name": "宁波江北滨江实验幼儿园", "category": "kindergarten", "poi_type": "sensitive", "tags": {"amenity": "kindergarten", "name": "宁波江北滨江实验幼儿园"}}, "geometry": {"type": "Point", "coordinates": [121.5916899, 29.9043818]}}, {"type": "Feature", "properties": {"osm_id": 1354145460, "name": "宁波怡江幼儿园", "category": "kindergarten", "poi_type": "sensitive", "tags": {"amenity": "kindergarten", "name": "宁波怡江幼儿园"}}, "geometry": {"type": "Point", "coordinates": [121.584738, 29.903961]}}, {"type": "Feature", "properties": {"osm_id": 1356881881, "name": "宁波市民康医院", "category": "hospital", "poi_type": "sensitive", "tags": {"amenity": "hospital", "name": "宁波市民康医院", "name:en": "Ningbo Psychiatric Hospital"}}, "geometry": {"type": "Point", "coordinates": [121.5671097, 29.949693]}}, {"type": "Feature", "properties": {"osm_id": 1360470311, "name": "洋墅幼儿园", "category": "kindergarten", "poi_type": "sensitive", "tags": {"amenity": "kindergarten", "name": "洋墅幼儿园"}}, "geometry": {"type": "Point", "coordinates": [121.5121629, 29.9280494]}}, {"type": "Feature", "properties": {"osm_id": 1361045442, "name": "宁波市江北巡特警大队", "category": "police", "poi_type": "sensitive", "tags": {"amenity": "police", "name": "宁波市江北巡特警大队"}}, "geometry": {"type": "Point", "coordinates": [121.4923364, 29.9381161]}}, {"type": "Feature", "properties": {"osm_id": 1361238296, "name": "江北养正幼儿园春晖园", "category": "kindergarten", "poi_type": "sensitive", "tags": {"amenity": "kindergarten", "name": "江北养正幼儿园春晖园"}}, "geometry": {"type": "Point", "coordinates": [121.5148983, 29.9179292]}}, {"type": "Feature", "properties": {"osm_id": 1361238388, "name": "江北养正幼儿园", "category": "kindergarten", "poi_type": "sensitive", "tags": {"amenity": "kindergarten", "name": "江北养正幼儿园"}}, "geometry": {"type": "Point", "coordinates": [121.5195662, 29.9217255]}}, {"type": "Feature", "properties": {"osm_id": 1361238430, "name": "洪塘街道社区卫生服务中心", "category": "clinic", "poi_type": "sensitive", "tags": {"amenity": "clinic", "name": "洪塘街道社区卫生服务中心"}}, "geometry": {"type": "Point", "coordinates": [121.5010828, 29.9400727]}}, {"type": "Feature", "properties": {"osm_id": 1361238431, "name": "宁波江北洪塘派出所", "category": "police", "poi_type": "sensitive", "tags": {"amenity": "police", "name": "宁波江北洪塘派出所"}}, "geometry": {"type": "Point", "coordinates": [121.4985658, 29.9387658]}}, {"type": "Feature", "properties": {"osm_id": 1361238487, "name": "宁波江北前江派出所", "category": "police", "poi_type": "sensitive", "tags": {"amenity": "police", "name": "宁波江北前江派出所"}}, "geometry": {"type": "Point", "coordinates": [121.4859754, 29.9415781]}}, {"type": "Feature", "properties": {"osm_id": 1361238514, "name": "未来盛园幼儿园", "category": "kindergarten", "poi_type": "sensitive", "tags": {"amenity": "kindergarten", "name": "未来盛园幼儿园"}}, "geometry": {"type": "Point", "coordinates": [121.4955472, 29.9441335]}}, {"type": "Feature", "properties": {"osm_id": 1361303020, "name": "宁波市江北甬港幼儿园", "category": "kindergarten", "poi_type": "sensitive", "tags": {"amenity": "kindergarten", "name": "宁波市江北甬港幼儿园"}}, "geometry": {"type": "Point", "coordinates": [121.5129237, 29.9159936]}}, {"type": "Feature", "properties": {"osm_id": 1361493651, "name": "江北星海托育中心", "category": "kindergarten", "poi_type": "sensitive", "tags": {"amenity": "kindergarten", "name": "江北星海托育中心"}}, "geometry": {"type": "Point", "coordinates": [121.5379588, 29.896486]}}, {"type": "Feature", "properties": {"osm_id": 1361493821, "name": "江北天成幼儿园", "category": "kindergarten", "poi_type": "sensitive", "tags": {"amenity": "kindergarten", "name": "江北天成幼儿园"}}, "geometry": {"type": "Point", "coordinates": [121.5325218, 29.91332]}}, {"type": "Feature", "properties": {"osm_id": 1361493835, "name": "宁波志道幼儿园铂翠湾园", "category": "kindergarten", "poi_type": "sensitive", "tags": {"amenity": "kindergarten", "name": "宁波志道幼儿园铂翠湾园"}}, "geometry": {"type": "Point", "coordinates": [121.5275853, 29.9142532]}}, {"type": "Feature", "properties": {"osm_id": 1361493860, "name": "姚畔湾幼儿园", "category": "kindergarten", "poi_type": "sensitive", "tags": {"amenity": "kindergarten", "name": "姚畔湾幼儿园"}}, "geometry": {"type": "Point", "coordinates": [121.5120205, 29.9112161]}}, {"type": "Feature", "properties": {"osm_id": 1364076156, "name": "宁波市公安局水陆交通治安分局", "category": "police", "poi_type": "sensitive", "tags": {"amenity": "police", "name": "宁波市公安局水陆交通治安分局"}}, "geometry": {"type": "Point", "coordinates": [121.5622569, 29.8908098]}}, {"type": "Feature", "properties": {"osm_id": 1366044262, "name": "唐弢学校", "category": "school", "poi_type": "sensitive", "tags": {"amenity": "school", "name": "唐弢学校"}}, "geometry": {"type": "Point", "coordinates": [121.5914809, 29.9241135]}}, {"type": "Feature", "properties": {"osm_id": 1366044311, "name": "甬江实验学校", "category": "school", "poi_type": "sensitive", "tags": {"amenity": "school", "name": "甬江实验学校"}}, "geometry": {"type": "Point", "coordinates": [121.5874797, 29.9333674]}}, {"type": "Feature", "properties": {"osm_id": 1367936654, "name": "庄桥派出所", "category": "police", "poi_type": "sensitive", "tags": {"amenity": "police", "name": "庄桥派出所"}}, "geometry": {"type": "Point", "coordinates": [121.5404445, 29.9268077]}}, {"type": "Feature", "properties": {"osm_id": 1367936657, "name": "滕兴驾校庄桥分校", "category": "driving_school", "poi_type": "sensitive", "tags": {"amenity": "driving_school", "name": "滕兴驾校庄桥分校"}}, "geometry": {"type": "Point", "coordinates": [121.5516166, 29.9298459]}}, {"type": "Feature", "properties": {"osm_id": 1367936666, "name": "宁波瑞合康复医院", "category": "clinic", "poi_type": "sensitive", "tags": {"amenity": "clinic", "building": "hospital", "name": "宁波瑞合康复医院"}}, "geometry": {"type": "Point", "coordinates": [121.5508572, 29.9252968]}}, {"type": "Feature", "properties": {"osm_id": 1370093000, "name": "众仁驾校", "category": "driving_school", "poi_type": "sensitive", "tags": {"amenity": "driving_school", "name": "众仁驾校"}}, "geometry": {"type": "Point", "coordinates": [121.5723064, 29.907012]}}, {"type": "Feature", "properties": {"osm_id": 1370093023, "name": "江北阳光博爱康复医院", "category": "clinic", "poi_type": "sensitive", "tags": {"amenity": "clinic", "building": "hospital", "name": "江北阳光博爱康复医院"}}, "geometry": {"type": "Point", "coordinates": [121.5651286, 29.910024]}}, {"type": "Feature", "properties": {"osm_id": 1372492620, "name": "江北外国语学校二期", "category": "school", "poi_type": "sensitive", "tags": {"amenity": "school", "name": "江北外国语学校二期"}}, "geometry": {"type": "Point", "coordinates": [121.5405494, 29.920691]}}, {"type": "Feature", "properties": {"osm_id": 1372492647, "name": "江北庄桥中心小学", "category": "school", "poi_type": "sensitive", "tags": {"amenity": "school", "name": "江北庄桥中心小学"}}, "geometry": {"type": "Point", "coordinates": [121.5518251, 29.9320692]}}, {"type": "Feature", "properties": {"osm_id": 1372753405, "name": "诺亚舟世茂天慧幼儿园", "category": "kindergarten", "poi_type": "sensitive", "tags": {"amenity": "kindergarten", "name": "诺亚舟世茂天慧幼儿园"}}, "geometry": {"type": "Point", "coordinates": [121.5284846, 29.9204812]}}, {"type": "Feature", "properties": {"osm_id": 1378025983, "name": "普迪学校（初中部）", "category": "school", "poi_type": "sensitive", "tags": {"amenity": "school", "name": "普迪学校（初中部）"}}, "geometry": {"type": "Point", "coordinates": [121.4192793, 29.9991417]}}, {"type": "Feature", "properties": {"osm_id": 1378025984, "name": "妙山小学", "category": "school", "poi_type": "sensitive", "tags": {"amenity": "school", "name": "妙山小学"}}, "geometry": {"type": "Point", "coordinates": [121.4193147, 30.0009634]}}, {"type": "Feature", "properties": {"osm_id": 1378026555, "name": "修人学校", "category": "school", "poi_type": "sensitive", "tags": {"amenity": "school", "name": "修人学校"}}, "geometry": {"type": "Point", "coordinates": [121.4265828, 29.9729224]}}, {"type": "Feature", "properties": {"osm_id": 1378026556, "name": "新城幼儿园", "category": "kindergarten", "poi_type": "sensitive", "tags": {"amenity": "kindergarten", "name": "新城幼儿园"}}, "geometry": {"type": "Point", "coordinates": [121.4261201, 29.9741035]}}, {"type": "Feature", "properties": {"osm_id": 1378030500, "name": "养正书院", "category": "school", "poi_type": "sensitive", "tags": {"amenity": "school", "name": "养正书院"}}, "geometry": {"type": "Point", "coordinates": [121.5479737, 29.9609178]}}, {"type": "Feature", "properties": {"osm_id": 1378030501, "name": "尚德学校", "category": "school", "poi_type": "sensitive", "tags": {"amenity": "school", "name": "尚德学校"}}, "geometry": {"type": "Point", "coordinates": [121.550042, 29.9317438]}}, {"type": "Feature", "properties": {"osm_id": 1378030502, "name": "庄桥中学", "category": "school", "poi_type": "sensitive", "tags": {"amenity": "school", "name": "庄桥中学"}}, "geometry": {"type": "Point", "coordinates": [121.546639, 29.9309376]}}, {"type": "Feature", "properties": {"osm_id": 1378030503, "name": "费市小学", "category": "school", "poi_type": "sensitive", "tags": {"amenity": "school", "name": "费市小学"}}, "geometry": {"type": "Point", "coordinates": [121.5314694, 29.9651821]}}, {"type": "Feature", "properties": {"osm_id": 1378032088, "name": "育才小学", "category": "school", "poi_type": "sensitive", "tags": {"amenity": "school", "name": "育才小学"}}, "geometry": {"type": "Point", "coordinates": [121.5273588, 29.895433]}}, {"type": "Feature", "properties": {"osm_id": 1378073189, "name": "江北志道幼儿园云栖兰汀园", "category": "kindergarten", "poi_type": "sensitive", "tags": {"amenity": "kindergarten", "name": "江北志道幼儿园云栖兰汀园"}}, "geometry": {"type": "Point", "coordinates": [121.5384167, 29.926423]}}, {"type": "Feature", "properties": {"osm_id": 1378309823, "name": "悦和幼儿园", "category": "kindergarten", "poi_type": "sensitive", "tags": {"amenity": "kindergarten", "name": "悦和幼儿园"}}, "geometry": {"type": "Point", "coordinates": [121.5885066, 29.9119189]}}, {"type": "Feature", "properties": {"osm_id": 1385821012, "name": "德润书院", "category": "school", "poi_type": "sensitive", "tags": {"amenity": "school", "name": "德润书院"}}, "geometry": {"type": "Point", "coordinates": [121.4537112, 29.9565124]}}, {"type": "Feature", "properties": {"osm_id": 1385821057, "name": "江北慈城实验幼儿园", "category": "kindergarten", "poi_type": "sensitive", "tags": {"amenity": "kindergarten", "name": "江北慈城实验幼儿园"}}, "geometry": {"type": "Point", "coordinates": [121.4339877, 29.9565624]}}, {"type": "Feature", "properties": {"osm_id": 1391180890, "name": "北欣幼儿园", "category": "kindergarten", "poi_type": "sensitive", "tags": {"amenity": "kindergarten", "name": "北欣幼儿园"}}, "geometry": {"type": "Point", "coordinates": [121.4988373, 29.9413755]}}, {"type": "Feature", "properties": {"osm_id": 1391861202, "name": "祥星幼儿园", "category": "kindergarten", "poi_type": "sensitive", "tags": {"amenity": "kindergarten", "name": "祥星幼儿园"}}, "geometry": {"type": "Point", "coordinates": [121.4794229, 29.9440952]}}, {"type": "Feature", "properties": {"osm_id": 1391861235, "name": "宁波市刑事诉讼涉案财物管理中心", "category": "police", "poi_type": "sensitive", "tags": {"amenity": "police", "name": "宁波市刑事诉讼涉案财物管理中心"}}, "geometry": {"type": "Point", "coordinates": [121.48996, 29.9527013]}}, {"type": "Feature", "properties": {"osm_id": 1391861251, "name": "前江街道中心幼儿园", "category": "kindergarten", "poi_type": "sensitive", "tags": {"amenity": "kindergarten", "name": "前江街道中心幼儿园"}}, "geometry": {"type": "Point", "coordinates": [121.4825946, 29.9431162]}}, {"type": "Feature", "properties": {"osm_id": 1413630727, "name": "裘市小学", "category": "school", "poi_type": "sensitive", "tags": {"amenity": "school", "name": "裘市小学"}}, "geometry": {"type": "Point", "coordinates": [121.4695345, 29.9324658]}}, {"type": "Feature", "properties": {"osm_id": 1418958758, "name": "宇达驾驶培训学校", "category": "driving_school", "poi_type": "sensitive", "tags": {"amenity": "driving_school", "name": "宇达驾驶培训学校"}}, "geometry": {"type": "Point", "coordinates": [121.507853, 29.9426496]}}, {"type": "Feature", "properties": {"osm_id": 1432339136, "name": "宁波爱尔光明眼科医院总院", "category": "hospital", "poi_type": "sensitive", "tags": {"amenity": "hospital", "building": "hospital", "name": "宁波爱尔光明眼科医院总院"}}, "geometry": {"type": "Point", "coordinates": [121.5243362, 29.918819]}}, {"type": "Feature", "properties": {"osm_id": 1434433062, "name": "宁波工程学院驾校", "category": "driving_school", "poi_type": "sensitive", "tags": {"amenity": "driving_school", "name": "宁波工程学院驾校"}}, "geometry": {"type": "Point", "coordinates": [121.6020089, 29.9137155]}}, {"type": "Feature", "properties": {"osm_id": 1442631077, "name": "应嘉幼儿园", "category": "kindergarten", "poi_type": "sensitive", "tags": {"amenity": "kindergarten", "name": "应嘉幼儿园"}}, "geometry": {"type": "Point", "coordinates": [121.5424454, 29.9588607]}}, {"type": "Feature", "properties": {"osm_id": 1444562768, "name": "宁波市交通运输综合行政执法队一大队", "category": "police", "poi_type": "sensitive", "tags": {"amenity": "police", "name": "宁波市交通运输综合行政执法队一大队"}}, "geometry": {"type": "Point", "coordinates": [121.45338, 29.9445508]}}, {"type": "Feature", "properties": {"osm_id": 1469541544, "name": "慈城镇中心卫生院新院", "category": "clinic", "poi_type": "sensitive", "tags": {"amenity": "clinic", "name": "慈城镇中心卫生院新院"}}, "geometry": {"type": "Point", "coordinates": [121.4360475, 29.9862281]}}, {"type": "Feature", "properties": {"osm_id": 4143911824, "name": "沙坪坝实验中学", "category": "school", "poi_type": "sensitive", "tags": {"amenity": "school", "name": "沙坪坝实验中学"}}, "geometry": {"type": "Point", "coordinates": [106.4669566, 29.5583344]}}, {"type": "Feature", "properties": {"osm_id": 4143911825, "name": "重庆市七十一中学", "category": "school", "poi_type": "sensitive", "tags": {"amenity": "school", "name": "重庆市七十一中学", "name:en": "Chongqing No.71 High School"}}, "geometry": {"type": "Point", "coordinates": [106.464951, 29.5587148]}}, {"type": "Feature", "properties": {"osm_id": 4362242372, "name": "回龙坝派出所", "category": "police", "poi_type": "sensitive", "tags": {"amenity": "police", "name": "回龙坝派出所"}}, "geometry": {"type": "Point", "coordinates": [106.3792893, 29.7075933]}}, {"type": "Feature", "properties": {"osm_id": 4362285002, "name": "回龙坝中心幼儿园", "category": "school", "poi_type": "sensitive", "tags": {"amenity": "school", "name": "回龙坝中心幼儿园"}}, "geometry": {"type": "Point", "coordinates": [106.3762062, 29.7050301]}}, {"type": "Feature", "properties": {"osm_id": 4553380700, "name": "经济管理大楼", "category": "college", "poi_type": "sensitive", "tags": {"amenity": "college", "name": "经济管理大楼"}}, "geometry": {"type": "Point", "coordinates": [106.3229781, 29.5930664]}}, {"type": "Feature", "properties": {"osm_id": 4564692335, "name": "好德医院", "category": "hospital", "poi_type": "sensitive", "tags": {"amenity": "hospital", "name": "好德医院"}}, "geometry": {"type": "Point", "coordinates": [106.3097153, 29.5821918]}}, {"type": "Feature", "properties": {"osm_id": 5614646859, "name": "井口医院", "category": "hospital", "poi_type": "sensitive", "tags": {"amenity": "hospital", "name": "井口医院"}}, "geometry": {"type": "Point", "coordinates": [106.441201, 29.6390877]}}, {"type": "Feature", "properties": {"osm_id": 5614646865, "name": "星光幼儿园", "category": "school", "poi_type": "sensitive", "tags": {"amenity": "school", "name": "星光幼儿园"}}, "geometry": {"type": "Point", "coordinates": [106.4421733, 29.6389607]}}, {"type": "Feature", "properties": {"osm_id": 7304223128, "name": "", "category": "school", "poi_type": "sensitive", "tags": {"amenity": "school"}}, "geometry": {"type": "Point", "coordinates": [106.4600274, 29.5733046]}}, {"type": "Feature", "properties": {"osm_id": 8987420649, "name": "小龙坎派出所", "category": "police", "poi_type": "sensitive", "tags": {"addr:street": "小龙坎正街", "amenity": "police", "name": "小龙坎派出所"}}, "geometry": {"type": "Point", "coordinates": [106.4613989, 29.555715]}}, {"type": "Feature", "properties": {"osm_id": 9751461373, "name": "重庆大学外国语学院", "category": "university", "poi_type": "sensitive", "tags": {"amenity": "university", "name": "重庆大学外国语学院"}}, "geometry": {"type": "Point", "coordinates": [106.2943682, 29.5986111]}}, {"type": "Feature", "properties": {"osm_id": 9751461374, "name": "重庆大学艺术学院", "category": "university", "poi_type": "sensitive", "tags": {"amenity": "university", "name": "重庆大学艺术学院"}}, "geometry": {"type": "Point", "coordinates": [106.293965, 29.5984736]}}, {"type": "Feature", "properties": {"osm_id": 9751461375, "name": "重庆大学辛辛那提大学联合学院", "category": "university", "poi_type": "sensitive", "tags": {"amenity": "university", "name": "重庆大学辛辛那提大学联合学院"}}, "geometry": {"type": "Point", "coordinates": [106.2932633, 29.5981874]}}, {"type": "Feature", "properties": {"osm_id": 9751461376, "name": "重庆大学大数据与软件学院", "category": "university", "poi_type": "sensitive", "tags": {"amenity": "university", "name": "重庆大学大数据与软件学院"}}, "geometry": {"type": "Point", "coordinates": [106.2928831, 29.5980542]}}, {"type": "Feature", "properties": {"osm_id": 9751461377, "name": "重庆大学新闻学院", "category": "university", "poi_type": "sensitive", "tags": {"amenity": "university", "name": "重庆大学新闻学院"}}, "geometry": {"type": "Point", "coordinates": [106.2924231, 29.597892]}}, {"type": "Feature", "properties": {"osm_id": 9751461378, "name": "重庆大学弘深学院", "category": "university", "poi_type": "sensitive", "tags": {"amenity": "university", "name": "重庆大学弘深学院"}}, "geometry": {"type": "Point", "coordinates": [106.2925409, 29.5979331]}}, {"type": "Feature", "properties": {"osm_id": 11502856884, "name": "重庆铁路运输技师学院", "category": "college", "poi_type": "sensitive", "tags": {"amenity": "college", "name": "重庆铁路运输技师学院"}}, "geometry": {"type": "Point", "coordinates": [106.4376394, 29.5093352]}}, {"type": "Feature", "properties": {"osm_id": 11573870849, "name": "马克思主义学院", "category": "college", "poi_type": "sensitive", "tags": {"amenity": "college", "name": "马克思主义学院"}}, "geometry": {"type": "Point", "coordinates": [106.2932075, 29.6143116]}}, {"type": "Feature", "properties": {"osm_id": 11573870850, "name": "数学科学学院", "category": "college", "poi_type": "sensitive", "tags": {"amenity": "college", "name": "数学科学学院"}}, "geometry": {"type": "Point", "coordinates": [106.2929643, 29.6143944]}}, {"type": "Feature", "properties": {"osm_id": 11573870862, "name": "地理与旅游学院", "category": "college", "poi_type": "sensitive", "tags": {"amenity": "college", "name": "地理与旅游学院"}}, "geometry": {"type": "Point", "coordinates": [106.2969566, 29.6130987]}}, {"type": "Feature", "properties": {"osm_id": 11637933500, "name": "历史与社会学院", "category": "college", "poi_type": "sensitive", "tags": {"amenity": "college", "name": "历史与社会学院"}}, "geometry": {"type": "Point", "coordinates": [106.3018818, 29.6136466]}}, {"type": "Feature", "properties": {"osm_id": 11727734924, "name": "重庆新闻学院", "category": "college", "poi_type": "sensitive", "tags": {"amenity": "college", "name": "重庆新闻学院"}}, "geometry": {"type": "Point", "coordinates": [106.297756, 29.6162425]}}, {"type": "Feature", "properties": {"osm_id": 11727734927, "name": "教育科学学院", "category": "college", "poi_type": "sensitive", "tags": {"amenity": "college", "name": "教育科学学院"}}, "geometry": {"type": "Point", "coordinates": [106.2960744, 29.6136988]}}, {"type": "Feature", "properties": {"osm_id": 11809637421, "name": "经济与管理学院", "category": "college", "poi_type": "sensitive", "tags": {"amenity": "college", "name": "经济与管理学院"}}, "geometry": {"type": "Point", "coordinates": [106.2935626, 29.6150361]}}, {"type": "Feature", "properties": {"osm_id": 11809637422, "name": "化学学院", "category": "college", "poi_type": "sensitive", "tags": {"amenity": "college", "name": "化学学院"}}, "geometry": {"type": "Point", "coordinates": [106.2939248, 29.614951]}}, {"type": "Feature", "properties": {"osm_id": 11972231021, "name": "名贝幼儿园", "category": "kindergarten", "poi_type": "sensitive", "tags": {"amenity": "kindergarten", "name": "名贝幼儿园"}}, "geometry": {"type": "Point", "coordinates": [106.2836926, 29.6096427]}}, {"type": "Feature", "properties": {"osm_id": 12147277900, "name": "陈家桥社区医院", "category": "hospital", "poi_type": "sensitive", "tags": {"amenity": "hospital", "name": "陈家桥社区医院"}}, "geometry": {"type": "Point", "coordinates": [106.3399838, 29.6267684]}}, {"type": "Feature", "properties": {"osm_id": 12466407382, "name": "重庆大学校医院(A区)", "category": "hospital", "poi_type": "sensitive", "tags": {"amenity": "hospital", "name": "重庆大学校医院(A区)"}}, "geometry": {"type": "Point", "coordinates": [106.468494, 29.5658525]}}, {"type": "Feature", "properties": {"osm_id": 13077554981, "name": "工科大楼", "category": "university", "poi_type": "sensitive", "tags": {"amenity": "university", "name": "工科大楼"}}, "geometry": {"type": "Point", "coordinates": [106.2933366, 29.5918784]}}, {"type": "Feature", "properties": {"osm_id": 239537195, "name": "重庆大学虎溪校区", "category": "university", "poi_type": "sensitive", "tags": {"amenity": "university", "name": "重庆大学虎溪校区", "name:en": "Chongqing University Huxi Campus"}}, "geometry": {"type": "Point", "coordinates": [106.2931622, 29.5946997]}}, {"type": "Feature", "properties": {"osm_id": 412480741, "name": "重庆大学A区", "category": "university", "poi_type": "sensitive", "tags": {"amenity": "university", "name": "重庆大学A区", "name:en": "Chongqing University - Campus A"}}, "geometry": {"type": "Point", "coordinates": [106.4654869, 29.5679671]}}, {"type": "Feature", "properties": {"osm_id": 412480744, "name": "重庆一中", "category": "school", "poi_type": "sensitive", "tags": {"amenity": "school", "name": "重庆一中", "name:en": "Chongqing No.1 Secondary School", "name:zh": "重庆一中"}}, "geometry": {"type": "Point", "coordinates": [106.4613091, 29.5625195]}}, {"type": "Feature", "properties": {"osm_id": 412480745, "name": "重庆南开中学", "category": "school", "poi_type": "sensitive", "tags": {"addr:street": "沙坪坝南街", "amenity": "school", "name": "重庆南开中学", "name:en": "Chongqing Nankai Secondary School", "name:zh": "重庆南开中学"}}, "geometry": {"type": "Point", "coordinates": [106.4557632, 29.5638037]}}, {"type": "Feature", "properties": {"osm_id": 412480747, "name": "重庆大学C区", "category": "university", "poi_type": "sensitive", "tags": {"amenity": "university", "name": "重庆大学C区", "name:en": "Chongqing University - Campus C"}}, "geometry": {"type": "Point", "coordinates": [106.4496395, 29.5628501]}}, {"type": "Feature", "properties": {"osm_id": 412515702, "name": "四川美术学院(虎溪校区)", "category": "university", "poi_type": "sensitive", "tags": {"addr:street": "大学城南路", "amenity": "university", "name": "四川美术学院(虎溪校区)", "name:en": "Sichuan Fine Arts Institute (Huxi Campus)", "name:zh": "四川美术学院(虎溪校区)"}}, "geometry": {"type": "Point", "coordinates": [106.2935381, 29.6056965]}}, {"type": "Feature", "properties": {"osm_id": 412515711, "name": "重庆师范大学大学城校区", "category": "university", "poi_type": "sensitive", "tags": {"amenity": "university", "name": "重庆师范大学大学城校区", "name:en": "Chongqing Normal University - Huxi Campus"}}, "geometry": {"type": "Point", "coordinates": [106.296017, 29.6148635]}}, {"type": "Feature", "properties": {"osm_id": 412515712, "name": "重庆医科大学缙云校区", "category": "university", "poi_type": "sensitive", "tags": {"amenity": "university", "name": "重庆医科大学缙云校区", "name:en": "Chongqing Medical University Jinyun Campus", "name:zh": "重庆医科大学缙云校区"}}, "geometry": {"type": "Point", "coordinates": [106.2987758, 29.625734]}}, {"type": "Feature", "properties": {"osm_id": 412515716, "name": "重庆医药高等专科学校", "category": "university", "poi_type": "sensitive", "tags": {"amenity": "university", "name": "重庆医药高等专科学校", "name:en": "Chongqing Medical and Pharmaceutical College"}}, "geometry": {"type": "Point", "coordinates": [106.3090992, 29.6293715]}}, {"type": "Feature", "properties": {"osm_id": 412515721, "name": "重庆警察学院-虎溪分校", "category": "university", "poi_type": "sensitive", "tags": {"amenity": "university", "name": "重庆警察学院-虎溪分校", "name:en": "Chongqing Police College - Huxi Campus"}}, "geometry": {"type": "Point", "coordinates": [106.3154884, 29.6280943]}}, {"type": "Feature", "properties": {"osm_id": 412515724, "name": "重庆电子科技职业大学", "category": "university", "poi_type": "sensitive", "tags": {"amenity": "university", "name": "重庆电子科技职业大学", "name:en": "Chongqing Polytechnic University of Electronic Technology", "name:zh": "重庆电子科技职业大学"}}, "geometry": {"type": "Point", "coordinates": [106.321697, 29.62362]}}, {"type": "Feature", "properties": {"osm_id": 412517676, "name": "重庆城市管理职业学院", "category": "university", "poi_type": "sensitive", "tags": {"amenity": "university", "name": "重庆城市管理职业学院", "name:en": "Chongqing City Management College", "name:zh": "重庆城市管理职业学院"}}, "geometry": {"type": "Point", "coordinates": [106.3001539, 29.5793284]}}, {"type": "Feature", "properties": {"osm_id": 412520627, "name": "重庆市运动技术学院", "category": "university", "poi_type": "sensitive", "tags": {"amenity": "university", "name": "重庆市运动技术学院", "name:en": "Chongqing institute of sports technology"}}, "geometry": {"type": "Point", "coordinates": [106.3025215, 29.6337637]}}, {"type": "Feature", "properties": {"osm_id": 412522320, "name": "重庆师范大学附属中学", "category": "school", "poi_type": "sensitive", "tags": {"amenity": "school", "name": "重庆师范大学附属中学", "name:en": "Chongqing No.8 Middle School at University Town", "name:zh": "重庆师范大学附属中学"}}, "geometry": {"type": "Point", "coordinates": [106.3094688, 29.6147122]}}, {"type": "Feature", "properties": {"osm_id": 412525060, "name": "重庆大学城人民小学", "category": "school", "poi_type": "sensitive", "tags": {"amenity": "school", "name": "重庆大学城人民小学", "name:en": "Renmin Primary School at Chongqing University Town"}}, "geometry": {"type": "Point", "coordinates": [106.3103386, 29.611076]}}, {"type": "Feature", "properties": {"osm_id": 413059650, "name": "树人小学", "category": "school", "poi_type": "sensitive", "tags": {"amenity": "school", "name": "树人小学"}}, "geometry": {"type": "Point", "coordinates": [106.4617101, 29.5594852]}}, {"type": "Feature", "properties": {"osm_id": 413059651, "name": "沙坪坝人民医院", "category": "hospital", "poi_type": "sensitive", "tags": {"addr:street": "小龙坎新街", "amenity": "hospital", "name": "沙坪坝人民医院", "name:en": "Shapingba People's Hospital"}}, "geometry": {"type": "Point", "coordinates": [106.462027, 29.5585923]}}, {"type": "Feature", "properties": {"osm_id": 413059661, "name": "西南政法大学", "category": "university", "poi_type": "sensitive", "tags": {"amenity": "university", "name": "西南政法大学", "name:en": "Southwest University of Political Science & Law"}}, "geometry": {"type": "Point", "coordinates": [106.4383357, 29.5701715]}}, {"type": "Feature", "properties": {"osm_id": 413059662, "name": "四川外国语大学", "category": "university", "poi_type": "sensitive", "tags": {"amenity": "university", "name": "四川外国语大学", "name:en": "Sichuan International Studies University"}}, "geometry": {"type": "Point", "coordinates": [106.4326984, 29.571441]}}, {"type": "Feature", "properties": {"osm_id": 438483340, "name": "沙坪坝区回龙坝镇初级中学", "category": "school", "poi_type": "sensitive", "tags": {"amenity": "school", "name": "沙坪坝区回龙坝镇初级中学"}}, "geometry": {"type": "Point", "coordinates": [106.3735255, 29.6995225]}}, {"type": "Feature", "properties": {"osm_id": 438483937, "name": "沙坪坝区回龙坝小学", "category": "school", "poi_type": "sensitive", "tags": {"amenity": "school", "name": "沙坪坝区回龙坝小学"}}, "geometry": {"type": "Point", "coordinates": [106.3753859, 29.7055238]}}, {"type": "Feature", "properties": {"osm_id": 438484693, "name": "回龙坝镇卫生院（回龙坝社区卫生服务中心）", "category": "hospital", "poi_type": "sensitive", "tags": {"amenity": "hospital", "name": "回龙坝镇卫生院（回龙坝社区卫生服务中心）"}}, "geometry": {"type": "Point", "coordinates": [106.376197, 29.7069051]}}, {"type": "Feature", "properties": {"osm_id": 438485524, "name": "三桥小学", "category": "school", "poi_type": "sensitive", "tags": {"amenity": "school", "name": "三桥小学"}}, "geometry": {"type": "Point", "coordinates": [106.3822286, 29.7253404]}}, {"type": "Feature", "properties": {"osm_id": 438487843, "name": "青木关中心医院（西部新城急救中心）", "category": "hospital", "poi_type": "sensitive", "tags": {"amenity": "hospital", "name": "青木关中心医院（西部新城急救中心）"}}, "geometry": {"type": "Point", "coordinates": [106.3098799, 29.6777504]}}, {"type": "Feature", "properties": {"osm_id": 460879653, "name": "康居西城小学", "category": "school", "poi_type": "sensitive", "tags": {"amenity": "school", "name": "康居西城小学"}}, "geometry": {"type": "Point", "coordinates": [106.3083752, 29.5778139]}}, {"type": "Feature", "properties": {"osm_id": 462808709, "name": "虎溪派出所", "category": "police", "poi_type": "sensitive", "tags": {"amenity": "police", "name": "虎溪派出所"}}, "geometry": {"type": "Point", "coordinates": [106.3311771, 29.6020577]}}, {"type": "Feature", "properties": {"osm_id": 464340044, "name": "重庆大学城第二小学校", "category": "school", "poi_type": "sensitive", "tags": {"amenity": "school", "name": "重庆大学城第二小学校"}}, "geometry": {"type": "Point", "coordinates": [106.2983927, 29.5626502]}}, {"type": "Feature", "properties": {"osm_id": 464340068, "name": "重庆大学城第一中学", "category": "school", "poi_type": "sensitive", "tags": {"amenity": "school", "name": "重庆大学城第一中学"}}, "geometry": {"type": "Point", "coordinates": [106.3074764, 29.5940296]}}, {"type": "Feature", "properties": {"osm_id": 466927973, "name": "曾家中学", "category": "school", "poi_type": "sensitive", "tags": {"amenity": "school", "name": "曾家中学"}}, "geometry": {"type": "Point", "coordinates": [106.2967283, 29.5558633]}}, {"type": "Feature", "properties": {"osm_id": 466930652, "name": "曾家医院", "category": "hospital", "poi_type": "sensitive", "tags": {"amenity": "hospital", "name": "曾家医院"}}, "geometry": {"type": "Point", "coordinates": [106.2992432, 29.5526716]}}, {"type": "Feature", "properties": {"osm_id": 471840322, "name": "中国人民解放军联勤保障部队工程大学", "category": "college", "poi_type": "sensitive", "tags": {"addr:street": "大学城北一路", "amenity": "college", "name": "中国人民解放军联勤保障部队工程大学"}}, "geometry": {"type": "Point", "coordinates": [106.3174754, 29.6336877]}}, {"type": "Feature", "properties": {"osm_id": 479993687, "name": "沙坪坝区新丝路中学校", "category": "school", "poi_type": "sensitive", "tags": {"amenity": "school", "name": "沙坪坝区新丝路中学校", "name:zh": "沙坪坝区新丝路中学校"}}, "geometry": {"type": "Point", "coordinates": [106.3697796, 29.6370247]}}, {"type": "Feature", "properties": {"osm_id": 538381219, "name": "重庆科技大学", "category": "university", "poi_type": "sensitive", "tags": {"amenity": "university", "name": "重庆科技大学", "name:en": "Chongqing University of Science & Technology", "name:zh": "重庆科技大学"}}, "geometry": {"type": "Point", "coordinates": [106.3205839, 29.5955797]}}, {"type": "Feature", "properties": {"osm_id": 553175168, "name": "陆军军医大学第二附属医院（新桥医院）", "category": "hospital", "poi_type": "sensitive", "tags": {"addr:street": "新桥正街", "amenity": "hospital", "name": "陆军军医大学第二附属医院（新桥医院）"}}, "geometry": {"type": "Point", "coordinates": [106.4343019, 29.5222782]}}, {"type": "Feature", "properties": {"osm_id": 585539550, "name": "磁器口小学", "category": "school", "poi_type": "sensitive", "tags": {"amenity": "school", "name": "磁器口小学"}}, "geometry": {"type": "Point", "coordinates": [106.4470213, 29.583698]}}, {"type": "Feature", "properties": {"osm_id": 586637091, "name": "建工馆", "category": "college", "poi_type": "sensitive", "tags": {"amenity": "college", "name": "建工馆"}}, "geometry": {"type": "Point", "coordinates": [106.4570443, 29.5700557]}}, {"type": "Feature", "properties": {"osm_id": 586637093, "name": "建筑与房地产管理学院", "category": "college", "poi_type": "sensitive", "tags": {"amenity": "college", "name": "建筑与房地产管理学院"}}, "geometry": {"type": "Point", "coordinates": [106.456594, 29.5683251]}}, {"type": "Feature", "properties": {"osm_id": 588862478, "name": "重庆南开小学", "category": "school", "poi_type": "sensitive", "tags": {"amenity": "school", "name": "重庆南开小学", "name:en": "Chongqing Nankai Primary School"}}, "geometry": {"type": "Point", "coordinates": [106.4519911, 29.5660334]}}, {"type": "Feature", "properties": {"osm_id": 639999828, "name": "美丽阳光小学", "category": "college", "poi_type": "sensitive", "tags": {"amenity": "college", "name": "美丽阳光小学"}}, "geometry": {"type": "Point", "coordinates": [106.4459145, 29.6415719]}}, {"type": "Feature", "properties": {"osm_id": 719922917, "name": "重庆第一实验中学（重庆一中大学城校区）", "category": "school", "poi_type": "sensitive", "tags": {"amenity": "school", "name": "重庆第一实验中学（重庆一中大学城校区）"}}, "geometry": {"type": "Point", "coordinates": [106.2899194, 29.5848329]}}, {"type": "Feature", "properties": {"osm_id": 734137027, "name": "重庆师范大学附属实验小学", "category": "school", "poi_type": "sensitive", "tags": {"addr:street": "大学城西路", "amenity": "school", "name": "重庆师范大学附属实验小学"}}, "geometry": {"type": "Point", "coordinates": [106.2899326, 29.6124505]}}, {"type": "Feature", "properties": {"osm_id": 773911428, "name": "富力南开小学", "category": "school", "poi_type": "sensitive", "tags": {"amenity": "school", "name": "富力南开小学"}}, "geometry": {"type": "Point", "coordinates": [106.3214649, 29.6019722]}}, {"type": "Feature", "properties": {"osm_id": 782214153, "name": "重庆七中", "category": "school", "poi_type": "sensitive", "tags": {"amenity": "school", "name": "重庆七中", "name:en": "Chongqing No.7 Middle School"}}, "geometry": {"type": "Point", "coordinates": [106.4602789, 29.5737852]}}, {"type": "Feature", "properties": {"osm_id": 802081114, "name": "长水第一中学重庆校区", "category": "school", "poi_type": "sensitive", "tags": {"amenity": "school", "name": "长水第一中学重庆校区"}}, "geometry": {"type": "Point", "coordinates": [106.2931961, 29.5856665]}}, {"type": "Feature", "properties": {"osm_id": 802081115, "name": "树人思贤小学", "category": "school", "poi_type": "sensitive", "tags": {"amenity": "school", "name": "树人思贤小学"}}, "geometry": {"type": "Point", "coordinates": [106.2931992, 29.5844157]}}, {"type": "Feature", "properties": {"osm_id": 806698527, "name": "重庆市第四十六中", "category": "school", "poi_type": "sensitive", "tags": {"amenity": "school", "name": "重庆市第四十六中"}}, "geometry": {"type": "Point", "coordinates": [106.4441604, 29.6384177]}}, {"type": "Feature", "properties": {"osm_id": 814491982, "name": "南开景阳小学", "category": "school", "poi_type": "sensitive", "tags": {"amenity": "school", "name": "南开景阳小学"}}, "geometry": {"type": "Point", "coordinates": [106.3138514, 29.598143]}}, {"type": "Feature", "properties": {"osm_id": 814491984, "name": "大学城第一中学初中部", "category": "school", "poi_type": "sensitive", "tags": {"amenity": "school", "name": "大学城第一中学初中部"}}, "geometry": {"type": "Point", "coordinates": [106.3128157, 29.5912785]}}, {"type": "Feature", "properties": {"osm_id": 827004722, "name": "重庆商务职业学院", "category": "university", "poi_type": "sensitive", "tags": {"amenity": "university", "name": "重庆商务职业学院"}}, "geometry": {"type": "Point", "coordinates": [106.304402, 29.6385682]}}, {"type": "Feature", "properties": {"osm_id": 827004725, "name": "树人小学", "category": "school", "poi_type": "sensitive", "tags": {"amenity": "school", "name": "树人小学"}}, "geometry": {"type": "Point", "coordinates": [106.2824198, 29.6027877]}}, {"type": "Feature", "properties": {"osm_id": 829736884, "name": "重庆市名校联合中学", "category": "school", "poi_type": "sensitive", "tags": {"amenity": "school", "name": "重庆市名校联合中学"}}, "geometry": {"type": "Point", "coordinates": [106.4593761, 29.5627722]}}, {"type": "Feature", "properties": {"osm_id": 863649978, "name": "重庆八中", "category": "school", "poi_type": "sensitive", "tags": {"addr:street": "小龙坎正街", "amenity": "school", "name": "重庆八中", "name:en": "Chongqing No.8 Middle School", "name:zh": "重庆八中"}}, "geometry": {"type": "Point", "coordinates": [106.461579, 29.5565566]}}, {"type": "Feature", "properties": {"osm_id": 871377814, "name": "重庆科学城高桥学校", "category": "school", "poi_type": "sensitive", "tags": {"amenity": "school", "name": "重庆科学城高桥学校"}}, "geometry": {"type": "Point", "coordinates": [106.2811069, 29.5876102]}}, {"type": "Feature", "properties": {"osm_id": 881287684, "name": "重庆养老人才培训基地", "category": "college", "poi_type": "sensitive", "tags": {"amenity": "college", "name": "重庆养老人才培训基地"}}, "geometry": {"type": "Point", "coordinates": [106.2956912, 29.5810099]}}, {"type": "Feature", "properties": {"osm_id": 941849494, "name": "重庆大学城沙坪坝小学校", "category": "school", "poi_type": "sensitive", "tags": {"amenity": "school", "name": "重庆大学城沙坪坝小学校"}}, "geometry": {"type": "Point", "coordinates": [106.304365, 29.5898844]}}, {"type": "Feature", "properties": {"osm_id": 979796698, "name": "校医院", "category": "hospital", "poi_type": "sensitive", "tags": {"amenity": "hospital", "name": "校医院"}}, "geometry": {"type": "Point", "coordinates": [106.4585804, 29.5705164]}}, {"type": "Feature", "properties": {"osm_id": 1011391115, "name": "重庆科学城实验一小永祥小学校", "category": "school", "poi_type": "sensitive", "tags": {"amenity": "school", "name": "重庆科学城实验一小永祥小学校"}}, "geometry": {"type": "Point", "coordinates": [106.3624676, 29.615407]}}, {"type": "Feature", "properties": {"osm_id": 1011726679, "name": "重庆七中实验中学校", "category": "school", "poi_type": "sensitive", "tags": {"amenity": "school", "name": "重庆七中实验中学校"}}, "geometry": {"type": "Point", "coordinates": [106.360186, 29.6416313]}}, {"type": "Feature", "properties": {"osm_id": 1023294351, "name": "重庆巴蜀科学城中学校", "category": "school", "poi_type": "sensitive", "tags": {"amenity": "school", "name": "重庆巴蜀科学城中学校"}}, "geometry": {"type": "Point", "coordinates": [106.2817157, 29.5983297]}}, {"type": "Feature", "properties": {"osm_id": 1023298982, "name": "西南医院", "category": "hospital", "poi_type": "sensitive", "tags": {"amenity": "hospital", "name": "西南医院", "name:en": "Southwest Hospital", "name:zh": "西南医院"}}, "geometry": {"type": "Point", "coordinates": [106.4484506, 29.5392499]}}, {"type": "Feature", "properties": {"osm_id": 1072038329, "name": "重庆市沙坪坝区人民医院（井双院区）", "category": "hospital", "poi_type": "sensitive", "tags": {"amenity": "hospital", "name": "重庆市沙坪坝区人民医院（井双院区）"}}, "geometry": {"type": "Point", "coordinates": [106.4365786, 29.63282]}}, {"type": "Feature", "properties": {"osm_id": 1079804393, "name": "大学城第四中学", "category": "school", "poi_type": "sensitive", "tags": {"amenity": "school", "name": "大学城第四中学"}}, "geometry": {"type": "Point", "coordinates": [106.299221, 29.5688432]}}, {"type": "Feature", "properties": {"osm_id": 1084956001, "name": "重庆市沙坪坝区学府悦园第二小学校", "category": "school", "poi_type": "sensitive", "tags": {"amenity": "school", "name": "重庆市沙坪坝区学府悦园第二小学校"}}, "geometry": {"type": "Point", "coordinates": [106.3293164, 29.6313798]}}, {"type": "Feature", "properties": {"osm_id": 1084956244, "name": "重庆大学城第三中学校", "category": "school", "poi_type": "sensitive", "tags": {"amenity": "school", "name": "重庆大学城第三中学校"}}, "geometry": {"type": "Point", "coordinates": [106.3403842, 29.6182489]}}, {"type": "Feature", "properties": {"osm_id": 1086625184, "name": "家康医院", "category": "hospital", "poi_type": "sensitive", "tags": {"amenity": "hospital", "name": "家康医院"}}, "geometry": {"type": "Point", "coordinates": [106.3331942, 29.6281168]}}, {"type": "Feature", "properties": {"osm_id": 1086625185, "name": "学府悦园第一小学校", "category": "school", "poi_type": "sensitive", "tags": {"amenity": "school", "name": "学府悦园第一小学校"}}, "geometry": {"type": "Point", "coordinates": [106.3320103, 29.6278374]}}, {"type": "Feature", "properties": {"osm_id": 1086625186, "name": "学府悦园第二幼儿园", "category": "kindergarten", "poi_type": "sensitive", "tags": {"amenity": "kindergarten", "name": "学府悦园第二幼儿园"}}, "geometry": {"type": "Point", "coordinates": [106.3314709, 29.6285556]}}, {"type": "Feature", "properties": {"osm_id": 1087380085, "name": "沙坪坝区树人博文小学", "category": "school", "poi_type": "sensitive", "tags": {"amenity": "school", "name": "沙坪坝区树人博文小学"}}, "geometry": {"type": "Point", "coordinates": [106.3469997, 29.6389462]}}, {"type": "Feature", "properties": {"osm_id": 1087380086, "name": "曙光百草园幼儿园", "category": "kindergarten", "poi_type": "sensitive", "tags": {"amenity": "kindergarten", "name": "曙光百草园幼儿园"}}, "geometry": {"type": "Point", "coordinates": [106.345613, 29.6383348]}}, {"type": "Feature", "properties": {"osm_id": 1096934695, "name": "沙坪坝小学图新小学校", "category": "school", "poi_type": "sensitive", "tags": {"amenity": "school", "name": "沙坪坝小学图新小学校"}}, "geometry": {"type": "Point", "coordinates": [106.3632228, 29.6573655]}}, {"type": "Feature", "properties": {"osm_id": 1111813341, "name": "陆军军医大学（大学城校区）", "category": "university", "poi_type": "sensitive", "tags": {"amenity": "university", "name": "陆军军医大学（大学城校区）"}}, "geometry": {"type": "Point", "coordinates": [106.3199207, 29.5979526]}}, {"type": "Feature", "properties": {"osm_id": 1113103724, "name": "永佳幼儿园", "category": "kindergarten", "poi_type": "sensitive", "tags": {"amenity": "kindergarten", "name": "永佳幼儿园"}}, "geometry": {"type": "Point", "coordinates": [106.3472897, 29.6265141]}}, {"type": "Feature", "properties": {"osm_id": 1113103744, "name": "杰夫天宸幼儿园", "category": "kindergarten", "poi_type": "sensitive", "tags": {"amenity": "kindergarten", "name": "杰夫天宸幼儿园"}}, "geometry": {"type": "Point", "coordinates": [106.3585313, 29.6211991]}}, {"type": "Feature", "properties": {"osm_id": 1135136230, "name": "重庆科学城明远未来小学校", "category": "school", "poi_type": "sensitive", "tags": {"amenity": "school", "name": "重庆科学城明远未来小学校"}}, "geometry": {"type": "Point", "coordinates": [106.347797, 29.6156018]}}, {"type": "Feature", "properties": {"osm_id": 1135136232, "name": "重庆第二师范学院附属第二幼儿园", "category": "kindergarten", "poi_type": "sensitive", "tags": {"amenity": "kindergarten", "name": "重庆第二师范学院附属第二幼儿园"}}, "geometry": {"type": "Point", "coordinates": [106.3495934, 29.6168278]}}, {"type": "Feature", "properties": {"osm_id": 1138269897, "name": "树人崇文小学", "category": "school", "poi_type": "sensitive", "tags": {"amenity": "school", "name": "树人崇文小学"}}, "geometry": {"type": "Point", "coordinates": [106.3605362, 29.6444401]}}, {"type": "Feature", "properties": {"osm_id": 1138774882, "name": "西永铭豪幼儿园", "category": "kindergarten", "poi_type": "sensitive", "tags": {"amenity": "kindergarten", "name": "西永铭豪幼儿园"}}, "geometry": {"type": "Point", "coordinates": [106.3696678, 29.5738237]}}, {"type": "Feature", "properties": {"osm_id": 1138774912, "name": "高新区西永第一小学", "category": "school", "poi_type": "sensitive", "tags": {"amenity": "school", "name": "高新区西永第一小学"}}, "geometry": {"type": "Point", "coordinates": [106.3678881, 29.5773824]}}, {"type": "Feature", "properties": {"osm_id": 1138774914, "name": "西永一小幼儿园", "category": "kindergarten", "poi_type": "sensitive", "tags": {"amenity": "kindergarten", "name": "西永一小幼儿园"}}, "geometry": {"type": "Point", "coordinates": [106.3682066, 29.5782884]}}, {"type": "Feature", "properties": {"osm_id": 1143883367, "name": "重庆科学城南开小学", "category": "school", "poi_type": "sensitive", "tags": {"amenity": "school", "name": "重庆科学城南开小学"}}, "geometry": {"type": "Point", "coordinates": [106.3110122, 29.6021576]}}, {"type": "Feature", "properties": {"osm_id": 1145041515, "name": "重庆建筑科技职业学院", "category": "college", "poi_type": "sensitive", "tags": {"amenity": "college", "name": "重庆建筑科技职业学院"}}, "geometry": {"type": "Point", "coordinates": [106.3242895, 29.6207862]}}, {"type": "Feature", "properties": {"osm_id": 1155981333, "name": "巴蜀实验蒙世幼儿园", "category": "kindergarten", "poi_type": "sensitive", "tags": {"amenity": "kindergarten", "name": "巴蜀实验蒙世幼儿园"}}, "geometry": {"type": "Point", "coordinates": [106.3484897, 29.644962]}}, {"type": "Feature", "properties": {"osm_id": 1171515822, "name": "沙坪坝区五云实验学校", "category": "school", "poi_type": "sensitive", "tags": {"amenity": "school", "name": "沙坪坝区五云实验学校"}}, "geometry": {"type": "Point", "coordinates": [106.3674712, 29.6836706]}}, {"type": "Feature", "properties": {"osm_id": 1199759504, "name": "大学城树人第二小学校", "category": "school", "poi_type": "sensitive", "tags": {"amenity": "school", "name": "大学城树人第二小学校"}}, "geometry": {"type": "Point", "coordinates": [106.2821024, 29.6003969]}}, {"type": "Feature", "properties": {"osm_id": 1203515674, "name": "沙坪坝区沙滨学校", "category": "school", "poi_type": "sensitive", "tags": {"amenity": "school", "name": "沙坪坝区沙滨学校", "name:en": "Shapingba District Shabin School", "name:zh": "沙坪坝区沙滨学校"}}, "geometry": {"type": "Point", "coordinates": [106.4422552, 29.5959835]}}, {"type": "Feature", "properties": {"osm_id": 1215085325, "name": "重庆科学城明远未来中学校", "category": "school", "poi_type": "sensitive", "tags": {"amenity": "school", "name": "重庆科学城明远未来中学校"}}, "geometry": {"type": "Point", "coordinates": [106.3623654, 29.6229151]}}, {"type": "Feature", "properties": {"osm_id": 1224944908, "name": "重庆海吉亚肿瘤医院", "category": "hospital", "poi_type": "sensitive", "tags": {"amenity": "hospital", "name": "重庆海吉亚肿瘤医院"}}, "geometry": {"type": "Point", "coordinates": [106.2960395, 29.5885389]}}, {"type": "Feature", "properties": {"osm_id": 1239671461, "name": "陆军军医大学", "category": "university", "poi_type": "sensitive", "tags": {"amenity": "university", "name": "陆军军医大学"}}, "geometry": {"type": "Point", "coordinates": [106.4484132, 29.5367963]}}, {"type": "Feature", "properties": {"osm_id": 1243735225, "name": "重庆医科大学附属大学城医院", "category": "hospital", "poi_type": "sensitive", "tags": {"amenity": "hospital", "name": "重庆医科大学附属大学城医院"}}, "geometry": {"type": "Point", "coordinates": [106.3027018, 29.6212236]}}, {"type": "Feature", "properties": {"osm_id": 1266179890, "name": "重庆西藏中学", "category": "school", "poi_type": "sensitive", "tags": {"amenity": "school", "name": "重庆西藏中学"}}, "geometry": {"type": "Point", "coordinates": [106.418219, 29.5734953]}}, {"type": "Feature", "properties": {"osm_id": 1266179895, "name": "歌乐山小学", "category": "school", "poi_type": "sensitive", "tags": {"amenity": "school", "name": "歌乐山小学"}}, "geometry": {"type": "Point", "coordinates": [106.4154949, 29.5707605]}}, {"type": "Feature", "properties": {"osm_id": 1270920564, "name": "科学城中科启智幼儿园", "category": "kindergarten", "poi_type": "sensitive", "tags": {"amenity": "kindergarten", "name": "科学城中科启智幼儿园"}}, "geometry": {"type": "Point", "coordinates": [106.2840344, 29.6035352]}}, {"type": "Feature", "properties": {"osm_id": 1279907044, "name": "青木关中学", "category": "school", "poi_type": "sensitive", "tags": {"amenity": "school", "name": "青木关中学"}}, "geometry": {"type": "Point", "coordinates": [106.2963607, 29.6755183]}}, {"type": "Feature", "properties": {"osm_id": 1282914801, "name": "青木关第一幼儿园", "category": "kindergarten", "poi_type": "sensitive", "tags": {"amenity": "kindergarten", "name": "青木关第一幼儿园"}}, "geometry": {"type": "Point", "coordinates": [106.3011169, 29.6778387]}}, {"type": "Feature", "properties": {"osm_id": 1305963084, "name": "树人沙磁小学", "category": "school", "poi_type": "sensitive", "tags": {"amenity": "school", "name": "树人沙磁小学"}}, "geometry": {"type": "Point", "coordinates": [106.454787, 29.5789016]}}, {"type": "Feature", "properties": {"osm_id": 1307032950, "name": "陈家桥派出所", "category": "police", "poi_type": "sensitive", "tags": {"amenity": "police", "building": "yes", "name": "陈家桥派出所"}}, "geometry": {"type": "Point", "coordinates": [106.3349552, 29.6214811]}}, {"type": "Feature", "properties": {"osm_id": 1312375936, "name": "大学城一小", "category": "school", "poi_type": "sensitive", "tags": {"amenity": "school", "name": "大学城一小"}}, "geometry": {"type": "Point", "coordinates": [106.3316158, 29.625934]}}, {"type": "Feature", "properties": {"osm_id": 1314367855, "name": "仁义驾校凤鸣山总校", "category": "driving_school", "poi_type": "sensitive", "tags": {"amenity": "driving_school", "name": "仁义驾校凤鸣山总校"}}, "geometry": {"type": "Point", "coordinates": [106.44003, 29.521531]}}, {"type": "Feature", "properties": {"osm_id": 1319606968, "name": "重庆大学附属肿瘤医院", "category": "hospital", "poi_type": "sensitive", "tags": {"amenity": "hospital", "name": "重庆大学附属肿瘤医院"}}, "geometry": {"type": "Point", "coordinates": [106.4716107, 29.5632188]}}, {"type": "Feature", "properties": {"osm_id": 1323610387, "name": "名校联合外语小学", "category": "school", "poi_type": "sensitive", "tags": {"amenity": "school", "name": "名校联合外语小学"}}, "geometry": {"type": "Point", "coordinates": [106.456696, 29.5311064]}}, {"type": "Feature", "properties": {"osm_id": 1335993294, "name": "沙坪坝区嘉陵幼儿园", "category": "kindergarten", "poi_type": "sensitive", "tags": {"amenity": "kindergarten", "name": "沙坪坝区嘉陵幼儿园"}}, "geometry": {"type": "Point", "coordinates": [106.4471884, 29.6130491]}}, {"type": "Feature", "properties": {"osm_id": 1335993297, "name": "嘉陵小学", "category": "school", "poi_type": "sensitive", "tags": {"amenity": "school", "name": "嘉陵小学"}}, "geometry": {"type": "Point", "coordinates": [106.4494224, 29.6133401]}}, {"type": "Feature", "properties": {"osm_id": 1356697024, "name": "沙坪坝区凤凰实验学校", "category": "school", "poi_type": "sensitive", "tags": {"amenity": "school", "name": "沙坪坝区凤凰实验学校"}}, "geometry": {"type": "Point", "coordinates": [106.3134528, 29.6859348]}}, {"type": "Feature", "properties": {"osm_id": 1356697025, "name": "凤凰实验幼儿园", "category": "kindergarten", "poi_type": "sensitive", "tags": {"amenity": "kindergarten", "name": "凤凰实验幼儿园"}}, "geometry": {"type": "Point", "coordinates": [106.3141654, 29.687296]}}, {"type": "Feature", "properties": {"osm_id": 1356697030, "name": "青木关镇小学校", "category": "school", "poi_type": "sensitive", "tags": {"amenity": "school", "name": "青木关镇小学校"}}, "geometry": {"type": "Point", "coordinates": [106.3099073, 29.6743757]}}, {"type": "Feature", "properties": {"osm_id": 1390068356, "name": "重庆市公安局沙坪坝分局", "category": "police", "poi_type": "sensitive", "tags": {"amenity": "police", "name": "重庆市公安局沙坪坝分局", "name:zh": "重庆市公安局沙坪坝分局"}}, "geometry": {"type": "Point", "coordinates": [106.4522917, 29.5442812]}}, {"type": "Feature", "properties": {"osm_id": 1396230694, "name": "重庆市公共卫生医疗救治中心", "category": "hospital", "poi_type": "sensitive", "tags": {"amenity": "hospital", "name": "重庆市公共卫生医疗救治中心"}}, "geometry": {"type": "Point", "coordinates": [106.4199104, 29.5767748]}}, {"type": "Feature", "properties": {"osm_id": 1463604862, "name": "", "category": "kindergarten", "poi_type": "sensitive", "tags": {"amenity": "kindergarten"}}, "geometry": {"type": "Point", "coordinates": [106.3465726, 29.6094287]}}, {"type": "Feature", "properties": {"osm_id": 1465785267, "name": "重庆市公共卫生医疗救治中心平顶山院区", "category": "hospital", "poi_type": "sensitive", "tags": {"amenity": "hospital", "name": "重庆市公共卫生医疗救治中心平顶山院区", "name:zh": "重庆市公共卫生医疗救治中心平顶山院区"}}, "geometry": {"type": "Point", "coordinates": [106.4670579, 29.5533503]}}, {"type": "Feature", "properties": {"osm_id": 1465785273, "name": "沙坪坝区第一实验小学校", "category": "school", "poi_type": "sensitive", "tags": {"amenity": "school", "name": "沙坪坝区第一实验小学校", "name:en": "Shapingba District No.1 Experimental Primary School", "name:zh": "沙坪坝区第一实验小学校"}}, "geometry": {"type": "Point", "coordinates": [106.4628938, 29.5530481]}}, {"type": "Feature", "properties": {"osm_id": 1465788583, "name": "重庆市第七中学校（沙磁校区）", "category": "school", "poi_type": "sensitive", "tags": {"amenity": "school", "name": "重庆市第七中学校（沙磁校区）", "name:en": "Chongqing No.7 Middle School (Shaci Campus)", "name:zh": "重庆市第七中学校（沙磁校区）"}}, "geometry": {"type": "Point", "coordinates": [106.4472676, 29.5787964]}}, {"type": "Feature", "properties": {"osm_id": 1467282273, "name": "融汇沙坪坝小学", "category": "school", "poi_type": "sensitive", "tags": {"amenity": "school", "name": "融汇沙坪坝小学", "name:en": "Ronghui-Shapingba Primary School", "name:zh": "融汇沙坪坝小学"}}, "geometry": {"type": "Point", "coordinates": [106.4367902, 29.5470958]}}, {"type": "Feature", "properties": {"osm_id": 1467285791, "name": "重庆市凤鸣山中学", "category": "school", "poi_type": "sensitive", "tags": {"amenity": "school", "name": "重庆市凤鸣山中学", "name:en": "Chongqing Fengmingshan Middle School", "name:zh": "重庆市凤鸣山中学"}}, "geometry": {"type": "Point", "coordinates": [106.4449091, 29.5314962]}}], "metadata": {"source": "OpenStreetMap via Overpass API", "total_pois": 462, "poi_type": "sensitive"}}