{"version": 0.6, "generator": "Overpass API 0.7.62.10 2d4cfc48", "osm3s": {"timestamp_osm_base": "2026-02-25T17:27:16Z", "copyright": "The data included in this document is from www.openstreetmap.org. The data is made available under ODbL."}, "elements": [{"type": "node", "id": 1727325747, "lat": 29.5342445, "lon": 106.6017569, "tags": {"1st teaching": "true", "alt_name": "自动化学院总基地", "amenity": "school", "name": "一教(First Teaching Building)"}}, {"type": "node", "id": 1727325766, "lat": 29.5352202, "lon": 106.6011716, "tags": {"amenity": "school", "name": "七教(Seventh Teaching Building)"}}, {"type": "node", "id": 1727325767, "lat": 29.5338337, "lon": 106.6010059, "tags": {"alt_name": "大哥大楼", "amenity": "school", "name": "信科大楼(Information Technology Building)"}}, {"type": "node", "id": 2828708472, "lat": 29.5419098, "lon": 106.5146914, "tags": {"addr:city": "Chungking", "addr:housenumber": "93号", "addr:postcode": "400042", "addr:street": "长江二路", "amenity": "police", "name": "大坪派出所"}}, {"type": "node", "id": 2835412161, "lat": 29.5099172, "lon": 106.5093242, "tags": {"amenity": "hospital", "healthcare": "hospital", "name": "九龙坡第一人民医院"}}, {"type": "node", "id": 3179109946, "lat": 29.554115, "lon": 106.5727625, "tags": {"amenity": "school", "name": "重庆复旦高中", "name:en": "Fudan High School"}}, {"type": "node", "id": 4139951946, "lat": 29.5610226, "lon": 106.5690493, "tags": {"amenity": "school", "name": "重庆二十九中学", "name:en": "Chongqing No.29 High School"}}, {"type": "node", "id": 4139951947, "lat": 29.5627506, "lon": 106.5698495, "tags": {"amenity": "hospital", "healthcare": "hospital", "name": "重庆医科大学附属第二医院"}}, {"type": "node", "id": 4139952095, "lat": 29.5554739, "lon": 106.5729069, "tags": {"amenity": "hospital", "healthcare": "hospital", "name": "重庆骨科医院", "name:en": "Chongqing Orthopaedics Hospital"}}, {"type": "node", "id": 4139987104, "lat": 29.5243072, "lon": 106.5635368, "tags": {"amenity": "hospital", "healthcare": "hospital", "name": "康平医院", "name:en": "Kangping Hospital", "name:zh": "康平医院"}}, {"type": "node", "id": 4140409990, "lat": 29.5131117, "lon": 106.5681232, "tags": {"amenity": "school", "name": "江南小学", "name:en": "Jiangnan Primary School"}}, {"type": "node", "id": 4140850960, "lat": 29.5385617, "lon": 106.5706094, "tags": {"amenity": "school", "name": "玛瑙学校"}}, {"type": "node", "id": 4140851198, "lat": 29.4719364, "lon": 106.5444741, "tags": {"amenity": "hospital", "healthcare": "hospital", "name": "重庆市第七人民医院", "name:en": "Chongqing No.7 Hospital"}}, {"type": "node", "id": 4143800235, "lat": 29.5253807, "lon": 106.4981129, "tags": {"amenity": "hospital", "healthcare": "hospital", "name": "拜博口腔医院"}}, {"type": "node", "id": 4143850848, "lat": 29.5605382, "lon": 106.5577242, "tags": {"alt_name:en": "Sun Yat-sen Primary School", "amenity": "school", "name": "中山小学", "name:en": "Zhongshan Primary School"}}, {"type": "node", "id": 4143850865, "lat": 29.5623741, "lon": 106.5427841, "tags": {"amenity": "hospital", "healthcare": "hospital", "name": "重庆市口腔医院", "name:en": "Chongqing Stomatological Hospital"}}, {"type": "node", "id": 4143911824, "lat": 29.5583344, "lon": 106.4669566, "tags": {"amenity": "school", "name": "沙坪坝实验中学"}}, {"type": "node", "id": 4143911825, "lat": 29.5587148, "lon": 106.464951, "tags": {"amenity": "school", "name": "重庆市七十一中学", "name:en": "Chongqing No.71 High School"}}, {"type": "node", "id": 5340111184, "lat": 29.6044815, "lon": 106.5590096, "tags": {"amenity": "clinic", "healthcare": "clinic", "name": "大白诊所（鲁能星城综合门诊部）", "operator": "大白医院管理有限公司"}}, {"type": "node", "id": 5406642614, "lat": 29.6041646, "lon": 106.5504289, "tags": {"amenity": "school", "name": "天宫殿学校"}}, {"type": "node", "id": 5473007183, "lat": 29.557732, "lon": 106.5926633, "tags": {"amenity": "college", "name": "重庆社会主义学院"}}, {"type": "node", "id": 5614646859, "lat": 29.6390877, "lon": 106.441201, "tags": {"amenity": "hospital", "healthcare": "hospital", "name": "井口医院"}}, {"type": "node", "id": 5614646865, "lat": 29.6389607, "lon": 106.4421733, "tags": {"amenity": "school", "name": "星光幼儿园"}}, {"type": "node", "id": 6631214656, "lat": 29.5646207, "lon": 106.5774209, "tags": {"amenity": "police"}}, {"type": "node", "id": 7304223128, "lat": 29.5733046, "lon": 106.4600274, "tags": {"amenity": "school"}}, {"type": "node", "id": 7873546275, "lat": 29.5399828, "lon": 106.5186206, "tags": {"amenity": "kindergarten", "name": "渝中利奥幼儿园"}}, {"type": "node", "id": 8987420649, "lat": 29.555715, "lon": 106.4613989, "tags": {"addr:district": "沙坪坝区", "addr:housenumber": "102", "addr:postcode": "400030", "addr:province": "重庆市", "addr:street": "小龙坎正街", "amenity": "police", "name": "小龙坎派出所", "opening_hours": "24/7", "phone": "+86 23 6531 2234"}}, {"type": "node", "id": 11479063727, "lat": 29.5199949, "lon": 106.5053737, "tags": {"amenity": "police", "name": "石坪桥派出所"}}, {"type": "node", "id": 11502856884, "lat": 29.5093352, "lon": 106.4376394, "tags": {"amenity": "college", "name": "重庆铁路运输技师学院"}}, {"type": "node", "id": 11805098451, "lat": 29.5291543, "lon": 106.4754502, "tags": {"amenity": "school", "name": "渝高中学"}}, {"type": "node", "id": 11987914505, "lat": 29.5591603, "lon": 106.5550537, "tags": {"amenity": "college", "name": "山城老年大学"}}, {"type": "node", "id": 12167327303, "lat": 29.577511, "lon": 106.5160315, "tags": {"amenity": "clinic", "healthcare": "clinic", "name": "任德诊所"}}, {"type": "node", "id": 12292087599, "lat": 29.5563564, "lon": 106.549792, "tags": {"amenity": "hospital", "healthcare": "hospital", "name": "重庆市人民医院"}}, {"type": "node", "id": 12294008831, "lat": 29.5522512, "lon": 106.5723204, "tags": {"amenity": "school", "name": "解放西路小学"}}, {"type": "node", "id": 12466407382, "lat": 29.5658525, "lon": 106.468494, "tags": {"amenity": "hospital", "name": "重庆大学校医院(A区)"}}, {"type": "node", "id": 12922524759, "lat": 29.6011644, "lon": 106.5359849, "tags": {"amenity": "school", "name": "重庆爱乐音乐学校"}}, {"type": "node", "id": 12998717919, "lat": 29.5314988, "lon": 106.5660019, "tags": {"amenity": "hospital", "healthcare": "hospital", "healthcare:speciality": "stomatology", "name": "刘愉口腔诊所"}}, {"type": "node", "id": 13232880680, "lat": 29.5551443, "lon": 106.5451564, "tags": {"amenity": "clinic", "branch": "中华广场店", "healthcare": "clinic", "name": "诺亚医疗.生长发育中心"}}, {"type": "node", "id": 13563561384, "lat": 29.5294028, "lon": 106.5010976, "tags": {"amenity": "police"}}, {"type": "node", "id": 13566124607, "lat": 29.5075122, "lon": 106.4705792, "tags": {"amenity": "police"}}, {"type": "node", "id": 13594214476, "lat": 29.466472, "lon": 106.6182253, "tags": {"amenity": "clinic", "check_date": "2026-02-22", "healthcare": "clinic", "name": "诊所"}}, {"type": "way", "id": 150453849, "center": {"lat": 29.5356528, "lon": 106.5035895}, "nodes": [1633669532, 1633669534, 1633669530, 1633669558, 10778184232, 10778184234, 10778184233, 1633669524, 1633669551, 1633669535, 1633669531, 1633669528, 1633669556, 10781469049, 4143800190, 10781469053, 1633669522, 1633739009, 10781469054, 1633669563, 11269602391, 11269602390, 11269602389, 1633669546, 1633669541, 1633669559, 10781469057, 1633669540, 1633669523, 1633669537, 1633669552, 1633669538, 1633669529, 1633669555, 1633669526, 1633669562, 1633669544, 1633669532], "tags": {"addr:city": "重庆市", "addr:district": "渝中区", "addr:full": "重庆市渝中区医学院路1号", "addr:housenumber": "1", "addr:postcode": "400016", "addr:street": "医学院路", "amenity": "university", "name": "重庆医科大学", "name:en": "Chongqing Medical University", "name:zh": "重庆医科大学", "website": "https://www.cqmu.edu.cn/", "wikidata": "Q5104661", "wikipedia": "zh:重庆医科大学"}}, {"type": "way", "id": 240658970, "center": {"lat": 29.5443323, "lon": 106.5139162}, "nodes": [2483728558, 12750006345, 12750006346, 2483728559, 12750006347, 2483728560, 12750006348, 2483728561, 2483728562, 2483728563, 2483728564, 2483728565, 2483728566, 2483728567, 2483728568, 2483728558], "tags": {"addr:city": "Chungking", "addr:housename": "渝中区大坪正街54号", "addr:housenumber": "54", "addr:postcode": "400042", "amenity": "school", "name": "大坪小学", "name:en": "Daping privary school", "website": "http://www.dpxx.com/"}}, {"type": "way", "id": 242496963, "center": {"lat": 29.5423868, "lon": 106.5261878}, "nodes": [2499555328, 2499555329, 2499555330, 2499555331, 2499555332, 2499555333, 2499555334, 2499555335, 2499555336, 2499555337, 2499555338, 2499555339, 2499555340, 2499555341, 2499555342, 2499555328], "tags": {"addr:housename": "渝中区平安街159号", "addr:postcode": "400015", "amenity": "school", "name": "复旦中学（竹园校区）", "name:en": "Fudan Middle School(Zhuyuan Campus)"}}, {"type": "way", "id": 249648470, "center": {"lat": 29.5295903, "lon": 106.555525}, "nodes": [2562266719, 2562265827, 2562265828, 2562265829, 2562265830, 2562265831, 2562266719], "tags": {"amenity": "school", "name": "天台岗小学 - 主校区", "name:en": "Tiantaigang Primary School - Main Campus"}}, {"type": "way", "id": 249649207, "center": {"lat": 29.5214201, "lon": 106.5633437}, "nodes": [963505626, 13006710476, 13006710477, 2562270899, 2825691050, 13006710488, 13006710475, 2825691052, 963505626], "tags": {"amenity": "school", "name": "珊瑚实验小学", "name:en": "Shanhu Experimental Primary School", "name:zh": "珊瑚实验小学"}}, {"type": "way", "id": 249649391, "center": {"lat": 29.51727, "lon": 106.5631992}, "nodes": [963174330, 2825691209, 12358326143, 13001936117, 13001936116, 13001936115, 13001936122, 13001936123, 13001936118, 13001936119, 2825691208, 13001936120, 13001936121, 2825691207, 2825691206, 2825691215, 12358326142, 13001931923, 13001931922, 2825691095, 13001931921, 13001931920, 2825691096, 13001931912, 963174330], "tags": {"amenity": "school", "name": "重庆南坪中学", "name:en": "Nanping High School", "name:zh": "重庆南坪中学"}}, {"type": "way", "id": 249649766, "center": {"lat": 29.5635934, "lon": 106.5574574}, "nodes": [2562274934, 7898924930, 7898924929, 7898924928, 7898924927, 2562274935, 2562274936, 2562274937, 2562274938, 7898924926, 2562274939, 7898924925, 7898924924, 7898924923, 7898924920, 7898924922, 7898924921, 7898924919, 7898924918, 7898924917, 2562274940, 2562274941, 7968372799, 7898924931, 4143850817, 2562274942, 2562274934], "tags": {"amenity": "school", "name": "巴蜀中学", "name:en": "Bashu Secondary School - Main Campus", "name:zh": "巴蜀中学"}}, {"type": "way", "id": 249652151, "center": {"lat": 29.520444, "lon": 106.5562489}, "nodes": [2562270898, 2825691058, 2562302761, 2562302762, 2562302764, 2562270898], "tags": {"amenity": "school", "name": "电建子弟校(金山路小学)", "name:en": "Dianjian Community School"}}, {"type": "way", "id": 249652293, "center": {"lat": 29.5318204, "lon": 106.5546974}, "nodes": [2562303639, 2562303640, 2828053753, 7566670485, 2828053754, 2828053752, 2562303639], "tags": {"amenity": "school", "name": "天台岗小学(上海城校区)", "name:en": "Tiantaigang Primary School (Shanghai Town Campus)"}}, {"type": "way", "id": 249652369, "center": {"lat": 29.5248036, "lon": 106.5481644}, "nodes": [2562304563, 2562304564, 2562304565, 2562304566, 2562304567, 2562304568, 2562304563], "tags": {"amenity": "school", "name": "天台岗小学（花园村校区）", "name:en": "Tiantaigang Primary School - Huayuan Village Campus"}}, {"type": "way", "id": 249652414, "center": {"lat": 29.5153561, "lon": 106.5568694}, "nodes": [2828074723, 2828074712, 2828074713, 2828074718, 2828074723], "tags": {"amenity": "school", "name": "青龙路小学", "name:en": "Qinglong Road Primary School"}}, {"type": "way", "id": 249652648, "center": {"lat": 29.5277922, "lon": 106.5591417}, "nodes": [2562307007, 2562307009, 8121427464, 2562307011, 2562307013, 2562307015, 2562307018, 2562307007], "tags": {"amenity": "school", "name": "珊瑚中学", "name:en": "Shanhu High School - Main Campus"}}, {"type": "way", "id": 249661910, "center": {"lat": 29.5287879, "lon": 106.5388462}, "nodes": [2562421127, 2562421132, 11753242707, 2562421134, 11753242706, 11753242705, 11753242704, 11753242703, 11753242702, 11753242701, 11753242700, 2562421138, 2562421139, 2825691100, 2825691099, 2825691201, 2562421146, 2562421127], "tags": {"addr:district": "南岸区", "addr:housenumber": "10", "addr:postcode": "400069", "addr:province": "重庆市", "addr:street": "风临路", "amenity": "school", "grades": "7-12", "name": "重庆南开（融侨）中学校", "name:en": "Chongqing Nankai (Rongqiao) Secondary School", "name:zh": "重庆南开（融侨）中学校"}}, {"type": "way", "id": 266763947, "center": {"lat": 29.4908889, "lon": 106.537453}, "nodes": [2722779515, 12618163636, 2722788822, 2722788823, 2722788825, 2722788826, 2722788827, 2722788828, 2722788829, 2722788830, 2722788831, 2722788832, 2722788833, 2722788834, 2722788835, 2722788836, 2722788838, 2722788839, 2722788840, 2722788841, 12618163634, 12618163635, 2722779515], "tags": {"addr:city": "重庆市", "addr:district": "九龙坡区", "addr:housenumber": "108", "addr:street": "黄桷坪正街", "alt_name": "四川美术学院", "amenity": "university", "education": "university", "name": "四川美术学院(黄桷坪校区)", "name:en": "Sichuan Fine Arts Institute (Huangjiaoping Campus)", "name:zh": "四川美术学院(黄桷坪校区)", "short_name": "川美", "wikidata": "Q1622158"}}, {"type": "way", "id": 278775623, "center": {"lat": 29.5338738, "lon": 106.5093574}, "nodes": [2830844367, 7634732925, 7634732926, 2830844368, 11269602442, 11269602441, 2830844369, 2830844370, 11269602439, 2830844371, 11269602440, 2830844367], "tags": {"addr:housenumber": "1号", "addr:street": "友谊路", "amenity": "hospital", "emergency": "yes", "healthcare": "hospital", "name": "重庆医科大学附属第一医院", "name:en": "1st Affiliated Hospital of Chongqing Medical University"}}, {"type": "way", "id": 279320360, "center": {"lat": 29.5093326, "lon": 106.5074408}, "nodes": [2835412152, 13576086659, 2835412153, 2835412154, 13576086661, 9330131067, 13576086660, 13576086662, 2835412155, 13576086663, 9330131068, 9330131069, 9330131070, 9330131071, 9330131072, 9330131073, 9330131074, 13576086664, 2835412156, 2835412157, 2835412158, 2835412160, 2835412152], "tags": {"amenity": "school", "name": "杨家坪中学"}}, {"type": "way", "id": 396343865, "center": {"lat": 29.6323817, "lon": 106.4749772}, "nodes": [3991573647, 3991573648, 3991573649, 3991573650, 3991573651, 3991573652, 3991573653, 3991573654, 3991573655, 3991573656, 3991573657, 3991573658, 3991573647], "tags": {"amenity": "school"}}, {"type": "way", "id": 412480741, "center": {"lat": 29.5679671, "lon": 106.4654869}, "nodes": [4063480741, 1879448053, 12647715994, 12647715995, 4138980422, 4138980428, 4138980429, 12647715992, 12647715983, 12647715984, 12647715986, 4138980430, 12647715985, 12647715987, 12647715988, 4138980431, 4138980432, 12647715989, 1684513147, 1684513140, 12647715990, 12647715991, 4138980434, 1066615068, 3649616633, 1066614874, 7595971881, 1192620315, 7595971877, 4138980436, 4138980437, 4138980438, 4138980439, 4138980444, 12647715979, 12647715980, 4138980445, 12647715978, 12647715977, 12647715976, 4138980447, 12647715975, 12647715974, 12647715973, 4138980448, 12647715972, 12647715971, 4138980449, 12647715966, 12647715968, 12647715965, 12647715967, 12647715964, 12647715963, 12647715962, 4138980450, 4138980451, 12647715961, 12647715970, 4138980452, 12647715969, 12647715957, 12647715960, 12647715958, 12647715959, 12647715956, 12647715955, 4138980453, 12647715954, 12647715953, 4138980454, 12647715981, 4138980455, 12647715982, 4138980456, 4138980458, 4138980459, 4138980460, 4138980461, 4138980462, 4138980463, 4138980464, 4138980465, 4138980466, 4138980467, 4138980468, 4138980469, 4138980470, 4063480741], "tags": {"amenity": "university", "education": "university", "name": "重庆大学A区", "name:en": "Chongqing University - Campus A"}}, {"type": "way", "id": 412480744, "center": {"lat": 29.5625195, "lon": 106.4613091}, "nodes": [4138980479, 7195293090, 7195293089, 6968516084, 7195293088, 7195293087, 7194981602, 7744295304, 7194981603, 7727498018, 7727498017, 7727498016, 7194981604, 7744295303, 7744295306, 7744295305, 5579780871, 7727498014, 7194981605, 7744295297, 7744295302, 7194993500, 7194981609, 6968516081, 7194981608, 7194981607, 7194981606, 4138980480, 7196853513, 7196853514, 7196853515, 7196853516, 7196853517, 4138980481, 7196853518, 7196853519, 4138980482, 7196853520, 7196853521, 4138980483, 7196853522, 7196853523, 4138980484, 7196853524, 7196853525, 4138980485, 7196744264, 7196744256, 7196853526, 7196853527, 4138980487, 4138980488, 4138982389, 7196744265, 4138982390, 4138982392, 1684513157, 1684513149, 1684513144, 4138982394, 4138980479], "tags": {"amenity": "school", "name": "重庆一中", "name:en": "Chongqing No.1 Secondary School", "name:zh": "重庆一中", "operator": "重庆一中", "operator:type": "public", "website": "Https://www.cqyz.cn"}}, {"type": "way", "id": 412480745, "center": {"lat": 29.5638037, "lon": 106.4557632}, "nodes": [4138982396, 5581786783, 5575158851, 5575158850, 5575158852, 5575158853, 4138982397, 5575158854, 5575158848, 5572704775, 5575158847, 5575158846, 5575158845, 5572704776, 5573216844, 5575158844, 5579780829, 5579780830, 5575158843, 5575158839, 5575158838, 5575158837, 5573216840, 5581817631, 5558440185, 4138982399, 5575158862, 5575158835, 11185958509, 11185958519, 5581817278, 11185958515, 11185958514, 11185987162, 11185958526, 11185958525, 11185987139, 11185987138, 11185987144, 11185987143, 4138982401, 5579780797, 11185987156, 5575158829, 5575158830, 11185987155, 5581786791, 5579780784, 5581786789, 5581786788, 4138982407, 4138982408, 5575158831, 5581786793, 5575158832, 5581786806, 4138982410, 4138982419, 5585546863, 5585546864, 4138982414, 4138982415, 4138982396], "tags": {"addr:district": "沙坪坝区", "addr:housenumber": "1", "addr:postcode": "400030", "addr:province": "重庆市", "addr:street": "沙坪坝南街", "amenity": "school", "name": "重庆南开中学", "name:en": "Chongqing Nankai Secondary School", "name:zh": "重庆南开中学", "wikidata": "Q5104663"}}, {"type": "way", "id": 412480747, "center": {"lat": 29.5628501, "lon": 106.4496395}, "nodes": [7589829422, 4138982422, 4138982423, 4138982424, 4138982425, 4138982426, 1679411432, 4138982428, 10119384760, 10119384759, 10119384758, 10119384757, 4138982429, 1679411410, 4138982430, 4138982431, 4138982432, 4138982433, 1066589150, 1066589725, 4138982434, 1066589650, 4138982435, 1066589675, 1066589364, 7589829422], "tags": {"amenity": "university", "name": "重庆大学C区", "name:en": "Chongqing University - Campus C"}}, {"type": "way", "id": 412586972, "center": {"lat": 29.544725, "lon": 106.6059696}, "nodes": [4139789893, 4139789894, 4139789895, 8795982826, 8795982827, 4139789896, 4139789897, 8795982810, 4139789899, 4139789900, 8795982417, 4139789901, 4139789893], "tags": {"amenity": "school", "name": "重庆第二外国语学校", "name:en": "Chongqing Second Foreign Language High School", "name:zh": "重庆第二外国语学校"}}, {"type": "way", "id": 412587000, "center": {"lat": 29.4996478, "lon": 106.5933107}, "nodes": [623936803, 12996881099, 12992443699, 12992443698, 12992443697, 12992443696, 4139790454, 4139790455, 12992456301, 12992456302, 12992456303, 12992456304, 4139790456, 12992456305, 4139790457, 13296763371, 13296763370, 13296763369, 12992456306, 12992456308, 13296763368, 13296763372, 12992456309, 12992456311, 12992456312, 4139790459, 4139790460, 12996939217, 4139790461, 12992443689, 12992443690, 12992443691, 12996881091, 12996881090, 4139790462, 12996881092, 4139790463, 12996881093, 12996881094, 4139790464, 4139790465, 12996881095, 12996881096, 4139790466, 12996881097, 4139790467, 623936807, 12996881098, 12992443695, 623936803], "tags": {"amenity": "university", "education": "university", "name": "重庆第二师范学院（南山校区）", "name:en": "Chongqing No.2 Normal College at South Mountain", "name:zh": "重庆第二师范学院（南山校区）"}}, {"type": "way", "id": 412587728, "center": {"lat": 29.532035, "lon": 106.6042216}, "nodes": [8795982825, 12453144230, 12453144229, 8795982501, 12453144231, 8795982510, 8795982511, 4139797908, 12453138392, 12453138393, 12453138394, 12453138395, 12453138396, 12453138397, 12453138398, 4139797909, 12453138399, 12453138400, 12453144201, 12453144202, 12453144203, 4139797910, 12453144204, 12453144205, 12453144206, 12453144207, 12453144208, 4139797911, 12453138373, 12453138375, 12453138374, 12453138376, 2822047996, 2822047994, 2822047993, 7543217415, 7543217414, 7543217413, 2822047983, 8795983323, 4139797912, 8795983324, 12453144341, 4139797913, 8795983325, 8795983326, 8795983327, 4139797914, 8795983328, 8795983329, 8795983330, 4139797915, 8795983331, 8795983332, 8795983333, 8795983334, 8795983335, 8795983336, 8795983337, 8795983338, 8795983339, 4139797916, 8795983340, 8795983341, 8795983342, 8795983343, 8795983344, 13347433144, 13347433146, 13347433145, 13347433147, 8795983345, 8795983346, 8795983347, 8795983350, 8795983348, 8795983349, 8795983351, 8795983352, 8795983353, 8795983354, 8795982636, 8795983355, 8795983356, 4139797917, 4139797918, 4139797919, 4139797920, 4139797921, 4139797922, 8795982627, 8795982626, 8795982622, 8795982613, 8795982615, 8795982614, 8795982602, 8795982825], "tags": {"addr:district": "南岸区", "addr:housenumber": "2", "addr:postcode": "400065", "addr:province": "重庆市", "addr:street": "崇文路", "amenity": "university", "education": "university", "name": "重庆邮电大学", "name:en": "Chongqing University of Posts and Telecommunications", "website": "https://www.cqupt.edu.cn/", "wikidata": "Q5104676", "wikipedia": "zh:重庆邮电大学"}}, {"type": "way", "id": 412616791, "center": {"lat": 29.5239989, "lon": 106.5515702}, "nodes": [4139987105, 4139987106, 8017304917, 4139987107, 4139987108, 4139987109, 4139987110, 4139987111, 4139987112, 4139987113, 4139987105], "tags": {"amenity": "hospital", "healthcare": "hospital", "name": "重庆市第六人民医院", "name:en": "Chongqing No.6 Hospital"}}, {"type": "way", "id": 412619877, "center": {"lat": 29.6019562, "lon": 106.5613323}, "nodes": [4140010344, 4140010345, 4140010346, 9422075199, 4140010347, 9422075200, 9422075201, 4140010348, 4140010349, 4140010350, 4140010351, 4140010352, 4140010353, 4140010354, 9421883682, 4140010355, 9421883681, 4140010356, 4140010357, 4140010344], "tags": {"amenity": "school", "name": "鲁能巴蜀中学", "name:en": "Luneng Bashu Secondary School"}}, {"type": "way", "id": 412619879, "center": {"lat": 29.6164618, "lon": 106.5111771}, "nodes": [4140010362, 12084737529, 12084737528, 4140010363, 2543089565, 4140010362], "tags": {"amenity": "school", "name": "巴蜀中学(金科校区)", "name:en": "Bashu Secondary School - Jinke Campus"}}, {"type": "way", "id": 412657001, "center": {"lat": 29.6048312, "lon": 106.50506}, "nodes": [4140278981, 4140278982, 9356999266, 4140278983, 4140278988, 9356999264, 4140279289, 4140279290, 11833071004, 11833071003, 11833071002, 11833071001, 4140279291, 4140279292, 9356999265, 4140278981], "tags": {"amenity": "school", "name": "龙湖花园巴蜀学校（小学部）"}}, {"type": "way", "id": 412677865, "center": {"lat": 29.5083705, "lon": 106.5785148}, "nodes": [4140410014, 5575376501, 4140410015, 8045581002, 12436851520, 4140410018, 12240678422, 4140410202, 4140410020, 4140410021, 4140410022, 4140410023, 4140410024, 4140410025, 4140410026, 4140410027, 4140410028, 4140410029, 5575376787, 4140410030, 2824116095, 4140410031, 4140410032, 12436834976, 2824116096, 2824119632, 7576158507, 4140410036, 4140410037, 12436851475, 12436851474, 12436851473, 12436851472, 12436851471, 12436851470, 12436851469, 12436851466, 12436851468, 12436851467, 5575376494, 5575376496, 12436851515, 12436851516, 4140410014], "tags": {"addr:city": "Chongqing", "addr:housenumber": "19", "addr:postcode": "400067", "addr:street": "Xuefu avenue", "amenity": "university", "name": "重庆工商大学", "name:en": "Chongqing University of Technology and Business", "wikidata": "Q5104671", "wikipedia": "en:Chongqing Technology and Business University"}}, {"type": "way", "id": 412677867, "center": {"lat": 29.5025757, "lon": 106.555021}, "nodes": [4140410044, 4140410045, 9759621441, 4140410046, 4140410047, 4140410048, 4140410050, 4140410051, 4140410044], "tags": {"amenity": "school", "name": "天台岗小学 - 雅居乐校区", "name:en": "Tiantaigang Primary School - Yajule"}}, {"type": "way", "id": 412677871, "center": {"lat": 29.4903657, "lon": 106.567229}, "nodes": [4140410093, 4140410094, 4140410095, 4140410096, 4140410097, 4140410098, 4140410099, 4140410100, 9427493237, 4140410101, 4140410102, 9427493238, 4140410103, 4140410104, 4140410105, 9427502497, 4140410106, 4140410107, 12862876620, 4140410108, 4140410109, 4140410110, 4140410111, 12862866167, 12862866169, 12862866168, 12862866170, 12862866171, 12862866173, 12862866177, 12862866178, 12862866179, 12862866180, 4140410112, 12862866181, 12862866182, 4175208912, 12862866183, 13013780822, 12862866184, 12862866185, 12862866186, 12862866187, 4140410113, 4140410114, 4140410116, 13004280696, 13013780838, 4140410117, 13014863331, 4140410093], "tags": {"addr:housenumber": "66号", "addr:street": "学府大道", "amenity": "university", "education": "university", "name": "重庆交通大学", "name:en": "Chongqing Jiaotong University", "wikidata": "Q5104660"}}, {"type": "way", "id": 412742024, "center": {"lat": 29.5372313, "lon": 106.553938}, "nodes": [4140850905, 4140850906, 4140850907, 4140850908, 4140850909, 4140850910, 4140850911, 4140850912, 4140850913, 9687188965, 9687188966, 10821434997, 10821434998, 10821440840, 10821434999, 10821440841, 10821435000, 10821435001, 10821440842, 9687188967, 9687188968, 4140850905], "tags": {"amenity": "school", "name": "天台岗小学（融创校区）", "name:en": "Tiantaigang Primary School - Rongchuang Campus"}}, {"type": "way", "id": 412742031, "center": {"lat": 29.5327711, "lon": 106.5757593}, "nodes": [4140850992, 4140850993, 4140850994, 4140850995, 4140850996, 4140850997, 4140850998, 4140850999, 4140851000, 4140851001, 4140850992], "tags": {"amenity": "school", "name": "辅仁中学", "name:en": "Furen High School"}}, {"type": "way", "id": 412742070, "center": {"lat": 29.4555861, "lon": 106.5263611}, "nodes": [4140851170, 4140851171, 9926232005, 9926232004, 4140851172, 9925965316, 4140851173, 9925965417, 9926232007, 4140851174, 5484968086, 9926232006, 4140851175, 4140851176, 4963383421, 5257121366, 4140851178, 9925965418, 9925951593, 4140851179, 4140851185, 5257121482, 4140851186, 4140851187, 4963383436, 4140851189, 4140851190, 4140851193, 4140851194, 4140851195, 9925965304, 9925965303, 4140851196, 4140851197, 4140851170], "tags": {"amenity": "university", "name": "重庆理工大学", "name:en": "Chongqing University of Technology", "wikidata": "Q15913567"}}, {"type": "way", "id": 412742077, "center": {"lat": 29.4627223, "lon": 106.5460628}, "nodes": [4140851208, 4140851209, 4140851210, 9941985774, 4140851211, 9941985773, 4140851208], "tags": {"amenity": "school", "name": "重庆市巴南中学", "name:en": "Chongqing Ba'nan High School"}}, {"type": "way", "id": 412876070, "center": {"lat": 29.553792, "lon": 106.5415794}, "nodes": [4142088441, 5537124270, 4142088442, 5537124269, 4142088443, 4142088444, 4142088445, 4142088446, 4142088441], "tags": {"amenity": "school", "name": "重庆第三十中学", "name:en": "Chongqing No.30 High School"}}, {"type": "way", "id": 413048897, "center": {"lat": 29.5325379, "lon": 106.4929188}, "nodes": [12800509999, 4143800407, 4143800406, 4143800405, 11375410349, 4143800414, 4143800415, 11375410348, 11375410347, 11375410346, 4143800416, 12800509999], "tags": {"amenity": "school", "name": "重庆外国语学校森林小学", "name:en": "Senlin Primary School", "name:zh": "重庆外国语学校森林小学"}}, {"type": "way", "id": 413052993, "center": {"lat": 29.5053367, "lon": 106.4710049}, "nodes": [4143841164, 4143841165, 4143841166, 4143841167, 4143841164], "tags": {"amenity": "school", "name": "重庆舞蹈学校", "name:en": "Chongqing Dancing Academy"}}, {"type": "way", "id": 413054275, "center": {"lat": 29.5590391, "lon": 106.550953}, "nodes": [4143850828, 4143850829, 4143850830, 9325919852, 9325919853, 9325919834, 9325919854, 9325919835, 9325919836, 9325919855, 9325919856, 4143850833, 9325919838, 9325919837, 4143850834, 9325919840, 9325919839, 9325919841, 9325852542, 4143850835, 9325919842, 4143850836, 9325919843, 4143850837, 9325919844, 9325919847, 9325919846, 9325919845, 4143850839, 11987914512, 11987914511, 9325919830, 4143850828], "tags": {"addr:city": "重庆市", "addr:place": "渝中区", "addr:postcode": "400014", "addr:street": "中山二路136号", "amenity": "hospital", "healthcare": "hospital", "name": "重庆医科大学附属儿童医院（渝中院区）", "phone": "+86 23 6362 2984", "website": "https://www.chcmu.com", "wheelchair": "yes"}}, {"type": "way", "id": 413055488, "center": {"lat": 29.6209262, "lon": 106.6719151}, "nodes": [4143867948, 9806303810, 4143867949, 9806303741, 4143867950, 4143867951, 9806303742, 9806303743, 4143867952, 9806303744, 4143867953, 9806303747, 9806303746, 9806303863, 9806303745, 9806303799, 9806303801, 9806303800, 9806303802, 9806303803, 9806303804, 9806303805, 9806303806, 9806303807, 9806303808, 9806303809, 4143867954, 4143867956, 4143867957, 4143867958, 4143867959, 4143867960, 4143867961, 9806303815, 9806303814, 4143867962, 4143867963, 4143867964, 9806303816, 9806303818, 9806303817, 4143867965, 9806303813, 9806303812, 9806303811, 4143867966, 4143867948], "tags": {"amenity": "school", "name": "重庆第十八中学（铁山坪校区）", "name:en": "Chongqing No.18 High School - Tieshanping Campus"}}, {"type": "way", "id": 413059650, "center": {"lat": 29.5594852, "lon": 106.4617101}, "nodes": [4143911871, 4143911872, 4143911873, 4143911874, 4143911875, 4143911871], "tags": {"amenity": "school", "name": "树人小学"}}, {"type": "way", "id": 413059651, "center": {"lat": 29.5585923, "lon": 106.462027}, "nodes": [4143911881, 4143911882, 4143911883, 8987420650, 4143911881], "tags": {"addr:district": "沙坪坝区", "addr:housenumber": "44", "addr:postcode": "400030", "addr:province": "重庆市", "addr:street": "小龙坎新街", "amenity": "hospital", "emergency": "yes", "healthcare": "hospital", "name": "沙坪坝人民医院", "name:en": "Shapingba People's Hospital", "phone": "+86 23 6536 5120;+86 23 6536 5130", "wheelchair": "yes"}}, {"type": "way", "id": 413059661, "center": {"lat": 29.5701715, "lon": 106.4383357}, "nodes": [11146386556, 11758636867, 11758636866, 11758636865, 11758636864, 4143912051, 4143912052, 4143912053, 4143912054, 4143912034, 4143912035, 4143912036, 4143912037, 4143912038, 4143912039, 11758653874, 11758653873, 11758653872, 4143912042, 4143912043, 11146386550, 4143912044, 11146386552, 11146386553, 11146386554, 11146386555, 11146386551, 11146386556], "tags": {"amenity": "university", "name": "西南政法大学", "name:en": "Southwest University of Political Science & Law"}}, {"type": "way", "id": 413059662, "center": {"lat": 29.571441, "lon": 106.4326984}, "nodes": [11758653870, 11146386531, 4143912055, 4143912056, 11146386540, 11146386541, 11146386542, 4143912057, 11146386549, 11146386548, 4143912058, 11146386547, 11146386546, 4143912059, 11146386545, 4143912060, 11146386544, 11146386543, 4143912061, 4143912062, 11758653880, 4143912063, 4143912064, 4143912065, 11761438212, 4143912067, 11761438214, 11761438213, 11761438210, 11146359678, 11146359679, 11146359680, 11146359681, 11146359682, 11146359683, 11146359677, 4143912071, 4143912072, 11146359676, 11146359675, 11145561085, 11145561078, 11145561087, 11145561086, 11145561084, 11145561079, 11145561083, 11145561089, 11145561082, 11145561081, 11145561080, 11145561091, 4143912074, 4143912075, 4143912076, 4143912078, 4143912040, 13457276942, 4143912041, 11758653871, 11758636868, 11758653869, 11758653870], "tags": {"amenity": "university", "education": "university", "name": "四川外国语大学", "name:en": "Sichuan International Studies University", "wikidata": "Q3551746"}}, {"type": "way", "id": 440019167, "center": {"lat": 29.5312073, "lon": 106.483465}, "nodes": [4377191350, 4377191345, 4377191346, 4377191347, 11375410309, 11375410310, 12261199132, 11375410311, 12261199133, 4377191348, 9480246381, 9480246382, 12261199141, 12261199142, 4377191349, 4377191350], "tags": {"amenity": "school", "name": "九龙坡区渝高中学", "name:en": "Yugao School", "name:zh": "九龙坡区渝高中学"}}, {"type": "way", "id": 449069885, "center": {"lat": 29.536189, "lon": 106.4775566}, "nodes": [4460405608, 12238410048, 4460405595, 4460405610, 4460405636, 12261618592, 4460405629, 12238410016, 4460405631, 4460405611, 12238410017, 4460405623, 12238410041, 12238410019, 12238410040, 12238410020, 12837080053, 4460405638, 12238410029, 4460405615, 4460405624, 12238410021, 12238410022, 12238410023, 12238410024, 4460405608], "tags": {"amenity": "school", "name": "重庆外国语学校", "name:en": "Chongqing Foreign Languages School"}}, {"type": "way", "id": 495903742, "center": {"lat": 29.4933632, "lon": 106.4458401}, "nodes": [6868252109, 12422043840, 4876239823, 12422043841, 6868252114, 6868252119, 6868252113, 6868252108, 6868252111, 6868252110, 6868252109], "tags": {"amenity": "school", "name": "重庆外国语实验学校", "name:en": "Chongqing Experimental Foreign Languages School", "name:zh": "重庆外国语实验学校"}}, {"type": "way", "id": 497715818, "center": {"lat": 29.5979297, "lon": 106.5958129}, "nodes": [4892352300, 4892352299, 4892352298, 4892352297, 4892352301, 4892352300], "tags": {"amenity": "school", "name": "重庆市第三十八中学校"}}, {"type": "way", "id": 513073430, "center": {"lat": 29.5844117, "lon": 106.567931}, "nodes": [5016262071, 12770325192, 5016277849, 5016277850, 5016262069, 5016262070, 5016262071], "tags": {"amenity": "kindergarten", "name": "博翰双语幼儿园"}}, {"type": "way", "id": 553175168, "center": {"lat": 29.5222782, "lon": 106.4343019}, "nodes": [5340111130, 5340111131, 5340111132, 5340111133, 5340111134, 11034594849, 11034594848, 5340111135, 11034594846, 11034594847, 5340111136, 12875779910, 12875779911, 5340111137, 11034594845, 5340111138, 11034594844, 11034594843, 5340111139, 11034594842, 11034594841, 11034594840, 5340111140, 11034594839, 11034594838, 11034594837, 11034594836, 5340111141, 11034594835, 11034594834, 11034594832, 11034594833, 11034594831, 11034594855, 5340111142, 11034594854, 11034594853, 11034594852, 5340111143, 5340111144, 11034594850, 5340111145, 11034594851, 5340111130], "tags": {"addr:district": "沙坪坝区", "addr:housenumber": "83", "addr:province": "重庆市", "addr:street": "新桥正街", "alt_name": "陆军军医大学新桥医院;重庆新桥医院", "alt_name:en": "Xinqiao Hospital ARMY Medical University", "amenity": "hospital", "emergency": "yes", "healthcare": "hospital", "landuse": "military", "name": "陆军军医大学第二附属医院（新桥医院）", "official_name": "陆军军医大学第二附属医院", "official_name:en": "The Second Affiliated Hospital of Army Medical University", "official_name:zh": "陆军军医大学第二附属医院", "operator": "陆军军医大学", "operator:type": "university", "wikidata": "Q30281239", "wikipedia": "zh:陆军军医大学第二附属医院"}}, {"type": "way", "id": 553175170, "center": {"lat": 29.5472354, "lon": 106.5202342}, "nodes": [5340111164, 7602439560, 5340111165, 5340111166, 12744861267, 12744861266, 11844509529, 11844509528, 5340111168, 12744861265, 5340111169, 11841648968, 12744861264, 5340111170, 12744861263, 5340111171, 12730504367, 5340111172, 12749971929, 12730504366, 12730504365, 12730504316, 12730504315, 12730504314, 5340111173, 12744861262, 12730504313, 12744874253, 5340111174, 12744874252, 12730504317, 5340111175, 12730504312, 12730504311, 5340111176, 5340111179, 5340111164], "tags": {"amenity": "hospital", "healthcare": "hospital", "landuse": "military", "name": "陆军特色医学中心", "wikidata": "Q30279866", "wikipedia": "zh:中国人民解放军陆军特色医学中心"}}, {"type": "way", "id": 553175176, "center": {"lat": 29.5049546, "lon": 106.6555666}, "nodes": [5340111202, 10246131968, 9422236433, 5340111203, 11179037253, 5340111204, 10246131967, 10246131966, 5340111205, 10246131964, 5340111206, 5340111207, 10246131963, 10246131962, 5340111208, 10246131971, 5340111209, 5340111202], "tags": {"amenity": "school", "name": "重庆市龙门浩职业中学", "name:en": "Chongqing Longmenhao Vocational School"}}, {"type": "way", "id": 553228787, "center": {"lat": 29.5170516, "lon": 106.4755656}, "nodes": [5340513050, 5340513051, 5340513052, 5340513053, 5340513054, 5340513055, 5340513056, 9946746614, 5340513058, 5340513059, 5340513060, 5340513061, 5340513062, 5340513063, 5340513064, 5340513050], "tags": {"amenity": "school", "name": "重庆市杨家坪中学(彩云湖校区)"}}, {"type": "way", "id": 553298391, "center": {"lat": 29.6565416, "lon": 106.5445831}, "nodes": [5341105217, 5341105218, 5341105219, 5341105220, 5341106721, 5341105217], "tags": {"amenity": "hospital", "healthcare": "hospital", "name": "金山医院"}}, {"type": "way", "id": 572049432, "center": {"lat": 29.5502714, "lon": 106.5317706}, "nodes": [5496417312, 5577832847, 5577832846, 5496417313, 5496417314, 5496417315, 5496417316, 5496417317, 5496417318, 5496417319, 5496417320, 5496417921, 5577832716, 5496417922, 5496417923, 5496417924, 5496417312], "tags": {"amenity": "school", "name": "鹅岭小学"}}, {"type": "way", "id": 572050908, "center": {"lat": 29.5575256, "lon": 106.5365945}, "nodes": [5496438244, 5496438245, 5496438246, 5496438247, 5496438248, 5496438249, 5496438250, 5496438251, 5496438252, 5577830911, 5577830912, 5496438253, 5496438254, 5496438255, 5496438256, 5496438257, 5496438258, 5496438259, 5496438260, 5496438261, 5496438262, 5496438263, 5496438244], "tags": {"amenity": "school", "name": "重庆市第五十七中学"}}, {"type": "way", "id": 582460713, "center": {"lat": 29.535199, "lon": 106.6002657}, "nodes": [5570482070, 5570482071, 5570482072, 5570482073, 5570482074, 5570482075, 5570482076, 5570482077, 5570482078, 5570482079, 5570482080, 5570482081, 5570482082, 5570482083, 5570482084, 5570482085, 5570482086, 5570482087, 5570482070], "tags": {"amenity": "hospital", "healthcare": "hospital", "name": "校医院"}}, {"type": "way", "id": 583427161, "center": {"lat": 29.5589156, "lon": 106.5378388}, "nodes": [5577830918, 8260434467, 5577830919, 8260434466, 5577830920, 5577832621, 5577832622, 5577832623, 8260434465, 5577832624, 5577832625, 8260434464, 5577832626, 8260434463, 5577832627, 5577832628, 5577830918], "tags": {"amenity": "school", "name": "大田湾小学"}}, {"type": "way", "id": 583430770, "center": {"lat": 29.5662652, "lon": 106.5422269}, "nodes": [5577866933, 5577866934, 5577866935, 5577866936, 5577866937, 5577866938, 5577866939, 5577866940, 5577867153, 5577866973, 5577866941, 13462278828, 13462278829, 5577866942, 5577866943, 5577866944, 5577866945, 5577866946, 5577866947, 5577866948, 5577866949, 5577866950, 5577866951, 5577866952, 5577866953, 5577866983, 5577866933], "tags": {"amenity": "school", "name": "求精中学"}}, {"type": "way", "id": 583430774, "center": {"lat": 29.5649549, "lon": 106.542334}, "nodes": [5577866984, 5577866985, 5577866986, 5577866987, 5577866949, 5577866948, 5577866947, 5577866946, 5577866988, 5577866989, 5577866990, 5577866991, 5577866992, 5577866993, 5577866994, 5577866995, 5577866984], "tags": {"amenity": "school", "name": "人民小学"}}, {"type": "way", "id": 583434948, "center": {"lat": 29.6410991, "lon": 106.5420591}, "nodes": [5577899613, 5577899608, 5577899607, 2543076757, 2543076733, 5577899616, 5577899613], "tags": {"amenity": "school", "name": "万年路小学"}}, {"type": "way", "id": 583631946, "center": {"lat": 29.6426113, "lon": 106.5390739}, "nodes": [5579768955, 5579768956, 5579768957, 5579768958, 5579768959, 5579768960, 5579768961, 5579768962, 5579768963, 5579768964, 5579768965, 5579768955], "tags": {"amenity": "school", "name": "拉玛足球学校"}}, {"type": "way", "id": 585336694, "center": {"lat": 29.6307803, "lon": 106.5322185}, "nodes": [5593914406, 5593914407, 5593914408, 5593914409, 5593914410, 5593914411, 5593914412, 5593914413, 10063079222, 5593914414, 10063079221, 5593914415, 5593914406], "tags": {"amenity": "school", "education": "school", "name": "两江新区人和实验学校", "name:en": "Renhe Experimental High School of Liangjiang New District"}}, {"type": "way", "id": 585539550, "center": {"lat": 29.583698, "lon": 106.4470213}, "nodes": [5595517665, 5595517666, 5595517667, 5595517668, 5595517673, 5595517669, 12095407065, 5595517670, 12095407064, 12095407063, 5595517665], "tags": {"amenity": "school", "name": "磁器口小学"}}, {"type": "way", "id": 586637091, "center": {"lat": 29.5700557, "lon": 106.4570443}, "nodes": [5604611441, 5604611442, 5604611443, 5604611444, 5604611445, 5604611446, 5604611447, 5604611448, 5604611449, 5604611450, 5604611451, 5604611452, 5604611453, 5604611454, 5604611455, 5604611456, 5604611457, 5604611458, 5604611459, 5604611460, 5604611441], "tags": {"amenity": "college", "name": "建工馆"}}, {"type": "way", "id": 586637093, "center": {"lat": 29.5683251, "lon": 106.456594}, "nodes": [5604611480, 5604611481, 5604611482, 5604611483, 5604611484, 5604611485, 5604611486, 5604611487, 5604611488, 5604611489, 5604611490, 5604611491, 5604611492, 5604611493, 5604611494, 5604611495, 5604611496, 5604611497, 5604611498, 5604611499, 5604611480], "tags": {"amenity": "college", "name": "建筑与房地产管理学院"}}, {"type": "way", "id": 588862478, "center": {"lat": 29.5660334, "lon": 106.4519911}, "nodes": [5623651609, 5623651620, 5577715827, 5623651611, 5623652926, 5579780852, 5623651612, 5623651616, 5623652927, 5623652962, 5623652961, 5623651615, 5623652928, 5623651614, 5623652938, 5623652935, 5623652934, 5623651617, 5623651618, 5623651613, 5623651609], "tags": {"amenity": "school", "name": "重庆南开小学", "name:en": "Chongqing Nankai Primary School"}}, {"type": "way", "id": 607831615, "center": {"lat": 29.5055697, "lon": 106.5638644}, "nodes": [5759701041, 5759701052, 5759701042, 5759701043, 5759701044, 5759701045, 5759701046, 5759701047, 5759701048, 5759701049, 5759701050, 5759701051, 5759701041], "tags": {"amenity": "university", "name": "重庆工商大学-兰花湖校区"}}, {"type": "way", "id": 621220505, "center": {"lat": 29.5030909, "lon": 106.5517847}, "nodes": [5868476833, 5868476834, 5868476835, 5868476836, 5868476837, 5868476838, 5868476833], "tags": {"amenity": "kindergarten"}}, {"type": "way", "id": 621220507, "center": {"lat": 29.5009951, "lon": 106.5557656}, "nodes": [5868476839, 5868476840, 5868476841, 5868476842, 5868476843, 5868476844, 5868476845, 5868476846, 5868476839], "tags": {"amenity": "school", "name": "110中学 - 雅居乐校区"}}, {"type": "way", "id": 639999828, "center": {"lat": 29.6415719, "lon": 106.4459145}, "nodes": [6029573206, 6029573207, 6029573240, 6029573208, 6029573209, 9841370369, 9841370367, 9841370366, 9841370368, 6029573210, 6029573211, 9841370365, 6029573212, 6029573213, 9841370363, 9841370362, 6029573214, 9841370364, 6029573215, 6029573206], "tags": {"amenity": "college", "name": "美丽阳光小学"}}, {"type": "way", "id": 669609377, "center": {"lat": 29.6615663, "lon": 106.5309265}, "nodes": [6270604967, 11934203433, 11934203432, 6270604969, 11934203430, 11934203431, 6270604970, 11934203429, 11934203428, 11934203427, 11934203426, 6270604971, 10727310980, 10727310979, 10727310981, 10727310986, 10727310983, 10727310987, 6270604972, 10727310984, 10727310982, 10727310985, 6270604973, 10057794828, 10057794827, 6270604974, 6270604975, 6270604967], "tags": {"addr:city": "Chongqing", "addr:district": "Nanan", "addr:housenumber": "2", "addr:postcode": "400060", "addr:province": "Chongqoing", "addr:street": "Huxia Street", "amenity": "school", "name": "重庆一中双语学校", "name:en": "Chongqing No.1 International Studies School", "name:zh": "重庆一中双语学校", "website": "http://www.cqdysyxx.com/"}}, {"type": "way", "id": 705753869, "center": {"lat": 29.6011704, "lon": 106.5311384}, "nodes": [6631458806, 11207751036, 11207751035, 11207751034, 6631458807, 11207751033, 6631458808, 11207751027, 11207751028, 6631458809, 6631458810, 6631458811, 11207751029, 11207751030, 6631458812, 11207751031, 6631458813, 11207751032, 6631458806], "tags": {"amenity": "police", "name": "重庆市公安局"}}, {"type": "way", "id": 705753872, "center": {"lat": 29.5782642, "lon": 106.5358144}, "nodes": [6631458831, 6631458832, 6631458833, 6631458834, 6631458835, 6631458836, 6631458837, 6631458838, 6631458839, 6631458840, 6631458841, 6631458842, 6631458843, 6631458844, 6631458845, 6631458831], "tags": {"amenity": "hospital", "healthcare": "hospital", "name": "陆军第九五八医院"}}, {"type": "way", "id": 707842548, "center": {"lat": 29.5270776, "lon": 106.5557534}, "nodes": [6651110821, 6651110831, 6651110830, 6651110837, 6651110836, 6651110835, 6651110834, 6651110822, 6651110811, 6651110820, 6651110821], "tags": {"amenity": "kindergarten", "name": "南岸区珊瑚幼儿园"}}, {"type": "way", "id": 734031546, "center": {"lat": 29.5662207, "lon": 106.5432196}, "nodes": [13462278833, 13462278834, 5577866934, 5577866933, 6874556530, 6874556529, 6874556528, 13462278832, 13462278833], "tags": {"amenity": "school", "name": "中四路小学", "note": "Primary School"}}, {"type": "way", "id": 742846763, "center": {"lat": 29.4876399, "lon": 106.5369047}, "nodes": [6953980063, 6953980064, 6953980065, 12625795127, 6953980066, 12625795128, 6953980067, 6953980068, 6953980069, 6953980070, 6953980063], "tags": {"amenity": "school", "name": "九龙坡区黄桷坪小学"}}, {"type": "way", "id": 782214153, "center": {"lat": 29.5737852, "lon": 106.4602789}, "nodes": [7304223097, 7304223098, 7304223099, 7304223100, 7304223101, 7304223102, 7304223103, 7304223104, 7304223105, 7304223106, 7304223107, 7304223108, 7304223109, 7304223110, 7304223111, 7304223112, 7304223113, 7304223114, 7304223115, 7304223116, 7304223117, 7304223118, 7304223119, 7304223120, 7304223121, 7304223122, 7304223123, 7304223124, 7304223125, 7304223126, 7304223127, 7304223097], "tags": {"amenity": "school", "education": "school", "name": "重庆七中", "name:en": "Chongqing No.7 Middle School"}}, {"type": "way", "id": 806698527, "center": {"lat": 29.6384177, "lon": 106.4441604}, "nodes": [7543666140, 7543666139, 7543666138, 7543666137, 7543666136, 7543666135, 7543666134, 7543666133, 7543666132, 7543666131, 7543666130, 7543666129, 7543666128, 7543666127, 7543666126, 7543666125, 7543666124, 7543666123, 7543666122, 7543666121, 7543666120, 7543666140], "tags": {"amenity": "school", "name": "重庆市第四十六中"}}, {"type": "way", "id": 809027096, "center": {"lat": 29.5197238, "lon": 106.644688}, "nodes": [7564824575, 7564824577, 7564824578, 11813425277, 7564824579, 7564824580, 7564824581, 7564824582, 7564824583, 13000115100, 7564824584, 7564824575], "tags": {"amenity": "school", "name": "城南家园小学", "name:en": "Chengnan Jiayuan Elementary School"}}, {"type": "way", "id": 809027100, "center": {"lat": 29.518914, "lon": 106.6478088}, "nodes": [7564829994, 11381274277, 7564830002, 7564830003, 7564829996, 7564829995, 7564829994], "tags": {"amenity": "kindergarten", "name": "新城幼儿园"}}, {"type": "way", "id": 809027122, "center": {"lat": 29.5168314, "lon": 106.6462619}, "nodes": [7564830064, 7564830250, 7564830044, 7564830045, 7564830064], "tags": {"amenity": "kindergarten", "name": "诺维亚幼儿园"}}, {"type": "way", "id": 829736884, "center": {"lat": 29.5627722, "lon": 106.4593761}, "nodes": [7744295296, 7744295305, 7744295306, 7744295297, 7194981605, 7744295298, 7744295299, 7744295300, 7744295301, 7194981609, 7194993500, 7744295302, 7744295303, 7194981604, 7727498016, 7727498017, 7727498018, 7194981603, 7744295304, 7744295296], "tags": {"amenity": "school", "name": "重庆市名校联合中学"}}, {"type": "way", "id": 837377398, "center": {"lat": 29.5008133, "lon": 106.506983}, "nodes": [7815220730, 7815220731, 7815220732, 7815220733, 7815220734, 7815220735, 7815220736, 7815220737, 7815220738, 7815220739, 7815220730], "tags": {"amenity": "school", "name": "九龙坡区第一实验小学"}}, {"type": "way", "id": 848001009, "center": {"lat": 29.6759283, "lon": 106.4940164}, "nodes": [7913008289, 7913008288, 7913008287, 7913008286, 7913008285, 7913008284, 7913008283, 7913008282, 7913008289], "tags": {"amenity": "school", "name": "重庆市礼嘉中学校", "name:en": "Chongqing Lijia Secondary School"}}, {"type": "way", "id": 860227596, "center": {"lat": 29.6555204, "lon": 106.5191788}, "nodes": [8017411527, 9546676264, 11237720164, 8017411526, 11237720163, 11237720162, 11237720161, 8017411525, 8017411524, 11237720172, 11237720173, 11237720174, 8017411523, 8017411521, 11237720171, 11237720170, 11237720169, 8017411520, 8017411519, 11237720168, 11237720167, 11237720166, 8017411518, 11237720165, 8017411527], "tags": {"amenity": "school", "name": "西南大学附属中学(金州校区)"}}, {"type": "way", "id": 863637301, "center": {"lat": 29.5617741, "lon": 106.5559832}, "nodes": [2562274938, 7898924926, 2562274939, 7898924925, 8045267511, 8045267512, 8045267513, 8045267514, 8045267515, 8045267516, 8045267517, 8045267518, 8045267519, 8045267520, 8045267521, 2562274938], "tags": {"amenity": "school", "grades": "0-6", "name": "巴蜀小学", "name:en": "Bashu Primary School", "website": "http://www.cqcdbs.com/"}}, {"type": "way", "id": 863649978, "center": {"lat": 29.5565566, "lon": 106.461579}, "nodes": [8045349074, 8987410606, 8045349076, 8987410607, 9888814703, 8045349077, 8987410604, 8987410603, 8045349078, 8045349079, 8045349080, 8987410599, 8987410598, 8987417712, 8045349081, 8045349074], "tags": {"addr:district": "沙坪坝区", "addr:housenumber": "96", "addr:postcode": "400030", "addr:province": "重庆市", "addr:street": "小龙坎正街", "amenity": "school", "education": "school", "grades": "9-12", "name": "重庆八中", "name:en": "Chongqing No.8 Middle School", "name:zh": "重庆八中", "operator": "重庆市渝北区教育委员会", "operator:type": "government"}}, {"type": "way", "id": 863652713, "center": {"lat": 29.5416784, "lon": 106.6018751}, "nodes": [8045445433, 8045445434, 8045445435, 8045445436, 8045445437, 8045445438, 8795982821, 8045445439, 8045445433], "tags": {"amenity": "school", "name": "黄桷垭小学"}}, {"type": "way", "id": 863657602, "center": {"lat": 29.5232639, "lon": 106.6004893}, "nodes": [8045579977, 8045579978, 8045579979, 8045579980, 8045579981, 8045579982, 8045579983, 8045579984, 8045580985, 8045580986, 8045579977], "tags": {"amenity": "school", "name": "Xinshichang Primary School"}}, {"type": "way", "id": 863657603, "center": {"lat": 29.5166185, "lon": 106.5777741}, "nodes": [8045580987, 13013593404, 13013593403, 13013593406, 13013593405, 13013593401, 13013593402, 13013567297, 13013593407, 13013567300, 13013567299, 13013567298, 8045580989, 8045580990, 8045580987], "tags": {"amenity": "college", "name": "重庆机电工程技术学校", "name:en": "Chongqing Electromechanical Engineering School", "name:zh": "重庆机电工程技术学校"}}, {"type": "way", "id": 863657604, "center": {"lat": 29.5133883, "lon": 106.5737837}, "nodes": [8045580991, 8045580992, 8045580993, 8045580994, 8045580995, 8045580996, 8045580997, 8045580998, 8045580999, 8045581000, 8045581001, 8045581002, 4140410015, 5575376501, 4140410014, 12436851529, 12436851528, 8045580991], "tags": {"amenity": "college", "name": "重庆第二师范学院学府大道校区"}}, {"type": "way", "id": 863657605, "center": {"lat": 29.5112228, "lon": 106.571536}, "nodes": [8045581006, 8045581007, 8045581008, 8045581009, 8045581010, 8045581006], "tags": {"amenity": "school", "name": "重庆110中学", "name:en": "Chongqing No.110 Middle School", "name:zh": "重庆110中学"}}, {"type": "way", "id": 863879894, "center": {"lat": 29.5382309, "lon": 106.5433399}, "nodes": [8048154915, 13136364261, 13136364259, 13136364260, 13136364258, 8048154916, 8048154917, 8069970670, 13136364257, 13136364342, 8048154915], "tags": {"amenity": "school", "name": "重庆市南岸区南坪长江实验学校", "name:en": "Nanping Changjiang Experimental School", "name:zh": "重庆市南岸区南坪长江实验学校"}}, {"type": "way", "id": 863879896, "center": {"lat": 29.5032743, "lon": 106.6565351}, "nodes": [5340111209, 10246131971, 5340111208, 10246131962, 10246131963, 5340111207, 10246131972, 10246131973, 8629395000, 8048154924, 10246131969, 10246131970, 5340111209], "tags": {"amenity": "school", "name": "珊瑚中铁小学", "name:en": "Zhongtie Shanhu Primary School"}}, {"type": "way", "id": 863879897, "center": {"lat": 29.5095558, "lon": 106.650523}, "nodes": [8048154925, 8048154926, 11274608274, 9422236426, 11297395823, 9427128178, 9422236428, 11274608276, 11274608275, 11297395824, 8048154928, 11818689764, 8048154929, 8048154925], "tags": {"amenity": "hospital", "healthcare": "hospital", "name": "重庆东南医院", "name:en": "Chongqing Southeast Hospital"}}, {"type": "way", "id": 863879898, "center": {"lat": 29.5154881, "lon": 106.6576836}, "nodes": [8048154930, 11296633029, 9422221209, 8048154931, 9422221210, 9422236425, 9422221211, 9422221212, 8048154932, 9422236422, 9422236421, 8048154933, 9422236420, 9422236419, 9422236418, 9422236417, 9422221213, 9422221216, 8048154934, 9422221215, 9422221214, 8048154930], "tags": {"amenity": "school", "name": "长生桥中学", "name:en": "Changshengqiao High School"}}, {"type": "way", "id": 863879901, "center": {"lat": 29.5092746, "lon": 106.657538}, "nodes": [8048154945, 8048154946, 11383042075, 11383042076, 11383042077, 11383042078, 11383042079, 8048154947, 11383042074, 8048154948, 8048154949, 11383042072, 8048154950, 8048154945], "tags": {"amenity": "school", "name": "长生小学", "name:en": "Changsheng Primary School"}}, {"type": "way", "id": 863985653, "center": {"lat": 29.6012731, "lon": 106.5641026}, "nodes": [8048737936, 8048737937, 8048737938, 9421883685, 8048737939, 8048737940, 8048737941, 10110421461, 10110421462, 10110421463, 10110421460, 8048737942, 8048737943, 8048737944, 8048737945, 8048737946, 8048737936], "tags": {"amenity": "school", "name": "重庆市诚善中学校", "name:en": "Chongqing Chengshan Middle School"}}, {"type": "way", "id": 863985655, "center": {"lat": 29.6071205, "lon": 106.5666437}, "nodes": [8048737951, 9422075274, 9422075275, 9422075273, 9422075272, 8048737952, 9422075276, 8048737953, 9422075269, 9422075270, 9422075271, 8048737954, 9422075266, 9422075267, 9422075268, 8048737951], "tags": {"amenity": "school", "name": "洋河花园实验小学(头塘校区)", "name:en": "Yanghe Elementary School at Toutang", "name:zh": "洋河花园实验小学(头塘校区)"}}, {"type": "way", "id": 863985671, "center": {"lat": 29.6140764, "lon": 106.5712977}, "nodes": [8048753701, 8048753702, 8048753703, 8048753704, 8048753705, 8048753706, 8048753707, 8048753708, 8048753701], "tags": {"amenity": "school", "name": "重庆市江北区港城小学校", "name:en": "Gangcheng Primary School", "name:zh": "重庆市江北区港城小学校"}}, {"type": "way", "id": 863985679, "center": {"lat": 29.6388004, "lon": 106.5520066}, "nodes": [8048753744, 9350232694, 1996241876, 9350232693, 1996241882, 10607871894, 10607871885, 10607871896, 1996241845, 10607871895, 9350232689, 10607871897, 8048753745, 8048753746, 9350232687, 8048753747, 9350232686, 9350232685, 8048753748, 8048753749, 8048753750, 8048753752, 8048753744], "tags": {"amenity": "school", "name": "重庆为明学校", "name:en": "Chongqing Weiming School"}}, {"type": "way", "id": 863985680, "center": {"lat": 29.6378248, "lon": 106.5317466}, "nodes": [8048753753, 8048753754, 8048753755, 8048753756, 8048753753], "tags": {"amenity": "school", "education": "school", "name": "重庆两江育才中学(新校区)", "name:en": "Chongqing Liangjiang Yucai High School", "name:zh": "重庆两江育才中学(新校区)"}}, {"type": "way", "id": 863985682, "center": {"lat": 29.6381227, "lon": 106.5184554}, "nodes": [8048753761, 6898382011, 10080042778, 8048753763, 10080042777, 8048753764, 10080042775, 10080042774, 10080042776, 8048753766, 8048753761], "tags": {"amenity": "school", "name": "西大附中星辰中学", "name:en": "Xingchen Junior High School", "name:zh": "西大附中星辰中学"}}, {"type": "way", "id": 863985683, "center": {"lat": 29.645856, "lon": 106.5253904}, "nodes": [8048753767, 8048753768, 8048753769, 8048753770, 8048753771, 8048753767], "tags": {"amenity": "school", "name": "金州小学", "name:en": "Jinzhou Primary School"}}, {"type": "way", "id": 863985684, "center": {"lat": 29.6570774, "lon": 106.5316145}, "nodes": [8048753772, 10727310993, 9546957176, 10727310994, 11934203434, 11934203435, 11934203440, 11934203436, 11934203437, 11934203439, 11934203438, 11934203441, 11934203445, 8048753775, 11934203446, 11934203442, 8048753776, 10727310989, 10727310991, 10727310990, 10727310992, 8048753772], "tags": {"amenity": "college", "name": "重庆财政学校", "name:en": "Chongqing Finance School", "name:zh": "重庆财政学校"}}, {"type": "way", "id": 863985685, "center": {"lat": 29.6550055, "lon": 106.5307325}, "nodes": [8017413206, 8017413207, 8017413211, 11237731404, 11237731410, 11237731411, 11237731412, 11237731413, 11237731409, 11237731414, 8017413206], "tags": {"amenity": "school", "name": "重庆两江新区博雅小学", "name:en": "Boya Elementary School of Chongqing Liangjiang", "name:zh": "重庆两江新区博雅小学"}}, {"type": "way", "id": 863985686, "center": {"lat": 29.6672276, "lon": 106.5881976}, "nodes": [8048753781, 9550968129, 8048753782, 8048753783, 8048753784, 8048753786, 8048753787, 8048753788, 11898061474, 11898061475, 11898061476, 8048753789, 8048753790, 8048753791, 8048753792, 8701557269, 8701557270, 8048753793, 8701557271, 11898061495, 8701557272, 11898061494, 9351866481, 9351866480, 8048753794, 11898061496, 8976006899, 8976006898, 8048753795, 8976006906, 8976006910, 9351866490, 8976006909, 8976006908, 8976006905, 8701614458, 2539580963, 8976006900, 9348754531, 8048753799, 8701557300, 9351814754, 8976006901, 8976006902, 8048753801, 8976006904, 8976006903, 8048753781], "tags": {"amenity": "university", "name": "西南政法大学渝北校区", "name:en": "Southwest University of Political Science and Law at Yubei"}}, {"type": "way", "id": 863985691, "center": {"lat": 29.6614675, "lon": 106.5875257}, "nodes": [8976006910, 8976006906, 8048753828, 9351866489, 8701614461, 8976006905, 8976006908, 8976006909, 9351866490, 8976006910], "tags": {"amenity": "school", "name": "重庆两江中学", "name:en": "Chongqing Liangjiang High School"}}, {"type": "way", "id": 866009600, "center": {"lat": 29.5158337, "lon": 106.4657333}, "nodes": [8071907325, 8071907324, 8071907323, 8071907322, 8071907321, 8071907320, 8071907319, 8071907318, 8071907317, 8071907316, 8071907315, 8071907314, 8071907313, 8071907312, 8071907311, 8071907310, 8071907309, 8071907308, 8071907307, 8071907306, 8071907325], "tags": {"amenity": "school", "name": "彩云湖小学校"}}, {"type": "way", "id": 885542191, "center": {"lat": 29.6683336, "lon": 106.6642974}, "nodes": [8234620207, 8234620206, 8234620205, 8234620204, 8234620203, 8234620202, 8234620201, 8234620200, 8234620207], "tags": {"amenity": "school", "name": "渝北区玉峰山小学", "name:en": "Yubei District Yufengshan Primary School", "name:zh": "渝北区玉峰山小学"}}, {"type": "way", "id": 901710530, "center": {"lat": 29.6748232, "lon": 106.507582}, "nodes": [9329399478, 9329399479, 9329399501, 9329399500, 9329399499, 9329399498, 9329399497, 9329399496, 9329399495, 9329399494, 9329399493, 9329399492, 9329399490, 9329399491, 9329399489, 8376262300, 9329399478], "tags": {"amenity": "school", "name": "两江巴蜀中学", "name:en": "Bashu Secondary School - Liangjiang"}}, {"type": "way", "id": 925586776, "center": {"lat": 29.5997271, "lon": 106.5002622}, "nodes": [8589941770, 8589941768, 8589941765, 8589941769, 8589941815, 8589941770], "tags": {"amenity": "kindergarten", "name": "奇特乐天一幼儿园"}}, {"type": "way", "id": 925586783, "center": {"lat": 29.6005809, "lon": 106.5001956}, "nodes": [8589941809, 8589941806, 8589941804, 8589941769, 8589941815, 8589941814, 8589941807, 8589941813, 8589941808, 8589941812, 8589941811, 8589941810, 8589941809], "tags": {"amenity": "school", "name": "重庆天一新城小学", "phone": "+86 23 6757 3312"}}, {"type": "way", "id": 938069707, "center": {"lat": 29.5470664, "lon": 106.498184}, "nodes": [8690700096, 8690700095, 8690700094, 8690700093, 8690700092, 8690700091, 8690700090, 8690700089, 8690700096], "tags": {"amenity": "school", "name": "石油路小学"}}, {"type": "way", "id": 938074655, "center": {"lat": 29.5394987, "lon": 106.5005054}, "nodes": [8690743441, 8690743440, 8690743429, 8690743453, 8690743428, 8690743439, 8690743438, 8690743437, 8690743436, 8690743435, 8690743434, 8690743441], "tags": {"amenity": "hospital", "healthcare": "hospital", "name": "重庆长航医院"}}, {"type": "way", "id": 938284214, "center": {"lat": 29.5612831, "lon": 106.5296538}, "nodes": [8692560176, 8692560125, 8692560124, 8692560123, 8692560122, 8692560121, 8692560120, 8692560119, 8692560118, 8692560117, 8692559016, 8692560175, 8692560176], "tags": {"amenity": "kindergarten", "fee": "yes", "name": "鸣乔幼儿园", "name:en": "Mingqiao Kindergarten", "name:zh": "鸣乔幼儿园", "preschool": "yes"}}, {"type": "way", "id": 938284221, "center": {"lat": 29.5616427, "lon": 106.5270079}, "nodes": [8692560286, 8692560285, 8692560283, 8692560282, 8692560281, 8692560280, 8692560279, 8692560277, 8692560274, 7572678321, 12492451604, 7572678327, 7572678326, 12500722664, 12500722665, 8692560269, 12498016043, 8692560268, 8692560267, 12498016042, 8692560266, 8692560265, 8692560264, 8692560263, 8692560262, 8692560261, 8692560260, 12492427598, 8692560259, 8692560257, 8692560255, 8692560254, 12492451626, 8692560253, 8692560288, 8692560287, 8692560286], "tags": {"amenity": "university", "name": "重庆工商大学江北校区"}}, {"type": "way", "id": 939578291, "center": {"lat": 29.5551627, "lon": 106.5423306}, "nodes": [11401036644, 8703431500, 8703431501, 8703431502, 8703431503, 8703431504, 11401036643, 11401036645, 11401036646, 11401036647, 11401036648, 11401036649, 11401036644], "tags": {"amenity": "hospital", "healthcare": "hospital", "name": "第四人民医院"}}, {"type": "way", "id": 941766058, "center": {"lat": 29.5776142, "lon": 106.537889}, "nodes": [8721340244, 8721340243, 8721340242, 8721340241, 8721340240, 8721340239, 8721340236, 8721340235, 8721340234, 8721340233, 8721340232, 8721340231, 8721340230, 8721340228, 11795063835, 8721340227, 8721340226, 8721340225, 8721340224, 8721340223, 8721340222, 8721340221, 8721340220, 8721340219, 8721340218, 8721340217, 8721323216, 8721323215, 8721323214, 8721323213, 8721323212, 8721340244], "tags": {"amenity": "school", "education": "school", "name": "重庆市第十八中学(观音桥校区)", "phone": "+86 23 6772 4715"}}, {"type": "way", "id": 950129569, "center": {"lat": 29.5362487, "lon": 106.5968657}, "nodes": [8795983615, 2562285955, 8795982645, 2562285953, 8795982644, 8795983528, 8795983529, 8795983530, 8795983531, 8795983532, 8795983533, 8795983534, 8795983535, 8795983536, 8795983537, 8795983538, 8795983539, 8795983540, 8795983541, 8795983542, 8795983543, 8795983544, 8795983545, 8795983546, 8795983547, 8795983548, 8795983549, 8795983550, 8795983551, 8795983552, 8795983553, 8795983554, 8795983555, 8795983556, 8795983557, 8795983558, 8795983559, 8795983560, 8795983561, 8795983562, 8795983563, 8795983564, 8795983565, 8795983566, 8795983567, 8795983568, 8795983569, 8795983570, 8795983571, 8795983572, 8795983573, 8795983574, 8795983575, 8795983576, 8795983577, 8795983578, 8795983579, 8795983580, 8795983581, 8795983582, 8795983583, 8795983584, 8795983585, 8795983586, 8795983587, 8795983588, 8795983589, 8795983590, 8795983591, 8795983592, 8795983593, 8795983594, 8795983595, 8795983596, 8795983597, 8795983598, 8795983599, 8795983600, 8795983601, 8795983602, 8795983603, 8795983604, 8795983605, 8795983606, 8795983607, 8795983608, 8795983609, 8795983610, 8795983611, 8795983612, 8795983613, 8795983614, 8795983615], "tags": {"amenity": "school", "name": "广益中学", "name:en": "Guangyi High School"}}, {"type": "way", "id": 950134128, "center": {"lat": 29.5452977, "lon": 106.5932701}, "nodes": [8796014831, 8796014830, 8796014829, 8796014828, 8796014827, 8796014826, 8796014825, 8796014824, 8796014823, 8796014822, 8796014821, 8796014820, 8796014819, 8796014831], "tags": {"amenity": "school", "name": "重庆航运旅游学校"}}, {"type": "way", "id": 950173507, "center": {"lat": 29.564918, "lon": 106.5797412}, "nodes": [8796311466, 8796311465, 8796311464, 8796311462, 8796311461, 8796311460, 8796311459, 8796311458, 8796311457, 8796311466], "tags": {"amenity": "kindergarten", "name": "红岩幼儿园(朝天门隧道)"}}, {"type": "way", "id": 950179345, "center": {"lat": 29.5624683, "lon": 106.5836341}, "nodes": [8796379156, 8796379155, 8796379154, 8796379153, 8796379152, 8796379151, 8796379150, 8796379156], "tags": {"amenity": "school", "name": "东水门小学"}}, {"type": "way", "id": 951328292, "center": {"lat": 29.5653738, "lon": 106.532144}, "nodes": [8805506115, 8805612117, 8805612118, 8805612119, 8805612120, 8805612121, 8805612122, 8805612123, 12394028143, 8805612124, 12394028142, 8805612125, 8805612126, 8805612127, 8805506115], "tags": {"amenity": "school", "name": "华新实验小学（福宁村校区）", "name:en": "Huaxin Experimental Primary School (Fu'ningcun Campus)", "name:zh": "华新实验小学（福宁村校区）"}}, {"type": "way", "id": 951637959, "center": {"lat": 29.5632, "lon": 106.5665295}, "nodes": [8808386874, 8808386873, 8808386872, 8808386871, 8808386870, 8808386881, 8808386869, 8808386868, 8808386874], "tags": {"amenity": "kindergarten", "name": "渝中区实验幼儿园"}}, {"type": "way", "id": 964684384, "center": {"lat": 29.5809049, "lon": 106.5699973}, "nodes": [8923219749, 8923219748, 8923219747, 8923219746, 8923219745, 8923219742, 8923219740, 8923219739, 8923219738, 8923219737, 8923221417, 8923221418, 8923219735, 8923219734, 8923219749], "tags": {"amenity": "school", "name": "江北嘴实验学校"}}, {"type": "way", "id": 974637152, "center": {"lat": 29.5578574, "lon": 106.5652945}, "nodes": [9019880997, 9019880998, 9019880999, 9019881000, 9019881001, 9019881003, 9019881005, 12748037026, 9019880997], "tags": {"amenity": "school", "name": "中华路小学", "name:zh": "中华路小学"}}, {"type": "way", "id": 979796698, "center": {"lat": 29.5705164, "lon": 106.4585804}, "nodes": [9063914133, 9063914134, 9063914135, 9063914136, 9063914137, 9063914138, 9063914139, 9063914140, 9063914141, 9063914142, 9063914133], "tags": {"amenity": "hospital", "healthcare": "hospital", "name": "校医院"}}, {"type": "way", "id": 993252417, "center": {"lat": 29.5590445, "lon": 106.5557973}, "nodes": [9176343802, 9176343803, 9176343804, 9176343805, 9176343806, 9176343807, 9176343808, 9176343809, 9176359917, 9176343816, 9176343812, 9176343813, 9176343811, 9176343814, 9176343810, 9176343815, 9176343802], "tags": {"amenity": "hospital", "healthcare": "hospital", "name": "重庆人民医院", "name:en": "Chongqing General Hospital"}}, {"type": "way", "id": 1004918337, "center": {"lat": 29.5370694, "lon": 106.6057299}, "nodes": [9271772704, 9271772705, 9271772706, 9271772707, 9271772704], "tags": {"amenity": "college", "name": "体育学院"}}, {"type": "way", "id": 1006021519, "center": {"lat": 29.5223589, "lon": 106.5106758}, "nodes": [9281979152, 9281979153, 9281979154, 9281979155, 9281979156, 9281979157, 9281979158, 9281979159, 9281979160, 9281979161, 9281979162, 9281979163, 9281979164, 9281979165, 9281979166, 9281979167, 9281979168, 9281979169, 9281979170, 9281979171, 9281979172, 9281979173, 9281979174, 9281979175, 9281979176, 9281979177, 9281979178, 9281979179, 9281979180, 9281979181, 9281979152], "tags": {"amenity": "school", "name": "重庆育才中学"}}, {"type": "way", "id": 1006024391, "center": {"lat": 29.5207711, "lon": 106.5127145}, "nodes": [9282000788, 9282000789, 9282000790, 9282000791, 9282000792, 9282000798, 9282000793, 9282000794, 9282000795, 9282000796, 9282000797, 9282000788], "tags": {"amenity": "kindergarten", "name": "谢家湾幼儿园"}}, {"type": "way", "id": 1006325725, "center": {"lat": 29.5213535, "lon": 106.5033063}, "nodes": [9284699468, 9284699469, 9284699470, 9284699471, 9284699472, 9284699473, 9284699474, 9284699475, 9284699476, 9284699477, 9284699478, 9284699479, 9284699480, 9284699481, 9284699482, 9284699483, 9284699484, 9284699468], "tags": {"amenity": "school", "name": "重庆育才成功学校"}}, {"type": "way", "id": 1006325760, "center": {"lat": 29.5213482, "lon": 106.5046378}, "nodes": [9284699597, 9284699598, 9284699599, 9284699600, 9284699601, 9284699610, 9284699602, 9284699603, 9284699604, 9284699605, 9284699597], "tags": {"amenity": "school", "name": "杨石路小学"}}, {"type": "way", "id": 1007283965, "center": {"lat": 29.5037939, "lon": 106.4851641}, "nodes": [9292769748, 9292769752, 9292769753, 9292769754, 9292769755, 9292769756, 9292769757, 9292769758, 9292769841, 9292769759, 9292769746, 9292769747, 9292769748], "tags": {"amenity": "school", "name": "重庆育才成功学校九龙园校区"}}, {"type": "way", "id": 1008124886, "center": {"lat": 29.5108517, "lon": 106.4909421}, "nodes": [9300544746, 9300544747, 9300544748, 9300544749, 9559650758, 9300544750, 9300544746], "tags": {"amenity": "school", "name": "蟠龙小学"}}, {"type": "way", "id": 1009234189, "center": {"lat": 29.5189171, "lon": 106.4739555}, "nodes": [9311854696, 9311854743, 9311854715, 9311854716, 9311854717, 9311854718, 9311854697, 9311854696], "tags": {"amenity": "school", "name": "重庆市杨家坪中学（彩云湖校区）"}}, {"type": "way", "id": 1009787851, "center": {"lat": 29.5145963, "lon": 106.4739148}, "nodes": [9316957739, 9316957740, 9316957741, 9316957742, 9316957743, 9316957744, 9316957739], "tags": {"amenity": "kindergarten"}}, {"type": "way", "id": 1011190711, "center": {"lat": 29.6694467, "lon": 106.5995042}, "nodes": [9329169713, 9329169714, 9329169715, 9329169716, 9329293417, 9329293418, 9329169713], "tags": {"amenity": "school", "grades": "1-6", "name": "玫瑰城小学"}}, {"type": "way", "id": 1011268587, "center": {"lat": 29.5151352, "lon": 106.5029695}, "nodes": [9330130857, 9330130858, 9330130859, 9330130860, 9330130861, 9330130862, 9330130863, 9330130826, 9330130857], "tags": {"amenity": "kindergarten", "name": "琦琦幼儿园"}}, {"type": "way", "id": 1011268588, "center": {"lat": 29.5146005, "lon": 106.502397}, "nodes": [9330130863, 9330130826, 9344058935, 9330130825, 9300544835, 9330130864, 9330130865, 9330130866, 9330130867, 9330130868, 9330130869, 9330130870, 9330130871, 9344059118, 9330130872, 9330130873, 9343932827, 9330130874, 9330130863], "tags": {"amenity": "school", "name": "杨家坪小学"}}, {"type": "way", "id": 1011268592, "center": {"lat": 29.5135771, "lon": 106.5001218}, "nodes": [9330130883, 9330130884, 9330130885, 9330130886, 9330130887, 9330130888, 9330130889, 9330130890, 9330130891, 9345455367, 9330130892, 9330130883], "tags": {"amenity": "school", "name": "重庆杨家坪中学B区"}}, {"type": "way", "id": 1012807408, "center": {"lat": 29.5125207, "lon": 106.5014711}, "nodes": [9344059121, 9344059132, 9344059133, 9344059134, 9344059135, 9344059125, 9344059124, 9344059123, 9344059122, 9344059121], "tags": {"amenity": "hospital", "healthcare": "hospital", "name": "重庆市九龙坡区第一人民医院"}}, {"type": "way", "id": 1013300477, "center": {"lat": 29.6825858, "lon": 106.5973448}, "nodes": [9348576707, 9348576708, 9348576709, 9348576710, 9348576711, 9348576712, 2545041293, 2545041417, 2545041356, 2545041176, 2545041196, 2545041169, 2545041514, 9348576707], "tags": {"amenity": "college", "name": "西南政法大学（宝圣湖校区）"}}, {"type": "way", "id": 1013329926, "center": {"lat": 29.6789085, "lon": 106.6104915}, "nodes": [9348836555, 9348836572, 9348836557, 9348836556, 9348836555], "tags": {"amenity": "kindergarten", "name": "吉的堡幼儿园"}}, {"type": "way", "id": 1013341714, "center": {"lat": 29.5175637, "lon": 106.5188151}, "nodes": [9348967781, 13572479567, 13572479566, 13572479565, 13572479564, 13572479563, 13572479562, 13572479561, 9348967782, 9348967783, 13572476383, 13572476382, 9348967784, 9348967785, 9348967781], "tags": {"amenity": "school", "name": "华润谢家湾小学"}}, {"type": "way", "id": 1013341723, "center": {"lat": 29.5220463, "lon": 106.5176211}, "nodes": [9348974123, 9348974124, 9348974125, 9348974126, 9348974127, 9348974123], "tags": {"amenity": "kindergarten", "name": "吉的堡华润幼儿园"}}, {"type": "way", "id": 1013463799, "center": {"lat": 29.6288231, "lon": 106.5484544}, "nodes": [9350232697, 9350232708, 9350232698, 9350232699, 9350232700, 9350232701, 9350232697], "tags": {"amenity": "school", "name": "重庆礼嘉中学（金童校区）"}}, {"type": "way", "id": 1013463807, "center": {"lat": 29.6273937, "lon": 106.5513821}, "nodes": [9350251818, 9350251839, 9350251840, 9350251841, 9350251842, 9350232714, 9350251818], "tags": {"amenity": "kindergarten", "name": "早慧松龙幼儿园"}}, {"type": "way", "id": 1013468683, "center": {"lat": 29.6193877, "lon": 106.5415031}, "nodes": [9350266999, 9350267000, 9350267001, 9350267002, 9350267003, 9350266999], "tags": {"amenity": "school", "name": "重庆两江新区童心花园小学"}}, {"type": "way", "id": 1013632874, "center": {"lat": 29.6737866, "lon": 106.5918966}, "nodes": [9351814744, 9351814749, 9351814750, 9351814742, 9351814743, 9351814744], "tags": {"amenity": "school", "name": "渝北区金鹏实验小学"}}, {"type": "way", "id": 1013638088, "center": {"lat": 29.6650269, "lon": 106.5762561}, "nodes": [9351859079, 9351859080, 9351859081, 9351859082, 9351859083, 9351859084, 9351859085, 9351859086, 11898061488, 9351859079], "tags": {"amenity": "school", "name": "重庆八中两江金溪中学"}}, {"type": "way", "id": 1013638090, "center": {"lat": 29.664626, "lon": 106.5777219}, "nodes": [9351859086, 9351859091, 9351859092, 9351859084, 9351859085, 9351859086], "tags": {"amenity": "school"}}, {"type": "way", "id": 1014210857, "center": {"lat": 29.6095489, "lon": 106.4966788}, "nodes": [9356989604, 13461888454, 9356989598, 9356989599, 9356989600, 9356989601, 9356989605, 13461888453, 13461888452, 9356989602, 9356989616, 9356989603, 9356989604], "tags": {"amenity": "school", "name": "重庆两江新区星光学校"}}, {"type": "way", "id": 1014508575, "center": {"lat": 29.5948878, "lon": 106.4966835}, "nodes": [9359730995, 9359730997, 9359730998, 9359730999, 9359730983, 9359730984, 9359730985, 9359730986, 9359730994, 9359730995], "tags": {"amenity": "school"}}, {"type": "way", "id": 1014521014, "center": {"lat": 29.5947852, "lon": 106.4998648}, "nodes": [9359836655, 9359836656, 9359836657, 9359836658, 9359836659, 9359836660, 9359836655], "tags": {"amenity": "school", "name": "渝北区东和春天实验学校"}}, {"type": "way", "id": 1014521017, "center": {"lat": 29.5974008, "lon": 106.5013622}, "nodes": [9359836668, 9359836669, 9359836683, 9359836670, 9359836668], "tags": {"amenity": "hospital", "healthcare": "hospital", "name": "重庆医科大学附属口腔医院"}}, {"type": "way", "id": 1014563143, "center": {"lat": 29.5969478, "lon": 106.4880228}, "nodes": [9360297821, 9360297822, 9360297823, 9360297824, 9360297825, 9360297821], "tags": {"amenity": "school", "name": "松树桥中学（B区）"}}, {"type": "way", "id": 1014970478, "center": {"lat": 29.5882079, "lon": 106.4967034}, "nodes": [5595526254, 9363010980, 9363010981, 9363010995, 9363010982, 5595526248, 5595526254], "tags": {"amenity": "school", "name": "松树桥中学"}}, {"type": "way", "id": 1015015111, "center": {"lat": 29.5995797, "lon": 106.4749636}, "nodes": [9363420583, 9363420584, 9363420585, 9363445779, 9363420586, 9363420587, 9363420588, 9363420589, 9363445838, 9363445837, 11741328494, 11741328495, 11741328493, 11741328472, 11741328492, 9363420590, 9363420591, 9363420592, 9363420593, 9363420583], "tags": {"amenity": "school", "name": "江北区玉带山小学（北区）和重庆字水中学（北区）"}}, {"type": "way", "id": 1015015137, "center": {"lat": 29.6011357, "lon": 106.4780867}, "nodes": [9363445846, 9363445968, 9363445852, 9363445849, 9363445848, 9363445847, 9363445846], "tags": {"amenity": "kindergarten", "name": "爱贝贝幼儿园（源著北区校区）"}}, {"type": "way", "id": 1015407054, "center": {"lat": 29.6672952, "lon": 106.6034889}, "nodes": [9366784655, 9366784656, 9366784657, 9366784658, 9366784659, 9366784660, 13543439667, 13543439666, 9366784661, 13543439665, 13543439664, 13543439663, 9366784662, 13543439662, 13543439661, 13543439660, 9366784663, 13543439659, 13543439658, 13543439657, 13543439656, 13543439655, 9366784664, 9366784666, 9366784667, 13543439635, 13543439641, 9366784668, 13543439636, 9366784669, 9366784670, 9366784671, 9366784672, 9366784674, 9366784675, 9366784676, 9366784677, 9366784678, 13543439670, 13543439669, 13543439668, 9366784679, 9366784655], "tags": {"amenity": "college", "education": "college", "name": "重庆外语外事学院（两江校区）", "name:en": "Chongqing Institute of Foreign Studies (Liangjiang Campus)", "name:zh": "重庆外语外事学院（两江校区）"}}, {"type": "way", "id": 1015407055, "center": {"lat": 29.6695067, "lon": 106.6045712}, "nodes": [9366784680, 9366784681, 9366784682, 9366784683, 9366784680], "tags": {"amenity": "kindergarten"}}, {"type": "way", "id": 1015407056, "center": {"lat": 29.6740694, "lon": 106.605541}, "nodes": [9366784684, 9366784685, 9366784686, 9380881546, 9366784687, 9366784684], "tags": {"amenity": "school", "grades": "7-12"}}, {"type": "way", "id": 1018942894, "center": {"lat": 29.5138897, "lon": 106.6789486}, "nodes": [9398199812, 9398199813, 9398199814, 9398213069, 9398199815, 9398213068, 9398213067, 9398213066, 9398199816, 9398213017, 9398199812], "tags": {"amenity": "school", "name": "江南水岸小学"}}, {"type": "way", "id": 1018942914, "center": {"lat": 29.5163618, "lon": 106.6758416}, "nodes": [9398213092, 9398213093, 9398213094, 9398213095, 9398213096, 9398213097, 9398213098, 9398213099, 9398213100, 9398213101, 9398213102, 9398213092], "tags": {"amenity": "school", "name": "江南广茂小学"}}, {"type": "way", "id": 1020176796, "center": {"lat": 29.4900773, "lon": 106.4627389}, "nodes": [9409172111, 9409183103, 9409172112, 9409183110, 9409172113, 9409172114, 9409172115, 9409172116, 9409172111], "tags": {"amenity": "school", "name": "重庆市巴渝学校"}}, {"type": "way", "id": 1020176813, "center": {"lat": 29.4956714, "lon": 106.4616784}, "nodes": [9409182967, 9409182968, 9409182969, 9409182970, 9409182971, 9409182967], "tags": {"amenity": "school", "name": "双山实验小学"}}, {"type": "way", "id": 1020176833, "center": {"lat": 29.4910669, "lon": 106.4634066}, "nodes": [9409183105, 9409183107, 9409172111, 9409183103, 9409183104, 9409183105], "tags": {"amenity": "kindergarten", "name": "3之3幼儿园"}}, {"type": "way", "id": 1020176834, "center": {"lat": 29.490708, "lon": 106.4610572}, "nodes": [9411780340, 9411780366, 9411780367, 9409183109, 9411780342, 9411780326, 9411780327, 9411780340], "tags": {"amenity": "kindergarten", "name": "伟才国际幼儿园"}}, {"type": "way", "id": 1020188489, "center": {"lat": 29.4908774, "lon": 106.4716799}, "nodes": [9409292009, 9409292010, 9409292011, 9409292012, 9409292013, 9409292014, 9409292015, 9409292016, 9409294717, 9409292009], "tags": {"amenity": "school", "name": "育才小学（双山校区）"}}, {"type": "way", "id": 1021029270, "center": {"lat": 29.5260844, "lon": 106.4632246}, "nodes": [9417075066, 9417075075, 9417075067, 9417075068, 9417075069, 9417075070, 9417075071, 10767576791, 9417075072, 10767576790, 10767576789, 9417075073, 9417075066], "tags": {"amenity": "school", "name": "重庆市六十五中学"}}, {"type": "way", "id": 1021402841, "center": {"lat": 29.6041582, "lon": 106.5501845}, "nodes": [9420354222, 9420354223, 9420354224, 9420354225, 9420354226, 9420354227, 9420354228, 9420354222], "tags": {"amenity": "school", "name": "天宫殿小学"}}, {"type": "way", "id": 1021402865, "center": {"lat": 29.6044127, "lon": 106.5512904}, "nodes": [9420354224, 9420354280, 9420354281, 9420354222, 9420354223, 9420354224], "tags": {"amenity": "hospital", "healthcare": "hospital", "name": "重庆北济医院"}}, {"type": "way", "id": 1021402876, "center": {"lat": 29.6066839, "lon": 106.5530082}, "nodes": [9420354355, 9420354356, 9420354357, 9420354358, 9420354355], "tags": {"amenity": "police", "building": "yes", "name": "重庆市公安局北部新区分局天宫殿派出所", "operator": "中华人民共和国公安部", "operator:en": "Ministry of Public Security", "operator:wikidata": "Q2346285", "operator:wikipedia": "zh:中华人民共和国公安部", "operator:zh": "中华人民共和国公安部"}}, {"type": "way", "id": 1021402890, "center": {"lat": 29.6019329, "lon": 106.5516569}, "nodes": [9420354472, 9420354473, 9420354470, 9420354460, 9420354459, 9420354472], "tags": {"amenity": "kindergarten", "name": "龙城国际小金星幼儿园"}}, {"type": "way", "id": 1021584357, "center": {"lat": 29.5993704, "lon": 106.5602023}, "nodes": [9422074994, 9422074995, 9422074996, 9422074997, 9422074998, 9422075001, 9422074999, 9422075000, 9422074994], "tags": {"amenity": "kindergarten", "name": "巴蜀鲁能第二幼儿园"}}, {"type": "way", "id": 1021584364, "center": {"lat": 29.5941252, "lon": 106.5630577}, "nodes": [9422075044, 9422075045, 9422075046, 9422075047, 9422075048, 12734041551, 9422075049, 9422075050, 12734041550, 9422075051, 9422075052, 12734041549, 12734041547, 9422075053, 12734041548, 12734041552, 9422075054, 9422075063, 9422075064, 9422075065, 9422075066, 9422075067, 9422075068, 9422075069, 9422075070, 9422075071, 9422075044], "tags": {"amenity": "school", "name": "重庆巴川量子学校"}}, {"type": "way", "id": 1021584382, "center": {"lat": 29.602412, "lon": 106.56661}, "nodes": [9422075284, 9422075285, 9422075286, 9422075287, 9422075288, 9422075284], "tags": {"amenity": "hospital", "healthcare": "hospital", "name": "重庆康心医院"}}, {"type": "way", "id": 1021613183, "center": {"lat": 29.5218696, "lon": 106.6503035}, "nodes": [9422197104, 9422296827, 9422296828, 9422296829, 9422197102, 9422197103, 9422197104], "tags": {"amenity": "kindergarten", "name": "小小藤幼儿园"}}, {"type": "way", "id": 1021647932, "center": {"lat": 29.5154003, "lon": 106.6464472}, "nodes": [9422632854, 9422632855, 9422632856, 9422632857, 9422632858, 9422632859, 9422632854], "tags": {"amenity": "school", "name": "南岸区广福未来学校"}}, {"type": "way", "id": 1022188352, "center": {"lat": 29.4945951, "lon": 106.558978}, "nodes": [9427478686, 9427492948, 9427478687, 9427478688, 9427478689, 9427478690, 9427478691, 9427478692, 9427478701, 9427478686], "tags": {"amenity": "school", "name": "南坪实验外国语小学"}}, {"type": "way", "id": 1022188353, "center": {"lat": 29.4958192, "lon": 106.5589902}, "nodes": [9427478686, 9427492947, 9427492965, 9427492962, 9427478693, 9427478694, 9427478695, 9427478696, 9427478697, 9427478698, 9427478699, 9427478700, 9427478701, 9427478686], "tags": {"amenity": "school", "name": "观塘中学"}}, {"type": "way", "id": 1022566458, "center": {"lat": 29.4713014, "lon": 106.5068118}, "nodes": [9430948711, 9432507700, 9430948712, 9430948713, 9430948714, 9430948715, 9430948716, 9430948717, 9430948718, 9430948750, 9430948719, 9430948720, 9430948721, 9430948722, 9430948723, 9430948724, 9430948725, 9430948726, 9430948727, 9430948728, 9430948711], "tags": {"amenity": "school", "name": "融汇清华实验中学校"}}, {"type": "way", "id": 1022566469, "center": {"lat": 29.4714704, "lon": 106.5096853}, "nodes": [9430948888, 9430948889, 9429944586, 9429944600, 9430948887, 9430948888], "tags": {"amenity": "kindergarten", "name": "融汇大地幼儿园"}}, {"type": "way", "id": 1022758798, "center": {"lat": 29.4703649, "lon": 106.5114652}, "nodes": [9432611054, 9432611055, 9432611056, 9432611057, 9432611058, 9432611059, 9432611060, 9432611061, 9432611062, 9432611063, 9432611064, 9432611054], "tags": {"amenity": "school", "name": "融汇小学"}}, {"type": "way", "id": 1022758816, "center": {"lat": 29.4678839, "lon": 106.5047863}, "nodes": [9432611149, 9432611150, 9432611151, 9432611152, 9432611153, 9432611154, 9432611155, 9432611156, 9432611157, 9432611158, 9432611149], "tags": {"amenity": "school", "education": "school", "name": "鱼洞二小(昕晖校区)"}}, {"type": "way", "id": 1023298982, "center": {"lat": 29.5392499, "lon": 106.4484506}, "nodes": [9436814527, 9436814528, 9436814529, 9436814530, 9436814531, 9436814534, 9436814542, 11516814978, 11516814979, 11516814980, 11516814981, 9436814556, 9436814557, 9436814558, 9436814559, 9436814560, 9436814561, 9436814562, 9436814563, 9436814564, 9436814565, 9436814566, 9436814567, 9436814568, 9436814569, 9436814570, 9436814571, 9436814572, 9436814573, 9436814574, 9436814575, 9436814576, 9436814577, 9436814578, 9436814579, 9436814580, 9436814581, 9436814582, 9436814583, 9436814584, 9436814585, 9436814586, 9436814587, 9436814588, 9436814589, 9436814590, 9436814591, 9436814592, 9436814593, 9436814594, 9436814595, 9436814596, 9436814597, 9436814598, 9436814527], "tags": {"alt_name": "陆军军医大学西南医院;重庆西南医院", "amenity": "hospital", "emergency": "yes", "healthcare": "hospital", "name": "西南医院", "name:en": "Southwest Hospital", "name:zh": "西南医院", "official_name": "陆军军医大学第一附属医院", "official_name:en": "The First Affiliated Hospital of Army Medical University", "official_name:zh": "陆军军医大学第一附属医院", "operator": "陆军军医大学", "operator:type": "university", "operator:wikidata": "Q7784898"}}, {"type": "way", "id": 1025797978, "center": {"lat": 29.5557106, "lon": 106.5658596}, "nodes": [9457777476, 9457777477, 9457777478, 9457777479, 9457777480, 9457777481, 9457777476], "tags": {"addr:city": "重庆", "addr:district": "渝中区", "addr:housenumber": "9号", "addr:street": "管家巷", "amenity": "police", "building": "yes", "name": "渝中区公安局", "operator": "中华人民共和国公安部", "operator:en": "Ministry of Public Security", "operator:wikidata": "Q2346285", "operator:wikipedia": "zh:中华人民共和国公安部", "operator:zh": "中华人民共和国公安部"}}, {"type": "way", "id": 1026012252, "center": {"lat": 29.6465451, "lon": 106.4843553}, "nodes": [9459648571, 9459648570, 9459648568, 9459648573, 9459648569, 9459648566, 10539808736, 9459648567, 10539808735, 9459648571], "tags": {"amenity": "school", "name": "华东师范大学附属中旭学校"}}, {"type": "way", "id": 1027621642, "center": {"lat": 29.4953548, "lon": 106.4405403}, "nodes": [9473511953, 4876229234, 9468125765, 9468125739, 9473511955, 9473511957, 9473511958, 9473511959, 9473535270, 9473511960, 9473511961, 9473535259, 9473535257, 9473511962, 9473511963, 9473511964, 9473511965, 9473511966, 9473512003, 9473511967, 9473511998, 9473512014, 9473512011, 9473512004, 9473511953], "tags": {"amenity": "college", "name": "重庆佛学院"}}, {"type": "way", "id": 1028280294, "center": {"lat": 29.5327688, "lon": 106.4826597}, "nodes": [4377191350, 12261199131, 12261199130, 9480246400, 12261199120, 12261199121, 9480246401, 9480246404, 9480246406, 4377191345, 4377191350], "tags": {"amenity": "university", "name": "重庆开放大学（石桥铺校区）"}}, {"type": "way", "id": 1028949863, "center": {"lat": 29.493097, "lon": 106.6490386}, "nodes": [9486198095, 11178949707, 9486198097, 9486198098, 11178949706, 9486198099, 11178949704, 9486198105, 11297337432, 9486198106, 11297337433, 11297337434, 9486198108, 9486198112, 9486198113, 11178949723, 9486198114, 9486198095], "tags": {"amenity": "school", "name": "香溪小学"}}, {"type": "way", "id": 1035581319, "center": {"lat": 29.460426, "lon": 106.442194}, "nodes": [9540309745, 9540309748, 9540309749, 9540309750, 9540309746, 9540290612, 9540290611, 9540309745], "tags": {"amenity": "hospital", "healthcare": "hospital", "name": "友方医院"}}, {"type": "way", "id": 1035908448, "center": {"lat": 29.5138107, "lon": 106.4911953}, "nodes": [9544306156, 9544306157, 9544306158, 9544306159, 9544306160, 9544306161, 9544306162, 10653988594, 10653988595, 9544306163, 10653988596, 9544306164, 9544306165, 9544306166, 9544306167, 9544306170, 9544306169, 9544306168, 9544306156], "tags": {"amenity": "school", "name": "重庆外国语学校森林小学彩云湖校区"}}, {"type": "way", "id": 1036182336, "center": {"lat": 29.5300143, "lon": 106.5722004}, "nodes": [9546570636, 9546570637, 9546570638, 9546570639, 9546570640, 9546570641, 9546570642, 9546570636], "tags": {"amenity": "school", "name": "南坪实验小学(康德校区)"}}, {"type": "way", "id": 1036209814, "center": {"lat": 29.6579519, "lon": 106.518641}, "nodes": [9546676290, 9546771821, 9546771820, 11237731374, 11237731373, 11237731372, 9546771814, 11237731371, 11237731370, 11237731369, 9546771815, 9546771816, 9546771817, 9546771818, 9546771819, 6898382289, 9546676290], "tags": {"amenity": "school", "name": "重庆两江新区人民小学"}}, {"type": "way", "id": 1037881240, "center": {"lat": 29.5102956, "lon": 106.4920447}, "nodes": [9559650758, 9300544749, 9544306216, 9559650759, 9559650881, 9559650758], "tags": {"amenity": "kindergarten", "name": "春天里幼儿园"}}, {"type": "way", "id": 1057490703, "center": {"lat": 29.4965253, "lon": 106.4585733}, "nodes": [9716955670, 9716955676, 9716955677, 9716955668, 9716955669, 9716955670], "tags": {"amenity": "kindergarten"}}, {"type": "way", "id": 1057490713, "center": {"lat": 29.4940031, "lon": 106.4592819}, "nodes": [9716975749, 9716975750, 9716975751, 9716975752, 9716975753, 9716975754, 9716975755, 9716975756, 9716975757, 9716975749], "tags": {"amenity": "school", "name": "公路运输公司汽车驾校"}}, {"type": "way", "id": 1063626666, "center": {"lat": 29.6218555, "lon": 106.6467914}, "nodes": [9769823182, 9769823183, 9769823184, 9769823185, 9769823186, 9769823187, 9769823188, 9769823189, 9769823190, 9769823182], "tags": {"amenity": "school", "name": "观音桥小学五里坪校区"}}, {"type": "way", "id": 1068202723, "center": {"lat": 29.621079, "lon": 106.6668772}, "nodes": [9806303836, 9806303837, 9806303838, 9806303839, 9806303840, 9806303841, 9806303842, 9806303843, 9806303844, 9806303845, 9806303846, 9806303847, 9806303848, 9806303849, 9806303836], "tags": {"amenity": "school", "name": "胜利村小学"}}, {"type": "way", "id": 1068202725, "center": {"lat": 29.6175156, "lon": 106.6699897}, "nodes": [9806303864, 9806303865, 9806303881, 9806303866, 10057703661, 9806303867, 10057703662, 9806303868, 10057703663, 9806303869, 9806303882, 9806303883, 9806303870, 9806303871, 9806303872, 9806303873, 9806303874, 9806303875, 9806303876, 9806303877, 9806303878, 9806303879, 9806303880, 9806303864], "tags": {"amenity": "school", "name": "重庆市女子职业高级中学"}}, {"type": "way", "id": 1072038329, "center": {"lat": 29.63282, "lon": 106.4365786}, "nodes": [9836759097, 13114608873, 9836759098, 9836759100, 13114608876, 13114608877, 9836759101, 9836759102, 13114608875, 9836759107, 9836759103, 9836759104, 9836759105, 9836759106, 13114608874, 9836759097], "tags": {"amenity": "hospital", "healthcare": "hospital", "name": "重庆市沙坪坝区人民医院（井双院区）"}}, {"type": "way", "id": 1073841941, "center": {"lat": 29.6286002, "lon": 106.4624663}, "nodes": [9850230551, 9850230552, 9850230553, 7543762802, 7543762801, 7543762800, 7543762799, 7543762798, 7543762797, 7543762796, 7543762795, 9850230554, 9850230555, 9850230556, 9850230557, 9850230558, 9850230559, 9850230560, 9850230551], "tags": {"amenity": "school", "name": "重庆电子科技职业大学两江校区"}}, {"type": "way", "id": 1076617376, "center": {"lat": 29.533439, "lon": 106.5431225}, "nodes": [4142048846, 9872645182, 4142048827, 9872645140, 4142048826, 9872645139, 4142048825, 4142048847, 4142048846], "tags": {"amenity": "school", "name": "川益小学"}}, {"type": "way", "id": 1082244695, "center": {"lat": 29.5173575, "lon": 106.4963077}, "nodes": [9918471591, 9918502706, 9918502708, 9918471592, 9918502709, 9918502710, 9918471593, 9918502711, 9918502713, 9918471594, 9918502712, 9918502715, 9918471595, 9918502714, 9918502751, 9918502707, 9918471591], "tags": {"amenity": "kindergarten", "name": "金德凯顿幼儿园"}}, {"type": "way", "id": 1082244747, "center": {"lat": 29.5129644, "lon": 106.4938331}, "nodes": [9918502664, 9918502665, 9918502666, 9918502664], "tags": {"amenity": "kindergarten", "name": "博苑幼儿园"}}, {"type": "way", "id": 1082368018, "center": {"lat": 29.5179389, "lon": 106.449345}, "nodes": [9919649439, 9919649440, 9919649441, 9919649442, 9919649443, 9919649444, 9919649445, 9919649439], "tags": {"amenity": "kindergarten"}}, {"type": "way", "id": 1089392810, "center": {"lat": 29.4522909, "lon": 106.4426896}, "nodes": [9979253146, 12659524401, 12659524400, 12659524399, 9979253151, 12659524398, 12659524397, 9979253152, 9979253153, 9979253154, 9979253155, 9979253156, 9979253157, 9979253158, 9979253142, 9979253143, 9979253144, 9979253146], "tags": {"amenity": "school", "name": "重庆行知育才学校"}}, {"type": "way", "id": 1098731508, "center": {"lat": 29.5001825, "lon": 106.4494045}, "nodes": [10060182702, 10060182703, 10060182704, 10060182705, 10060182706, 10060182707, 10060182708, 10060182709, 10060182710, 10060182711, 10060182712, 10060182716, 10060182715, 10060182713, 10060182702], "tags": {"amenity": "university", "name": "重庆开放大学"}}, {"type": "way", "id": 1101495344, "center": {"lat": 29.6388195, "lon": 106.5057523}, "nodes": [10080076688, 10080076689, 10080076690, 12749367456, 10080076691, 10080076692, 10080076693, 12749367455, 10080076694, 10080076695, 10080076696, 10080076697, 10080076698, 10080076699, 10080076688], "tags": {"amenity": "school", "name": "重庆两江新区星湖学校"}}, {"type": "way", "id": 1101495345, "center": {"lat": 29.6380672, "lon": 106.504364}, "nodes": [10080076701, 12749367465, 10080076702, 10080076703, 10080076704, 10080076701], "tags": {"amenity": "kindergarten", "name": "舜山府幼儿园"}}, {"type": "way", "id": 1101671538, "center": {"lat": 29.5415349, "lon": 106.6589557}, "nodes": [10081485403, 10081485404, 10081485405, 10081485406, 10081485407, 10081485408, 10081485409, 10081485416, 10081513417, 10081485410, 10081485415, 10081485414, 10081485411, 10081485412, 11874321058, 11874321059, 11874321053, 10081485413, 10081485403], "tags": {"amenity": "hospital", "healthcare": "hospital", "name": "重庆医科大学附属第二医院江南院区"}}, {"type": "way", "id": 1112721477, "center": {"lat": 29.4667376, "lon": 106.6219997}, "nodes": [10180857873, 10180857874, 10180857890, 10180857875, 10180857876, 10180857877, 10180857873], "tags": {"amenity": "kindergarten", "name": "铂爵郡幼儿园"}}, {"type": "way", "id": 1112721485, "center": {"lat": 29.4667382, "lon": 106.6142366}, "nodes": [10180883219, 10180883220, 10180883221, 10180883222, 10180883223, 10180883224, 10180883225, 10180883226, 10180883219], "tags": {"amenity": "school", "grades": "7-12", "name": "重庆史迪威外语学校"}}, {"type": "way", "id": 1112721487, "center": {"lat": 29.4653175, "lon": 106.6156256}, "nodes": [10180883231, 10180883232, 10205766872, 10180883233, 10180883234, 10205766895, 10180883235, 10180883236, 10180883231], "tags": {"amenity": "school", "grades": "1-6", "name": "树人立德小学"}}, {"type": "way", "id": 1112721490, "center": {"lat": 29.4648663, "lon": 106.6184704}, "nodes": [10180883245, 10180883246, 10180883247, 10180883248, 10180883245], "tags": {"amenity": "kindergarten", "name": "融创欧麓长青·大地幼儿园"}}, {"type": "way", "id": 1116939297, "center": {"lat": 29.6535175, "lon": 106.5990653}, "nodes": [10215170850, 10215170851, 10215170852, 10215170853, 10215170850], "tags": {"amenity": "school", "name": "渝北区宝圣湖小学校"}}, {"type": "way", "id": 1120497361, "center": {"lat": 29.4778681, "lon": 106.4608237}, "nodes": [10248281983, 10248281984, 10248281985, 10248281986, 10248281987, 10248281988, 10248281989, 10248281990, 10248281991, 10248281992, 10248281993, 10248281994, 10248281995, 10248281996, 10248281983], "tags": {"amenity": "school", "name": "华梁学校"}}, {"type": "way", "id": 1120565718, "center": {"lat": 29.504888, "lon": 106.4634549}, "nodes": [10248913171, 10248913172, 10248913173, 10248913174, 10248913175, 10248913176, 10248913177, 10248913178, 10248913179, 10248913180, 10248913181, 10248913182, 10248913171], "tags": {"amenity": "school", "name": "重庆市渝高中学校(二郎校区)"}}, {"type": "way", "id": 1130923155, "center": {"lat": 29.6430146, "lon": 106.4968566}, "nodes": [10539808621, 10539808622, 10539808623, 10539808624, 10539808626, 10539808627, 10539808625, 10539808621], "tags": {"amenity": "kindergarten", "name": "爱贝贝幼儿园"}}, {"type": "way", "id": 1130923162, "center": {"lat": 29.6454092, "lon": 106.5042251}, "nodes": [10539808687, 11277733099, 10539808691, 11277733097, 11277733098, 10539808692, 10539808701, 10539808693, 10539808702, 10539808694, 10539808695, 11277636199, 12749439701, 12749439702, 10539808696, 10539808697, 10539808698, 10539808699, 10539808700, 10539808689, 10539808688, 10539808687], "tags": {"amenity": "hospital", "healthcare": "hospital", "name": "重庆市人民医院"}}, {"type": "way", "id": 1130928119, "center": {"lat": 29.6475838, "lon": 106.5145088}, "nodes": [10539847313, 10539847314, 10539847315, 10539847316, 10539847317, 10539847318, 10539847319, 10539847320, 10539847321, 10539847322, 10539847323, 10539847342, 10539847313], "tags": {"amenity": "school", "name": "重光小学"}}, {"type": "way", "id": 1130928121, "center": {"lat": 29.647845, "lon": 106.5130405}, "nodes": [10539847323, 10539847336, 10539847337, 10539847338, 10539847339, 10539847340, 10539847341, 10539847342, 10539847323], "tags": {"amenity": "kindergarten", "name": "东方剑桥幼儿园"}}, {"type": "way", "id": 1132015787, "center": {"lat": 29.6594691, "lon": 106.4821991}, "nodes": [10555065085, 10555065086, 10555065087, 10555065088, 12506944575, 12506944577, 10555065091, 10555065092, 10555065093, 10555065094, 10555065095, 10555065085], "tags": {"amenity": "school", "name": "星光九曲河学校"}}, {"type": "way", "id": 1137460515, "center": {"lat": 29.6256971, "lon": 106.5236287}, "nodes": [10603037442, 13369701583, 13369701584, 10603037443, 13369701585, 10603037444, 13369701586, 10603037445, 10603037446, 10603037447, 10603037468, 10603037467, 10603037469, 10603037448, 10603037449, 10603037466, 10603037464, 10603037465, 10603037450, 13369701587, 10603037451, 10603037452, 10603037453, 10603037454, 10603037457, 10603037455, 10603037456, 10603037460, 10603037442], "tags": {"amenity": "hospital", "healthcare": "hospital", "name": "两江新区人民医院"}}, {"type": "way", "id": 1137785136, "center": {"lat": 29.6533076, "lon": 106.55979}, "nodes": [10605710187, 10605710188, 10605710189, 10605710190, 10605710191, 10605710192, 10605710193, 10605710194, 10605723917, 10605723923, 10605723918, 10605723919, 10605723924, 10605723916, 10605710195, 10605710196, 10605710197, 10605710187], "tags": {"amenity": "school", "grades": "1-6", "name": "金渝学校"}}, {"type": "way", "id": 1143801984, "center": {"lat": 29.5393215, "lon": 106.4958841}, "nodes": [10647823698, 10647823699, 10647823700, 12311867531, 12311867530, 12311867524, 12311867529, 10647831205, 10647823698], "tags": {"amenity": "school", "name": "歇台子小学", "name:en": "Xietaizi Elementary School", "name:zh": "歇台子小学"}}, {"type": "way", "id": 1144617109, "center": {"lat": 29.5241828, "lon": 106.4886214}, "nodes": [10653956369, 10653956370, 10653956371, 10653956372, 10653956373, 10653956374, 10653956375, 10653956376, 10653956377, 10653956378, 10653956379, 10653956380, 10653956381, 10653956382, 10653956383, 11073692054, 11073692053, 11073692052, 10653956384, 10653956369], "tags": {"amenity": "school", "name": "九龙坡区第一实验小学(江州校区)"}}, {"type": "way", "id": 1146417280, "center": {"lat": 29.4668461, "lon": 106.4556325}, "nodes": [10669114535, 10669114536, 10669114537, 10669114538, 10669114539, 10669114540, 10669114541, 10669114542, 10669114535], "tags": {"amenity": "school", "name": "重庆市第三十七中学校（自成校区）"}}, {"type": "way", "id": 1146495449, "center": {"lat": 29.4540035, "lon": 106.4620744}, "nodes": [10669715963, 13255942363, 10669715964, 10669715965, 10669715966, 13255942432, 13255942433, 10669715967, 10669715968, 10669715969, 10669715970, 13255942434, 10669715971, 10669715972, 13255942435, 10669715973, 10669715974, 10669715963], "tags": {"amenity": "school", "education": "school", "name": "钰鑫小学教育集团义渡小学"}}, {"type": "way", "id": 1149374830, "center": {"lat": 29.5864481, "lon": 106.540769}, "nodes": [10692713328, 10692713339, 10692713338, 10692713340, 10692713329, 10692713330, 10692713331, 10692713332, 10692713337, 10692713335, 10692713336, 10692713333, 10692713334, 10692713328], "tags": {"amenity": "school", "name": "江北区知易外国语学校"}}, {"type": "way", "id": 1149374832, "center": {"lat": 29.5852072, "lon": 106.5409841}, "nodes": [8721340302, 10692713348, 10692713349, 10692713350, 10692713351, 8721340293, 8721340303, 8721340302], "tags": {"amenity": "school", "name": "新村正大国际小学"}}, {"type": "way", "id": 1153741548, "center": {"lat": 29.4947743, "lon": 106.6373038}, "nodes": [10729797023, 10729797026, 10729797027, 10729797022, 10729797024, 10729797023], "tags": {"amenity": "kindergarten", "name": "珊瑚时代都汇幼儿园"}}, {"type": "way", "id": 1153741550, "center": {"lat": 29.4981113, "lon": 106.6292728}, "nodes": [10729797038, 10729797039, 10729797040, 10729797041, 11281204125, 11281204124, 11281204123, 10729797042, 10729797038], "tags": {"amenity": "school", "name": "珊瑚鲁能小学"}}, {"type": "way", "id": 1153741552, "center": {"lat": 29.4997843, "lon": 106.630819}, "nodes": [10729797039, 10729797047, 11873369308, 10729797048, 10729797049, 10729797040, 10729797039], "tags": {"amenity": "school", "name": "重庆珊瑚中学（江南新城校区）"}}, {"type": "way", "id": 1157912353, "center": {"lat": 29.5215831, "lon": 106.4671095}, "nodes": [9417075027, 13426167444, 13426167443, 10768547457, 10768547459, 10768547460, 13426167442, 10768547461, 10768547462, 13426167437, 13426167438, 13426167439, 13426167440, 13426167441, 13426167436, 10768547463, 13426167435, 10768547464, 10768547465, 13426194723, 9417061210, 9417061211, 9417075027], "tags": {"amenity": "school", "education": "school", "name": "九龙坡区彩云湖小学校（B区）"}}, {"type": "way", "id": 1158997321, "center": {"lat": 29.5149082, "lon": 106.5248963}, "nodes": [10778112910, 10778112911, 13565688814, 13565688813, 10778112912, 10778112913, 10778112914, 10778112915, 11403244368, 11403245969, 11403245970, 10778112916, 13565688819, 13565688818, 13565688816, 13565688815, 13565688817, 10778112910], "tags": {"amenity": "school", "name": "四川外国语大学九龙坡区附属小学", "old_name": "九龙坡区第二实验小学"}}, {"type": "way", "id": 1158997323, "center": {"lat": 29.5177329, "lon": 106.5246598}, "nodes": [10778112928, 8073868743, 10778112930, 10778112931, 10778112932, 10778112928], "tags": {"amenity": "kindergarten", "name": "谢家湾博雅幼儿园"}}, {"type": "way", "id": 1160389088, "center": {"lat": 29.638767, "lon": 106.4819404}, "nodes": [10792350019, 10792350020, 12797891705, 10792350021, 10792350022, 10792350024, 12797891704, 12797891703, 10792350026, 12797891702, 10792350027, 10792350028, 12797891701, 10792350029, 12797856400, 10792350036, 10792350031, 10792350032, 10792350033, 10792350034, 12797856399, 12797856398, 10792350035, 10792350019], "tags": {"amenity": "school", "education": "school", "name": "星海学校"}}, {"type": "way", "id": 1161568520, "center": {"lat": 29.5183873, "lon": 106.4713041}, "nodes": [10803413113, 10803413158, 10803413157, 10803413116, 10803413115, 10803413132, 10803413114, 10803413113], "tags": {"amenity": "kindergarten", "name": "欧亚斯特幼儿园"}}, {"type": "way", "id": 1161568523, "center": {"lat": 29.5167293, "lon": 106.4708636}, "nodes": [10803413176, 10803413177, 10803413175, 10803413174, 10803413173, 10803413176], "tags": {"amenity": "kindergarten", "name": "伊顿慧智幼儿园（重庆恒基雍翠名门校园）"}}, {"type": "way", "id": 1164986070, "center": {"lat": 29.6804407, "lon": 106.4970703}, "nodes": [10836173282, 10836173283, 10836173284, 10836173285, 10836173286, 10836173288, 10836173289, 10836173290, 10836206706, 10836173291, 10836173292, 10836173293, 10836173294, 10836173295, 10836206707, 10836173296, 10836173297, 10836173298, 10836173282], "tags": {"amenity": "school", "name": "礼嘉实验二小"}}, {"type": "way", "id": 1165532918, "center": {"lat": 29.5661358, "lon": 106.5240211}, "nodes": [10841182427, 10841182428, 10841182429, 10841182430, 10841182431, 10841182432, 10841182433, 10841182434, 10841182435, 10841182436, 10841182427], "tags": {"amenity": "school", "name": "徐悲鸿中学"}}, {"type": "way", "id": 1165532919, "center": {"lat": 29.5657913, "lon": 106.5250171}, "nodes": [10841182436, 12590209153, 10841182437, 10841182441, 10841182438, 10841182440, 10841182439, 10841182434, 10841182435, 10841182436], "tags": {"amenity": "college", "name": "重庆市江北区教师进修学院"}}, {"type": "way", "id": 1171105179, "center": {"lat": 29.5030116, "lon": 106.4881695}, "nodes": [10883076661, 10883076662, 10883076663, 10883076665, 10883076666, 10883076664, 10883076661], "tags": {"amenity": "police", "building": "no", "name": "九龙园派出所"}}, {"type": "way", "id": 1171484230, "center": {"lat": 29.5060487, "lon": 106.5226545}, "nodes": [10885747108, 10885747109, 10885747126, 10885747125, 10885747127, 10885747110, 10885747111, 10885747124, 10885747123, 10885747112, 10885747113, 10885747114, 2541323770, 13572943901, 10885747133, 10885747117, 10885747118, 10885747132, 2541323795, 2541323756, 13572925799, 10885747121, 11896655275, 10885747108], "tags": {"amenity": "school", "name": "重庆市九龙坡区育才实验学校"}}, {"type": "way", "id": 1171485715, "center": {"lat": 29.5682308, "lon": 106.4932213}, "nodes": [10885726060, 10885726061, 10885726062, 10885726063, 10885726064, 10885726065, 10885726066, 10885726067, 10885726068, 10885726069, 10885726070, 10885726060], "tags": {"amenity": "school", "name": "江北区科技实验小学"}}, {"type": "way", "id": 1173616468, "center": {"lat": 29.5180896, "lon": 106.5942193}, "nodes": [10904718817, 10904718818, 10904718819, 10904718820, 10904718821, 10904718824, 10904718822, 10904718823, 10904718817], "tags": {"amenity": "school"}}, {"type": "way", "id": 1176121024, "center": {"lat": 29.6301499, "lon": 106.5612935}, "nodes": [10927916879, 10927916880, 10927916881, 10927916882, 10927916883, 10927916884, 10927916879], "tags": {"amenity": "kindergarten", "name": "两江新区金山第二幼儿园"}}, {"type": "way", "id": 1176121034, "center": {"lat": 29.6265524, "lon": 106.5609977}, "nodes": [10927916940, 10927916941, 10927916960, 10927916942, 10927916943, 10927916940], "tags": {"amenity": "school", "name": "两江新区民心佳园小学"}}, {"type": "way", "id": 1176121038, "center": {"lat": 29.6272703, "lon": 106.5614922}, "nodes": [10927916941, 10927916969, 10927916959, 10927916960, 10927916941], "tags": {"amenity": "kindergarten", "name": "当当幼儿园"}}, {"type": "way", "id": 1176130820, "center": {"lat": 29.6208771, "lon": 106.4718307}, "nodes": [10927997799, 13481762322, 13481762321, 13481686698, 10927997801, 13481686699, 10927997802, 10927997803, 10927997804, 13481762307, 10927999109, 13481762308, 10927999110, 13481762304, 10927999111, 13481762303, 10927999112, 10927999113, 10927999114, 13481762302, 13481762301, 10927999115, 13481762305, 13481762306, 10927999121, 10927999122, 10927999123, 10927999124, 10927999125, 13481686700, 10927997799], "tags": {"amenity": "school", "name": "西南大学附属中学大竹林校区"}}, {"type": "way", "id": 1176130822, "center": {"lat": 29.6242147, "lon": 106.4727561}, "nodes": [10927999130, 13504169578, 10927999131, 10927999132, 10927999133, 10927999134, 10927999135, 13504169580, 13504169579, 10927999136, 10927999130], "tags": {"amenity": "school", "name": "重庆竹林实验学校"}}, {"type": "way", "id": 1177468155, "center": {"lat": 29.5938053, "lon": 106.585791}, "nodes": [10939031318, 10939031319, 10939031320, 10939031321, 10939031322, 10939031318], "tags": {"amenity": "school", "name": "弹子石小学中海校区"}}, {"type": "way", "id": 1177488233, "center": {"lat": 29.5913694, "lon": 106.5964478}, "nodes": [10939184824, 10939184825, 10939184826, 7891367565, 7891367566, 10939184827, 10939184828, 10939184829, 10939184830, 10939184831, 10939184832, 10939184824], "tags": {"amenity": "school", "name": "弹子石中学校"}}, {"type": "way", "id": 1177488234, "center": {"lat": 29.5925603, "lon": 106.596509}, "nodes": [10939184824, 10939184833, 10939184834, 10939184835, 10939184836, 10939184837, 10939184825, 10939184824], "tags": {"amenity": "school", "name": "南岸区大佛段小学校"}}, {"type": "way", "id": 1177834143, "center": {"lat": 29.6080468, "lon": 106.6034906}, "nodes": [10941689430, 10941689431, 10941689432, 10941689433, 10941689434, 10941689435, 10941689436, 11220277968, 10941689473, 10941689437, 10941689438, 10941689439, 10941689440, 11220277970, 10941689442, 10941689443, 10941689444, 11220277969, 10941689430], "tags": {"amenity": "hospital", "healthcare": "hospital", "name": "重庆市第五人民医院新院区"}}, {"type": "way", "id": 1188333877, "center": {"lat": 29.5403181, "lon": 106.4916844}, "nodes": [11034613038, 11034612935, 11034613063, 11034588666, 11034612989, 11034588691, 11034613014, 11034588667, 11034612992, 11034588694, 11034613018, 11034613055, 11034612952, 11034613078, 11034612971, 8195894123, 11034612905, 11034612950, 12265746322, 11034612961, 11034613087, 12265746324, 11034612980, 8195893980, 11034612923, 11034613027, 11034588701, 11034613002, 11034613015, 11034612915, 11034613041, 11034612938, 11034613066, 11034612919, 11034613046, 11034612943, 11034613069, 11034588673, 11034612997, 11034588698, 11034613023, 11034613008, 11034613038], "tags": {"amenity": "college", "landuse": "military", "name": "中国人民解放军陆军勤务学院", "wikidata": "Q6124050", "wikipedia": "zh:中国人民解放军陆军勤务学院"}}, {"type": "way", "id": 1192979009, "center": {"lat": 29.5261239, "lon": 106.4881711}, "nodes": [11073692086, 11073692102, 11073692103, 11073692088, 11073692087, 11073692086], "tags": {"amenity": "kindergarten", "name": "通用森林幼儿园"}}, {"type": "way", "id": 1193106570, "center": {"lat": 29.6613102, "lon": 106.5570559}, "nodes": [11074844661, 11074844662, 11074844664, 11074844663, 11074844661], "tags": {"addr:city": "重庆市", "addr:district": "渝北区", "addr:housenumber": "1116号", "addr:postcode": "401122", "addr:province": "重庆", "addr:street": "金开大道", "amenity": "hospital", "emergency": "yes", "healthcare": "hospital", "name": "重庆消防医院", "phone": "+86 23 8912 0120", "wheelchair": "yes"}}, {"type": "way", "id": 1198056435, "center": {"lat": 29.5354819, "lon": 106.6557299}, "nodes": [11114523394, 11114523399, 11114523400, 11114523401, 11114523402, 11114523393, 11114523394], "tags": {"amenity": "school", "name": "广阳湾珊瑚实验小学", "name:en": "Guangyangwan Shanhu Experimental Primary School", "name:zh": "广阳湾珊瑚实验小学"}}, {"type": "way", "id": 1200812975, "center": {"lat": 29.5898075, "lon": 106.5178726}, "nodes": [11133972015, 11133972016, 13575407022, 11133972017, 11133972018, 11133972019, 11133972020, 11133972021, 11133972022, 11133972023, 11133972026, 11133972024, 11133972025, 11133972015], "tags": {"amenity": "school", "name": "加州实验小学"}}, {"type": "way", "id": 1203515674, "center": {"lat": 29.5959835, "lon": 106.4422552}, "nodes": [11156192038, 11156192039, 11156192040, 11156192041, 11156192042, 11156192043, 11156192044, 11156192045, 11156192046, 11156192047, 11156192038], "tags": {"amenity": "school", "name": "沙坪坝区沙滨学校", "name:en": "Shapingba District Shabin School", "name:zh": "沙坪坝区沙滨学校"}}, {"type": "way", "id": 1206414101, "center": {"lat": 29.5070266, "lon": 106.6525498}, "nodes": [11179037227, 11179037230, 11179037229, 11179037228, 11179037227], "tags": {"amenity": "police", "name": "长生桥派出所"}}, {"type": "way", "id": 1208215855, "center": {"lat": 29.4853419, "lon": 106.6288988}, "nodes": [11195306398, 11195306399, 11195306400, 11195306401, 11195306402, 11195306403, 11195306406, 2541473197, 11195306398], "tags": {"amenity": "school", "name": "南岸区南坪实验光华小学"}}, {"type": "way", "id": 1209751961, "center": {"lat": 29.5973654, "lon": 106.536421}, "nodes": [11207763241, 11207763265, 11207763263, 11207763261, 11207763242, 11207763243, 11207763244, 11207763245, 11207763246, 11207763247, 11207763248, 11207763249, 11207763250, 11207763251, 11207763252, 11207763253, 11207763254, 11207763241], "tags": {"amenity": "school", "education": "school", "name": "渝北区龙塔实验学校"}}, {"type": "way", "id": 1209751985, "center": {"lat": 29.5941315, "lon": 106.5339578}, "nodes": [11207763417, 11207763418, 11207763419, 11207763410, 11207763409, 11207763408, 11207763417], "tags": {"amenity": "school", "name": "皇冠实验中学"}}, {"type": "way", "id": 1210033586, "center": {"lat": 29.5747598, "lon": 106.5174559}, "nodes": [11210149356, 11210149363, 12167327536, 12167327532, 11210149366, 11210149367, 11210149368, 11210149369, 11210149370, 11210149371, 11210149372, 11210149373, 11210149374, 11210149375, 11210149380, 11210149381, 11210149383, 12378730721, 11210149385, 12378730720, 12378730729, 12378730730, 12378730731, 11210149351, 11210149353, 11210149354, 11210149355, 11210149356], "tags": {"alt_name": "蜀都中学;重庆市蜀都中学", "amenity": "school", "name": "重庆蜀都中学"}}, {"type": "way", "id": 1210758684, "center": {"lat": 29.599783, "lon": 106.5238756}, "nodes": [11217864365, 11217864381, 11217864363, 11217864364, 11217864365], "tags": {"amenity": "kindergarten", "name": "才儿坊国宾城幼儿园"}}, {"type": "way", "id": 1210758689, "center": {"lat": 29.5931557, "lon": 106.5231656}, "nodes": [11217864408, 11217864439, 11217864440, 11217864441, 11217864442, 11217864443, 11217864444, 11217864445, 11217864417, 11217864416, 11217864415, 11217864414, 11217864413, 11217864412, 11217864411, 11217864410, 11217864409, 11217864408], "tags": {"amenity": "college", "name": "重庆市工业学校（渝北校区）"}}, {"type": "way", "id": 1210758699, "center": {"lat": 29.5965487, "lon": 106.5269531}, "nodes": [11217864566, 9512841870, 11217864567, 11217864568, 11217864569, 11217864570, 11217864571, 11217864572, 11217864573, 11217864574, 11217864575, 11217864576, 9512841861, 11217864577, 11217864578, 11217864579, 11217864587, 11217864580, 11217864586, 11217864581, 11217864582, 11217864583, 11217864584, 11217864566], "tags": {"amenity": "hospital", "healthcare": "hospital", "name": "重庆市精神卫生中心"}}, {"type": "way", "id": 1210855066, "center": {"lat": 29.5629306, "lon": 106.5019875}, "nodes": [11218707650, 11218707651, 11218707652, 11218707653, 11218707650], "tags": {"amenity": "police", "building": "yes"}}, {"type": "way", "id": 1210995549, "center": {"lat": 29.5465088, "lon": 106.6503267}, "nodes": [11220198240, 11220198241, 11220198242, 11220198243, 11220198244, 11220198245, 11220198246, 11220198247, 11220198248, 11220198249, 11220198250, 11220198251, 11220198252, 11947856996, 11947856993, 11947856994, 11947856995, 11220198253, 11220198254, 11220198255, 11220198256, 11220198257, 11220198258, 11220198259, 11220198260, 11220198261, 11220198240], "tags": {"amenity": "university", "construction": "university", "landuse": "construction", "name": "重庆工商大学茶园校区"}}, {"type": "way", "id": 1216781344, "center": {"lat": 29.5214625, "lon": 106.642058}, "nodes": [11274446772, 11274446773, 11274446782, 11274446774, 11274446775, 11274446776, 11274446777, 11274446772], "tags": {"amenity": "school", "grades": "0-6", "name": "天台岗万国城小学"}}, {"type": "way", "id": 1216783953, "center": {"lat": 29.5345095, "lon": 106.6620945}, "nodes": [11274477786, 11274477787, 11274477788, 11274477791, 11274477789, 11274477790, 11274477786], "tags": {"amenity": "school", "name": "重庆广阳湾珊瑚中学"}}, {"type": "way", "id": 1216834217, "center": {"lat": 29.5300552, "lon": 106.6695838}, "nodes": [11274932835, 11274932836, 11294751758, 11274932837, 2541456815, 2541456790, 11274932835], "tags": {"amenity": "school", "name": "江南艺术中学校"}}, {"type": "way", "id": 1217162536, "center": {"lat": 29.6167387, "lon": 106.4758075}, "nodes": [10927999166, 11278017896, 13483397236, 11278017898, 11278017901, 11278017902, 11278017903, 11278017904, 11278017905, 11278017906, 11278017907, 11278017908, 11278017909, 11278017912, 11278017910, 11278017911, 11278017891, 11278017892, 11278017893, 10927999179, 13483397227, 10927999183, 13483397226, 13483397225, 13483397224, 11278017895, 11278017894, 10927999182, 10927999166], "tags": {"amenity": "school", "name": "星光柏溪学校"}}, {"type": "way", "id": 1217162574, "center": {"lat": 29.632335, "lon": 106.475311}, "nodes": [8791450476, 11278018239, 11278018240, 11278018241, 11278018242, 11278018243, 8791450479, 8791450477, 8791450476], "tags": {"amenity": "school", "name": "嘉木小学校"}}, {"type": "way", "id": 1217516028, "center": {"lat": 29.4962078, "lon": 106.6252845}, "nodes": [11274446925, 11281204104, 11274446923, 11274446924, 11274446925], "tags": {"amenity": "kindergarten", "name": "巴学小苑幼儿园"}}, {"type": "way", "id": 1218789551, "center": {"lat": 29.5655025, "lon": 106.5019773}, "nodes": [11293295342, 11293295343, 11293295344, 11293295345, 11293295346, 11293295347, 11293295348, 11293295349, 11293295364, 11293295363, 11293295350, 11293295362, 11293295351, 11293295352, 11293295353, 11293295361, 11293295360, 11293295354, 11293295359, 11293295355, 11293295342], "tags": {"amenity": "school", "name": "江北区鸿恩实验学校"}}, {"type": "way", "id": 1218789552, "center": {"lat": 29.5651457, "lon": 106.4868948}, "nodes": [11293295372, 13011674707, 13011674710, 13011674708, 13011674709, 11293295373, 13011674706, 13011674705, 11293295374, 11293295375, 11293295377, 11293295378, 11293295379, 11293295380, 11293295381, 11293295391, 11293295390, 11293295389, 11293295388, 11293295382, 11293295383, 11293295384, 11293295385, 11293295386, 11293295387, 11293295372], "tags": {"amenity": "school", "name": "重庆市二〇三中学校高中部"}}, {"type": "way", "id": 1222263247, "center": {"lat": 29.4706125, "lon": 106.631423}, "nodes": [11336008352, 11336008360, 11336008354, 11336008353, 11336008352], "tags": {"amenity": "kindergarten", "name": "博琅郡幼儿园"}}, {"type": "way", "id": 1222263249, "center": {"lat": 29.4684042, "lon": 106.628614}, "nodes": [11336008368, 11336008369, 11336008370, 11336008371, 11336008372, 11336008373, 11336008368], "tags": {"amenity": "school", "name": "重庆清华中学（欧麓校区）"}}, {"type": "way", "id": 1222263250, "center": {"lat": 29.46709, "lon": 106.6305908}, "nodes": [11336008374, 11336008375, 11336008376, 11336008377, 11336008378, 11336008379, 11336008374], "tags": {"amenity": "school", "name": "鱼洞二小（融创校区）"}}, {"type": "way", "id": 1222263258, "center": {"lat": 29.4703873, "lon": 106.6361297}, "nodes": [11336008431, 11336008434, 11336008435, 11336008436, 11336008437, 11336008431], "tags": {"amenity": "kindergarten", "name": "凤华巴蜀实验幼儿园"}}, {"type": "way", "id": 1222778543, "center": {"lat": 29.6109907, "lon": 106.4819563}, "nodes": [11341617753, 11341617764, 11341617765, 11341617754, 11341617753], "tags": {"amenity": "school"}}, {"type": "way", "id": 1222879977, "center": {"lat": 29.6083647, "lon": 106.4944998}, "nodes": [11342775775, 11342775787, 11342775770, 11342775771, 11342775772, 11342775773, 11342775774, 11342775775], "tags": {"amenity": "kindergarten", "name": "龙湖水晶郦城幼儿园"}}, {"type": "way", "id": 1222934816, "center": {"lat": 29.625546, "lon": 106.4745386}, "nodes": [11343307974, 11343307975, 11343307976, 11343307977, 11343307978, 11343307979, 11343307980, 11343307981, 11343307982, 11343307983, 11343307984, 11343307985, 11343307986, 11343307987, 11343307988, 11343307989, 11343307974], "tags": {"amenity": "hospital", "healthcare": "hospital", "name": "两江新区中医院"}}, {"type": "way", "id": 1222934843, "center": {"lat": 29.6237956, "lon": 106.4745564}, "nodes": [11343308151, 11343308152, 11343308153, 11343308148, 11343308149, 11343308150, 11343308151], "tags": {"amenity": "police", "name": "大竹林派出所"}}, {"type": "way", "id": 1236298746, "center": {"lat": 29.6229682, "lon": 106.5364618}, "nodes": [11478904565, 11478904566, 11478925686, 11478925687, 11478904567, 11478904568, 11478925669, 11478925670, 11478925671, 11478925672, 11478904565], "tags": {"amenity": "school", "name": "两江新区行远小学", "name:en": "Xingyuan Primary School", "name:zh": "两江新区行远小学"}}, {"type": "way", "id": 1239671461, "center": {"lat": 29.5367963, "lon": 106.4484132}, "nodes": [9436814528, 9436814529, 9436814530, 9436814531, 9436814534, 9436814542, 11516814978, 11516814979, 11516814980, 11516814981, 9436814556, 9436814557, 9436814558, 9436814599, 11516814985, 11516814986, 11516814987, 11516814988, 12209093537, 12209093536, 11516814989, 11516814990, 11516814991, 11516814992, 9436814528], "tags": {"amenity": "university", "landuse": "military", "name": "陆军军医大学", "old_name": "第三军医大学", "old_ref": "3", "wikidata": "Q7784898"}}, {"type": "way", "id": 1257443400, "center": {"lat": 29.5636377, "lon": 106.5539598}, "nodes": [11690689509, 11690689510, 11690689511, 11690689512, 11690689513, 11690689514, 11690689515, 11690689516, 11690689517, 11690689518, 11690689519, 11690689520, 11690689521, 11690689509], "tags": {"amenity": "school", "name": "人和街小学"}}, {"type": "way", "id": 1259387950, "center": {"lat": 29.604433, "lon": 106.4689444}, "nodes": [11708365965, 11708365992, 11708365966, 11708365967, 11708365968, 11708365969, 11708365970, 11708365971, 11708365972, 11708365973, 11708365974, 11708365965], "tags": {"amenity": "school", "name": "江北区华新实验小学（鹿鸣校区）"}}, {"type": "way", "id": 1259387965, "center": {"lat": 29.5996975, "lon": 106.4633324}, "nodes": [11708366164, 11708366165, 11708366147, 11708366166, 11708366167, 11708366164], "tags": {"amenity": "kindergarten", "name": "吉的堡幼儿园（重庆宏帆凤凰湾园）"}}, {"type": "way", "id": 1259701191, "center": {"lat": 29.6469183, "lon": 106.540729}, "nodes": [11711295975, 11711295979, 11711295976, 11711295977, 11711295978, 11711295975], "tags": {"amenity": "school", "name": "金州小学东校区"}}, {"type": "way", "id": 1263147984, "center": {"lat": 29.5797088, "lon": 106.5877383}, "nodes": [11736212098, 11736212099, 11736212100, 11736212101, 11736212098], "tags": {"amenity": "kindergarten", "name": "南岸区弹子石幼儿园"}}, {"type": "way", "id": 1263431796, "center": {"lat": 29.535821, "lon": 106.4956529}, "nodes": [11738568183, 11738568184, 12757570337, 11738568185, 11738568186, 12757570338, 11738568187, 11738568189, 11738568190, 11738568191, 11738568192, 11738568181, 11738568182, 4143800213, 11738568193, 10778184257, 11738568183], "tags": {"amenity": "college", "name": "重庆行政学院"}}, {"type": "way", "id": 1263749089, "center": {"lat": 29.5944196, "lon": 106.4766611}, "nodes": [11741328795, 11741328796, 11741328797, 11741328798, 11741328799, 11741328800, 11741328801, 11741328802, 11741328803, 11741328804, 11741328805, 11741328940, 11741328806, 11741328807, 11741328808, 11764240285, 11764240286, 11764240287, 11764240288, 11764240289, 11741328809, 11741328810, 11741328811, 11741328795], "tags": {"amenity": "hospital", "healthcare": "hospital", "name": "重庆市中医院（南桥寺院部）"}}, {"type": "way", "id": 1263749094, "center": {"lat": 29.5970472, "lon": 106.4756708}, "nodes": [11741328837, 11741328838, 11741328839, 11741328840, 11741328837], "tags": {"amenity": "kindergarten", "name": "玉带山金色年华幼儿园"}}, {"type": "way", "id": 1263749096, "center": {"lat": 29.5948044, "lon": 106.4748633}, "nodes": [11741328842, 11741328853, 11757234074, 11741328854, 11755236500, 11741328855, 11757234101, 11741328856, 11755236471, 11741328841, 11741328842], "tags": {"amenity": "kindergarten", "name": "金凤凰可乐小镇幼儿园"}}, {"type": "way", "id": 1263756607, "center": {"lat": 29.5909969, "lon": 106.4760672}, "nodes": [11741364415, 11741364421, 11741364422, 11741364423, 11741364424, 11741364425, 11741364426, 11741364427, 11741364404, 11741364416, 11741364415], "tags": {"amenity": "school", "name": "重庆市教科院华渝实验学校"}}, {"type": "way", "id": 1265206952, "center": {"lat": 29.530077, "lon": 106.5400923}, "nodes": [11753242706, 11753242708, 11753242709, 11753242710, 11753242711, 11753242712, 2562421138, 11753242700, 11753242701, 11753242702, 11753242703, 11753242704, 11753242705, 11753242706], "tags": {"addr:district": "南岸区", "addr:housenumber": "12", "addr:postcode": "400069", "addr:province": "重庆市", "addr:street": "风临路", "amenity": "school", "grades": "0-6", "name": "重庆人民（融侨）小学校", "name:en": "Chongqing Renmin (Rongqiao) Primary School", "name:zh": "重庆人民（融侨）小学校"}}, {"type": "way", "id": 1265717632, "center": {"lat": 29.597191, "lon": 106.4762738}, "nodes": [11757234177, 11757234185, 11757234186, 11757234184, 11757234177], "tags": {"amenity": "kindergarten", "name": "百年幼儿园"}}, {"type": "way", "id": 1266179890, "center": {"lat": 29.5734953, "lon": 106.418219}, "nodes": [11761438271, 11761438272, 11761438273, 11761438274, 11761438275, 11761438276, 11761438277, 11761438271], "tags": {"amenity": "school", "name": "重庆西藏中学"}}, {"type": "way", "id": 1266179895, "center": {"lat": 29.5707605, "lon": 106.4154949}, "nodes": [11761438300, 11761438301, 11761438302, 11761438303, 11761438307, 11761438304, 11761438305, 11761438300], "tags": {"amenity": "school", "name": "歌乐山小学"}}, {"type": "way", "id": 1266548074, "center": {"lat": 29.5890682, "lon": 106.5381408}, "nodes": [11764131653, 11764131654, 11764131655, 11764131656, 11764131653], "tags": {"amenity": "driving_school", "name": "福凯驾校（黄泥磅训练基地)）"}}, {"type": "way", "id": 1267119183, "center": {"lat": 29.5907732, "lon": 106.4838249}, "nodes": [11768984085, 11768984086, 11768984087, 11768984088, 11768984089, 11768984085], "tags": {"amenity": "school", "name": "重庆市华渝实验学校(东区)"}}, {"type": "way", "id": 1267119198, "center": {"lat": 29.5892298, "lon": 106.4855494}, "nodes": [11768984193, 11768984194, 11768984195, 11768984196, 11768984197, 11768984198, 11768984199, 11768984200, 11768984193], "tags": {"amenity": "school", "name": "渝北区龙山小学校"}}, {"type": "way", "id": 1267119205, "center": {"lat": 29.5933818, "lon": 106.4855714}, "nodes": [11768984236, 11768984237, 11768984238, 11768984239, 11768984240, 11768984241, 11768984242, 11768984243, 11768984244, 11768984245, 11768984248, 11768984249, 11768984236], "tags": {"amenity": "hospital", "healthcare": "hospital", "name": "重庆市妇幼保健院冉家坝院区"}}, {"type": "way", "id": 1267119208, "center": {"lat": 29.5957484, "lon": 106.4835026}, "nodes": [11768984261, 11768984262, 11768984258, 11768984257, 2552073186, 11768984261], "tags": {"amenity": "police", "name": "龙山派出所"}}, {"type": "way", "id": 1271930994, "center": {"lat": 29.4822683, "lon": 106.6205235}, "nodes": [11811392869, 11811392870, 11811392871, 11811392872, 11811392873, 11811392874, 11811392875, 11813659884, 11811392876, 11811392877, 11811392878, 11811392879, 11811392869], "tags": {"amenity": "school", "name": "重庆市第十一中金科学校"}}, {"type": "way", "id": 1271930995, "center": {"lat": 29.4817987, "lon": 106.622453}, "nodes": [11811392872, 11811392880, 11813659838, 11811392881, 11811392873, 11811392872], "tags": {"amenity": "school", "grades": "0-6", "name": "南坪实验金科小学"}}, {"type": "way", "id": 1271930998, "center": {"lat": 29.4844942, "lon": 106.63463}, "nodes": [11811392919, 11811392920, 8764653803, 8764653802, 11811392921, 11811392919], "tags": {"amenity": "college", "name": "中共南岸区委党校"}}, {"type": "way", "id": 1272031279, "center": {"lat": 29.4733863, "lon": 106.6171897}, "nodes": [11812100025, 11812100026, 11812100027, 11812100028, 11812100029, 11812100030, 11812100031, 11812100032, 11812100033, 11812100034, 11812100035, 11812100036, 11812100037, 11812100038, 11812100025], "tags": {"amenity": "school", "name": "重庆文德中学校"}}, {"type": "way", "id": 1272198724, "center": {"lat": 29.4787932, "lon": 106.6265731}, "nodes": [11813659813, 12864607162, 12864607161, 11813659814, 11813659815, 11813659816, 11813659817, 11813659818, 11813659819, 12864607159, 11813659820, 11813659813], "tags": {"amenity": "school", "grades": "10-12", "name": "重庆市机电工程高级技工学校"}}, {"type": "way", "id": 1274421712, "center": {"lat": 29.6012008, "lon": 106.5036281}, "nodes": [9359836766, 11833070994, 11833070991, 11833070990, 11833070986, 9359836727, 9359836728, 11833070983, 11833070984, 11833070985, 9359836766], "tags": {"amenity": "hospital", "healthcare": "hospital", "name": "重庆龙湖医院"}}, {"type": "way", "id": 1274423260, "center": {"lat": 29.6072371, "lon": 106.5135774}, "nodes": [11833073542, 11833073543, 11833073544, 11833073545, 11833073546, 11833073547, 530750697, 530750694, 530750690, 530750687, 530750686, 11833073542], "tags": {"amenity": "school", "name": "诺林巴蜀外籍人员子女学校"}}, {"type": "way", "id": 1274587191, "center": {"lat": 29.6006855, "lon": 106.508301}, "nodes": [11834675302, 11834675303, 11834675304, 11834675305, 11834675306, 11834675307, 11834675308, 11834675309, 11834675302], "tags": {"amenity": "school", "name": "新牌坊小学"}}, {"type": "way", "id": 1275322569, "center": {"lat": 29.5445653, "lon": 106.5175824}, "nodes": [11841661474, 12730504319, 11841661475, 11841661476, 11841661477, 11841661478, 12730504321, 11841661479, 12730504322, 12730504323, 12730504324, 11841661480, 11841661481, 12730504318, 11841661474], "tags": {"amenity": "school", "name": "重庆市求精中学大坪学校"}}, {"type": "way", "id": 1275717222, "center": {"lat": 29.5348161, "lon": 106.4943471}, "nodes": [11844509558, 11844509559, 11844509560, 11844509561, 12800554931, 11844509558], "tags": {"amenity": "police", "government": "police", "name": "重庆公安经侦总队"}}, {"type": "way", "id": 1279010627, "center": {"lat": 29.6608607, "lon": 106.5113595}, "nodes": [11873633873, 11873633869, 11873633882, 11873633881, 11873633874, 11873633873], "tags": {"amenity": "police", "name": "两江新区公安分局交巡警支队"}}, {"type": "way", "id": 1281887868, "center": {"lat": 29.5241832, "lon": 106.5179956}, "nodes": [11896290468, 11896310369, 11896310370, 11896310371, 11896310372, 11896310373, 11896310374, 11896310375, 11896310376, 11896310377, 11896310378, 11896310379, 11896310380, 11896310381, 11896290468], "tags": {"amenity": "hospital", "healthcare": "hospital", "name": "重庆建设医院"}}, {"type": "way", "id": 1281925798, "center": {"lat": 29.5083485, "lon": 106.5241316}, "nodes": [11896655295, 11896655297, 11896655298, 11896655294, 11896655287, 11896655286, 11896655285, 11896655296, 11896655295], "tags": {"amenity": "kindergarten"}}, {"type": "way", "id": 1282064041, "center": {"lat": 29.5220236, "lon": 106.4987232}, "nodes": [11897779310, 11897779311, 4143800234, 11897779313, 11897779314, 11897779312, 11897779317, 11897779316, 11897779315, 11897779310], "tags": {"amenity": "school", "grades": "0-6", "name": "重庆石坪桥小学"}}, {"type": "way", "id": 1282095877, "center": {"lat": 29.6784513, "lon": 106.5647243}, "nodes": [2545003756, 11898061501, 2545003775, 2545003777, 2545003756], "tags": {"amenity": "school", "name": "两江新区金山小学（美利山校区）"}}, {"type": "way", "id": 1282098201, "center": {"lat": 29.6275351, "lon": 106.6555249}, "nodes": [11898073864, 11898073865, 11898073866, 11898073867, 11898073868, 11898081972, 11898081969, 11898081970, 11898081971, 11898073864], "tags": {"amenity": "police", "name": "港城园派出所"}}, {"type": "way", "id": 1282100395, "center": {"lat": 29.5259074, "lon": 106.5193813}, "nodes": [11898081786, 11898081787, 11898081788, 11898081789, 11898081790, 11898081791, 11898081792, 11898081793, 11898081794, 11898081786], "tags": {"amenity": "school", "grades": "0-6", "name": "鹅公岩小学"}}, {"type": "way", "id": 1282100396, "center": {"lat": 29.5313082, "lon": 106.5123683}, "nodes": [11898081795, 11898081796, 12878590373, 12878590374, 11898081797, 11898081798, 11898081799, 11898081800, 11898081801, 11898081795], "tags": {"amenity": "school", "grades": "7-12", "name": "重庆市田家炳中学"}}, {"type": "way", "id": 1282100397, "center": {"lat": 29.5275621, "lon": 106.5129456}, "nodes": [11898081802, 12878585788, 11898081803, 12878585787, 12878585773, 12878585786, 11898081804, 11898081805, 11898081806, 11898081807, 11898081808, 11898081809, 11898081802], "tags": {"amenity": "school", "grades": "0-6", "name": "谢家湾金茂小学"}}, {"type": "way", "id": 1284269227, "center": {"lat": 29.5432324, "lon": 106.6578669}, "nodes": [11914519795, 11914519796, 11914519797, 11914519798, 11914519795], "tags": {"amenity": "college", "name": "重庆市南岸区教师进修学院"}}, {"type": "way", "id": 1285930488, "center": {"lat": 29.4919897, "lon": 106.5141648}, "nodes": [11928270475, 13256067044, 13256067043, 13256067045, 13256067046, 11928270476, 13572943987, 11928270477, 13572943988, 13572943986, 13572943985, 11928270478, 13572943984, 13256067047, 13036554737, 13256067048, 13572943983, 13256067049, 12815929758, 13256067050, 11928270479, 13572944076, 13256067051, 13256067052, 13572944075, 13256067053, 13256067058, 13256067057, 13572944074, 13256067056, 13256067055, 13256067054, 13572944073, 11928270480, 11928270481, 13256067037, 13572944072, 12290132045, 13256067036, 12290132044, 13572944071, 13256067038, 11928270482, 12290132043, 12290132046, 13572944068, 13036554736, 13256067039, 13572944069, 13256067040, 13256067041, 13572944070, 13256067042, 12290132042, 11928270475], "tags": {"amenity": "hospital", "healthcare": "hospital", "name": "九龙坡区人民医院"}}, {"type": "way", "id": 1285937273, "center": {"lat": 29.5372628, "lon": 106.5650131}, "nodes": [11928304678, 11928304679, 11928304680, 11928304681, 11928304682, 11928304683, 11928304684, 11928304685, 11928304678], "tags": {"amenity": "school", "name": "南坪实验小学（正街校区）"}}, {"type": "way", "id": 1286712510, "center": {"lat": 29.6627027, "lon": 106.5252132}, "nodes": [11934180393, 11934180394, 11934180395, 11934180396, 11934180397, 11934180398, 11934180399, 11934180400, 11934180380, 11934119835, 11934180393], "tags": {"amenity": "kindergarten", "name": "鹿苹北郡西区幼儿园"}}, {"type": "way", "id": 1286712512, "center": {"lat": 29.6575591, "lon": 106.5266617}, "nodes": [11934180404, 11934180403, 11934180463, 11934180464, 11934180465, 11934180406, 11934180405, 11934180404], "tags": {"amenity": "kindergarten", "name": "鹿苹北郡东区幼儿园"}}, {"type": "way", "id": 1293113095, "center": {"lat": 29.5621166, "lon": 106.5167341}, "nodes": [11987821799, 11987821800, 11987821801, 11987821809, 11987821810, 11987821802, 11987821803, 11987821804, 12592924130, 12592924131, 12592924132, 12592924133, 11987821805, 11987821806, 11987821799], "tags": {"amenity": "school", "name": "两江国际实验学校"}}, {"type": "way", "id": 1295986708, "center": {"lat": 29.5083619, "lon": 106.6643725}, "nodes": [12009067473, 12009067474, 12009067475, 12009067476, 12009067477, 12009067478, 12009067479, 12009067480, 12009067473], "tags": {"amenity": "school", "grades": "0-6", "name": "重庆市南岸区教师进修学院附属小学校"}}, {"type": "way", "id": 1295986709, "center": {"lat": 29.5095369, "lon": 106.6618667}, "nodes": [12009067481, 12009067482, 12009067483, 12009067484, 12009067485, 12009067486, 12009067487, 12009067488, 12009067489, 12009067490, 12009067491, 12009067481], "tags": {"amenity": "hospital", "healthcare": "hospital", "name": "重庆市南岸区第三人民医院"}}, {"type": "way", "id": 1303844052, "center": {"lat": 29.5465203, "lon": 106.5021196}, "nodes": [12074852514, 12074852515, 12074852516, 12074852517, 12074852518, 12074852519, 12074852520, 12074852521, 12074852522, 12074852523, 12074852524, 12074852525, 12074852526, 12074852527, 12074852528, 12074852514], "tags": {"amenity": "hospital", "healthcare": "hospital", "name": "重庆医科大学附属第一医院第一分院(虎头岩院区)"}}, {"type": "way", "id": 1303852190, "center": {"lat": 29.5787216, "lon": 106.5167283}, "nodes": [12074914625, 12074914640, 12074914641, 12074914642, 12167691429, 12167691428, 12167691427, 12167691430, 12167691432, 12167691431, 12074914626, 12074914625], "tags": {"amenity": "kindergarten", "name": "巴蜀(华立)幼儿园", "phone": "+86 23 67661095"}}, {"type": "way", "id": 1303852195, "center": {"lat": 29.5789116, "lon": 106.5173875}, "nodes": [12074936078, 12074936079, 12074936080, 2552133303, 12167691435, 12074936081, 12074936085, 12074936082, 12074936083, 12074936078], "tags": {"amenity": "driving_school", "name": "锦帆驾校", "name:en": "Jinfan Driving School", "phone": "+86 23 67932792"}}, {"type": "way", "id": 1303917672, "center": {"lat": 29.5521419, "lon": 106.504141}, "nodes": [12075454035, 12075454036, 12075454037, 12075454038, 12075454039, 12075454040, 12075454034, 12074843598, 12074843597, 12075454041, 12074843596, 12075454042, 12075454043, 12075454035], "tags": {"amenity": "hospital", "healthcare": "hospital", "name": "重庆市中医骨科医院(化龙桥院区)"}}, {"type": "way", "id": 1304044249, "center": {"lat": 29.5880468, "lon": 106.4940172}, "nodes": [8805612143, 12076578826, 9363003674, 12076578825, 8805612143], "tags": {"amenity": "kindergarten", "name": "龙湖紫都城幼儿园"}}, {"type": "way", "id": 1305963084, "center": {"lat": 29.5789016, "lon": 106.454787}, "nodes": [12095407334, 12095407335, 12095407336, 12095407337, 12095407338, 12095407339, 12095407340, 12095407341, 12095407342, 12095407343, 12095407344, 12095407345, 12095407334], "tags": {"amenity": "school", "name": "树人沙磁小学"}}, {"type": "way", "id": 1314367855, "center": {"lat": 29.521531, "lon": 106.44003}, "nodes": [12165528697, 12165528680, 12165528692, 12165528691, 12165528690, 12165528700, 12165528701, 12165528697], "tags": {"amenity": "driving_school", "name": "仁义驾校凤鸣山总校"}}, {"type": "way", "id": 1315868866, "center": {"lat": 29.5817989, "lon": 106.4972094}, "nodes": [12179759677, 12179759678, 12179759679, 12179759680, 12179759681, 12179759682, 12179759683, 12179759684, 12179759685, 12179759686, 12179759687, 12179759688, 12179759689, 12179759690, 12179759691, 12179759677], "tags": {"amenity": "school", "name": "渝北区渝开学校"}}, {"type": "way", "id": 1319606968, "center": {"lat": 29.5632188, "lon": 106.4716107}, "nodes": [12211583436, 12211583437, 12211583438, 12211583451, 12211583439, 12211583440, 12211583441, 12211583442, 12211583443, 12211583444, 12211583445, 12211583446, 12211583448, 12211583447, 12211583436], "tags": {"amenity": "hospital", "healthcare": "hospital", "name": "重庆大学附属肿瘤医院"}}, {"type": "way", "id": 1320947981, "center": {"lat": 29.6691093, "lon": 106.487151}, "nodes": [12224010645, 12224010646, 12224010647, 12224010648, 12224010649, 12224010650, 12224010651, 12224010652, 12224010653, 12224010654, 12224010655, 12224010656, 12224010657, 12224010658, 12224010659, 12224010660, 12224010661, 12224010662, 12224010663, 12224010664, 12224010665, 12224010666, 12224010667, 12224010645], "tags": {"amenity": "hospital", "healthcare": "hospital", "name": "重庆医科大学附属儿童医院（两江院区）"}}, {"type": "way", "id": 1320947982, "center": {"lat": 29.6658597, "lon": 106.4881038}, "nodes": [12224010668, 12224010669, 12224010670, 12224010671, 12224010672, 12224010673, 12224010674, 12224010675, 12224010676, 12224010677, 12224010678, 12224010679, 12224010680, 12224010668], "tags": {"amenity": "hospital", "healthcare": "hospital", "name": "佑佑宝贝妇儿医院"}}, {"type": "way", "id": 1322587791, "center": {"lat": 29.5374018, "lon": 106.4761199}, "nodes": [12238410029, 12238410030, 12238410031, 12238410032, 12238410033, 12238410034, 12238410035, 12238410036, 12238410039, 12238410037, 12238410038, 4460405608, 12238410024, 12238410023, 12238410022, 12238410021, 4460405624, 4460405615, 12238410029], "tags": {"amenity": "school", "education": "school", "name": "重庆市风景园林技工学校"}}, {"type": "way", "id": 1322587794, "center": {"lat": 29.5400182, "lon": 106.4800775}, "nodes": [12238410050, 12238410051, 12238410052, 12238410053, 12238410054, 12238410055, 12238410056, 12238410057, 12238410058, 12238410059, 12238410060, 12238410061, 12238410062, 12238410063, 12238410064, 12238410065, 12238410066, 12238410067, 12238410050], "tags": {"amenity": "school", "name": "重庆高新区第一实验小学"}}, {"type": "way", "id": 1322587803, "center": {"lat": 29.488261, "lon": 106.4551699}, "nodes": [12238410101, 12238410102, 12238410103, 12238410104, 12238410105, 12238410101], "tags": {"amenity": "school", "name": "大渡口区育才小学红旭校区"}}, {"type": "way", "id": 1322823323, "center": {"lat": 29.5044971, "lon": 106.5721869}, "nodes": [12240678411, 12240678412, 4140410166, 4140410165, 12240678413, 12240678414, 12240678415, 12240678416, 12240678417, 12240678418, 12240678419, 12240678420, 12240678421, 12240663499, 12240678422, 12240701001, 4140410018, 12240678424, 12240678425, 12240678426, 12240678427, 12240678428, 12240678429, 12240678430, 12240678431, 12240678432, 12240678411], "tags": {"addr:city": "海棠溪街道", "addr:housenumber": "37号", "addr:province": "重庆市", "addr:street": "学府大道", "amenity": "school", "grades": "0-9", "name": "重庆市教科院巴蜀实验学校"}}, {"type": "way", "id": 1323610387, "center": {"lat": 29.5311064, "lon": 106.456696}, "nodes": [12248243912, 12248243913, 12248243914, 12248243915, 12248243916, 12248243917, 12248243918, 12248243912], "tags": {"amenity": "school", "name": "名校联合外语小学"}}, {"type": "way", "id": 1323837621, "center": {"lat": 29.4579091, "lon": 106.5341039}, "nodes": [12250321805, 12250321804, 12250321803, 12250321802, 12250321801, 12250320400, 12250320399, 12250320398, 12250320397, 12250320396, 12250320395, 12250320394, 12250320393, 12250320392, 12250320391, 12250320390, 12250320389, 12250320388, 12250320387, 12250320386, 12250320385, 12250320384, 12250320383, 12250320382, 12250320381, 12250320380, 12250320379, 12250320378, 12250320377, 12250321805], "tags": {"amenity": "school", "name": "重庆市清华中学"}}, {"type": "way", "id": 1323849742, "center": {"lat": 29.5012037, "lon": 106.4890621}, "nodes": [12250397060, 12250397059, 4143841329, 12250397058, 12250397053, 12250397060], "tags": {"amenity": "driving_school", "name": "奥体驾校练车场"}}, {"type": "way", "id": 1323867921, "center": {"lat": 29.6049167, "lon": 106.6110492}, "nodes": [12250517690, 12250517689, 12250517688, 12250517687, 12250517686, 12250517690], "tags": {"amenity": "school", "name": "中窑小学"}}, {"type": "way", "id": 1324226390, "center": {"lat": 29.5077212, "lon": 106.4770782}, "nodes": [12253881252, 12253881251, 12253881250, 12253881249, 12253881248, 12253881247, 12253881252], "tags": {"amenity": "school", "name": "火炬小学"}}, {"type": "way", "id": 1325080795, "center": {"lat": 29.5349075, "lon": 106.4819406}, "nodes": [12261618506, 12265746221, 12261618507, 12261618508, 12261618509, 12261618510, 12261618513, 12261618511, 12261618512, 12261618506], "tags": {"amenity": "hospital", "healthcare": "hospital", "name": "重庆明好医院"}}, {"type": "way", "id": 1325080811, "center": {"lat": 29.5394177, "lon": 106.4850756}, "nodes": [12261618569, 12265746227, 12265746228, 12261618570, 12261618571, 8195893862, 8195893864, 12261618569], "tags": {"amenity": "school", "name": "重庆市红光中学"}}, {"type": "way", "id": 1325281913, "center": {"lat": 29.5074374, "lon": 106.4941984}, "nodes": [12262958942, 12262958943, 12262958944, 12262958945, 12262958946, 10883068061, 10883068062, 12262958947, 12262958942], "tags": {"amenity": "hospital", "healthcare": "hospital", "name": "九龙坡区妇幼保健院A区"}}, {"type": "way", "id": 1325600510, "center": {"lat": 29.5390422, "lon": 106.4846813}, "nodes": [12265746227, 12265746229, 12261618570, 12265746228, 12265746227], "tags": {"amenity": "kindergarten", "name": "红光幼儿园"}}, {"type": "way", "id": 1328502984, "center": {"lat": 29.4595931, "lon": 106.6333923}, "nodes": [12291238176, 12291238183, 12291238184, 12291238172, 12291238173, 12291238174, 12291238175, 12291238176], "tags": {"amenity": "kindergarten", "name": "巴南区渝锦悦幼儿园"}}, {"type": "way", "id": 1330117640, "center": {"lat": 29.5087682, "lon": 106.4741814}, "nodes": [12306727711, 12306727710, 12306727709, 12306727708, 12306727707, 12306727711], "tags": {"amenity": "hospital", "healthcare": "hospital", "name": "九龙坡区疾病预防控制中心"}}, {"type": "way", "id": 1330635466, "center": {"lat": 29.5442709, "lon": 106.4984567}, "nodes": [8690743464, 12311867507, 12311867508, 12311867509, 12311867510, 12311867511, 12311867512, 12311867513, 12311867514, 12311867515, 8690743473, 8690743474, 12311867516, 12311867517, 12311867518, 12311867519, 12311867520, 12311867522, 12311867521, 8690743475, 8690743508, 8690743509, 8690743465, 8690743464], "tags": {"amenity": "school", "name": "重庆市求精中学河运路校区"}}, {"type": "way", "id": 1331866855, "center": {"lat": 29.4487553, "lon": 106.5491125}, "nodes": [12322916342, 12322916343, 12322916344, 12322916345, 12322916346, 12322916347, 12322916360, 12322916342], "tags": {"amenity": "school", "name": "重庆工业管理职业学校"}}, {"type": "way", "id": 1335993294, "center": {"lat": 29.6130491, "lon": 106.4471884}, "nodes": [12358439521, 12358439522, 12358439523, 12358439524, 12358439525, 12358439526, 12358439527, 12358439528, 12358439529, 12358439521], "tags": {"amenity": "kindergarten", "name": "沙坪坝区嘉陵幼儿园"}}, {"type": "way", "id": 1335993297, "center": {"lat": 29.6133401, "lon": 106.4494224}, "nodes": [12358439557, 12358439558, 12358439559, 12358439560, 12358439561, 12358439562, 12358439567, 12358439563, 12358439564, 12358439565, 12358439566, 12358439557], "tags": {"amenity": "school", "name": "嘉陵小学"}}, {"type": "way", "id": 1336751002, "center": {"lat": 29.5339719, "lon": 106.6011426}, "nodes": [12364225262, 12364225263, 12364225264, 12364225265, 12364225266, 12364225267, 12364225268, 12364225269, 12364225270, 12364225271, 12364225272, 12364225273, 12364225274, 12364225275, 12364225276, 12364225277, 12364225278, 12364225279, 12364225280, 12364225287, 12364225281, 12364225282, 12364225283, 12364225284, 12364225262], "tags": {"amenity": "school", "building": "yes", "name": "信科大楼(Information Technology Building)"}}, {"type": "way", "id": 1337370057, "center": {"lat": 29.5523692, "lon": 106.5015873}, "nodes": [12369673114, 12369673115, 12369673116, 12369673117, 12369673118, 12369673114], "tags": {"amenity": "school", "name": "重庆二十九中"}}, {"type": "way", "id": 1338279075, "center": {"lat": 29.5741607, "lon": 106.5404197}, "nodes": [12378730802, 12378730803, 12378730804, 12378730805, 12378730773, 12378730772, 12378730802], "tags": {"amenity": "school", "name": "鲤鱼池小学（钢锋校区）"}}, {"type": "way", "id": 1338300641, "center": {"lat": 29.5735975, "lon": 106.525603}, "nodes": [12378924249, 12378924250, 12378924251, 12378924252, 12378924253, 12378924254, 12378924255, 12378924256, 12378924257, 12378924258, 12378924259, 12378924260, 12378924261, 12378924262, 12378924263, 12378924249], "tags": {"amenity": "school", "name": "江北区蜀都小学"}}, {"type": "way", "id": 1339776057, "center": {"lat": 29.67779, "lon": 106.4929694}, "nodes": [12393163074, 12393163072, 12393163071, 12393163070, 12393163069, 12393163068, 12393163067, 12794761913, 12794761914, 12794761915, 12393163074], "tags": {"amenity": "school", "name": "星光学校(礼嘉校区)"}}, {"type": "way", "id": 1339776058, "center": {"lat": 29.6785385, "lon": 106.4927025}, "nodes": [12393163072, 12393163074, 12393163078, 12393163077, 12393163076, 12393163075, 12393163072], "tags": {"amenity": "police", "name": "礼嘉派出所"}}, {"type": "way", "id": 1339776060, "center": {"lat": 29.6793556, "lon": 106.4968492}, "nodes": [12393163100, 12393163099, 10836173286, 10836173288, 12393163100], "tags": {"amenity": "kindergarten", "name": "嘉慧幼儿园"}}, {"type": "way", "id": 1339861283, "center": {"lat": 29.5705417, "lon": 106.5293207}, "nodes": [12394028213, 12394028248, 12394028249, 12394028250, 12394028214, 12394028213], "tags": {"amenity": "kindergarten"}}, {"type": "way", "id": 1344345048, "center": {"lat": 29.6003313, "lon": 106.6754776}, "nodes": [12436995145, 12436995184, 12436995185, 12436995186, 12436995187, 12436995188, 12436995189, 12436995190, 12436995191, 12436995192, 12436995193, 12436995194, 12436995195, 12436995196, 12436995197, 12436995198, 12436995199, 12436995200, 12437043013, 12437043001, 12437043012, 12437043002, 12437043003, 12437043004, 12437043011, 12437043005, 12437043006, 12437043007, 12437043008, 12437043009, 12422422443, 12422422444, 5340917604, 12436995164, 12422422445, 5340917603, 12422422446, 12437043010, 12422422447, 5340917602, 12436995163, 12422422450, 12436995162, 12422422448, 12436995161, 12422422449, 5340917601, 12422422451, 12436995160, 12436995159, 12436995158, 12436995148, 12436995157, 12436995156, 12436995155, 12436995154, 12436995153, 12436995151, 12436995152, 12436995149, 12436995147, 12436995150, 12436995146, 5340917600, 12436995145], "tags": {"amenity": "school", "name": "重庆莱克顿外籍人员子女学校"}}, {"type": "way", "id": 1344547203, "center": {"lat": 29.60487, "lon": 106.5245836}, "nodes": [12438721376, 12438721377, 12438721378, 12438721379, 12438721376], "tags": {"amenity": "school", "name": "巴蜀常春藤正大德善校区小学部"}}, {"type": "way", "id": 1344547210, "center": {"lat": 29.6032935, "lon": 106.525761}, "nodes": [12438721426, 12438721429, 12438721428, 12438721427, 12438721426], "tags": {"amenity": "kindergarten", "name": "笛迪香奈公馆幼儿园"}}, {"type": "way", "id": 1344547214, "center": {"lat": 29.6033172, "lon": 106.52065}, "nodes": [12438721462, 12438721476, 12438721468, 12438721469, 12438721470, 12438721471, 12438721472, 12438721473, 12438721474, 12438721465, 12438721464, 12438721463, 12438721462], "tags": {"amenity": "school", "name": "巴蜀常春藤正大德善校区初中部"}}, {"type": "way", "id": 1348469162, "center": {"lat": 29.506515, "lon": 106.4861561}, "nodes": [12473443353, 12473443352, 12473443351, 12473443350, 12473443353], "tags": {"amenity": "kindergarten", "name": "大风车双语幼儿园"}}, {"type": "way", "id": 1349234000, "center": {"lat": 29.5812376, "lon": 106.4742985}, "nodes": [12480663745, 12480663746, 12480663747, 12480663748, 12480663749, 12480663750, 12480663751, 12480663752, 12480663753, 12480663754, 12480663755, 12480663756, 12480663757, 12480663758, 12480663759, 12480663745], "tags": {"amenity": "school", "education": "school", "name": "重庆市字水中学（玉带山校区）"}}, {"type": "way", "id": 1349234001, "center": {"lat": 29.5824184, "lon": 106.4709815}, "nodes": [12480663760, 12480663761, 12480663762, 12480663763, 12480663764, 12480663765, 12480663766, 13287313593, 12480663760], "tags": {"amenity": "school", "education": "school", "name": "重庆玉带山小学"}}, {"type": "way", "id": 1351197171, "center": {"lat": 29.5921164, "lon": 106.4869178}, "nodes": [12471634810, 12500722209, 12500722210, 12500722211, 12471634811, 12500722212, 12471634810], "tags": {"amenity": "police", "name": "渝北区交巡警龙山大队"}}, {"type": "way", "id": 1355360855, "center": {"lat": 29.5258619, "lon": 106.544122}, "nodes": [12543558149, 12543558150, 12543558151, 12543558152, 12543558153, 12543558149], "tags": {"amenity": "school", "name": "重庆珊瑚初级中学（明佳校区）"}}, {"type": "way", "id": 1356932354, "center": {"lat": 29.5921641, "lon": 106.4623051}, "nodes": [12559035745, 12559035746, 12559035747, 12559035748, 12559035749, 12559035750, 12559035751, 12559035752, 12559035753, 12559035754, 12559035755, 12559035756, 12559035757, 12559035758, 12559035759, 12559035760, 12559035761, 12559035762, 12559035745], "tags": {"amenity": "school", "name": "重庆八中宏帆中学"}}, {"type": "way", "id": 1356932355, "center": {"lat": 29.5907265, "lon": 106.4564987}, "nodes": [12559035780, 12559035781, 12559035782, 12559035783, 12559035780], "tags": {"amenity": "school", "name": "重庆市行知学校"}}, {"type": "way", "id": 1360330115, "center": {"lat": 29.5604838, "lon": 106.5172283}, "nodes": [12592861496, 12592861488, 12592861497, 12592861498, 12592861499, 12592861500, 12592924101, 12592861495, 12592861491, 12592861496], "tags": {"amenity": "kindergarten", "name": "卓洋·金贝幼儿园"}}, {"type": "way", "id": 1361467412, "center": {"lat": 29.5789669, "lon": 106.5590919}, "nodes": [12604151233, 12604151234, 12604151235, 12604151236, 12604151237, 12604151238, 12604151233], "tags": {"amenity": "school", "name": "江北区新村致远实验小学"}}, {"type": "way", "id": 1362287456, "center": {"lat": 29.6393336, "lon": 106.5153919}, "nodes": [12602374702, 12603384370, 12603384371, 12612698194, 12612698192, 12612698190, 12612698188, 12602374702], "tags": {"amenity": "kindergarten", "name": "恒大山水城幼儿园"}}, {"type": "way", "id": 1362287470, "center": {"lat": 29.6347626, "lon": 106.5037227}, "nodes": [12612718813, 12612718818, 12612718819, 12612718814, 12612718813], "tags": {"amenity": "kindergarten", "name": "绿宝贝幼儿园"}}, {"type": "way", "id": 1362287475, "center": {"lat": 29.6397621, "lon": 106.4926692}, "nodes": [12612718870, 12612718879, 12612718872, 12612718871, 12612718870], "tags": {"amenity": "kindergarten", "name": "重庆聆宝幼儿园"}}, {"type": "way", "id": 1362287484, "center": {"lat": 29.6424089, "lon": 106.5014805}, "nodes": [12612719052, 12612719053, 12612719054, 10539808648, 10539808647, 12612719052], "tags": {"amenity": "kindergarten", "name": "德宏星湖幼儿园"}}, {"type": "way", "id": 1362840387, "center": {"lat": 29.4992211, "lon": 106.5267474}, "nodes": [12618167160, 12618167161, 12618167143, 12618167144, 12618167160], "tags": {"amenity": "kindergarten", "name": "贝克尔幼儿园"}}, {"type": "way", "id": 1362840397, "center": {"lat": 29.4924795, "lon": 106.5304928}, "nodes": [12618167332, 12618167333, 12618167362, 12747969636, 12618163608, 12618163609, 12618163606, 12747969635, 12747969634, 12618163607, 12618167334, 12618167335, 12618167336, 12618167337, 12618167356, 12618167338, 12618167357, 12618167339, 12618167358, 12618167340, 12618167341, 12618167359, 12618167342, 12618167343, 12618167344, 12618167345, 12618167346, 12618167347, 12618167348, 12618167349, 12618167350, 12618167351, 12618167352, 12618167353, 12618167354, 12618167355, 12618167332], "tags": {"amenity": "school", "name": "重庆市铁路中学校A区"}}, {"type": "way", "id": 1362842448, "center": {"lat": 29.4915541, "lon": 106.5338392}, "nodes": [12618167335, 12618163611, 12618163612, 12618163613, 12618163614, 12618163632, 12618163615, 12618163616, 12618163617, 12618163633, 12618163618, 12618163619, 12625795133, 12625795132, 12625795131, 12625795130, 12618163625, 12625795129, 12618163626, 12618163609, 12618163606, 12747969635, 12747969634, 12618163607, 12618167334, 12618167335], "tags": {"amenity": "college", "name": "重庆电力高等专科学校（东区）"}}, {"type": "way", "id": 1363597589, "center": {"lat": 29.4893329, "lon": 106.5349291}, "nodes": [12625795109, 12625795110, 12625795111, 12625795112, 12625795113, 12625795114, 12625795115, 12625795116, 12625795117, 12625795118, 12625795119, 12625795120, 2722788838, 2722788839, 12625795121, 12625795122, 12625795123, 12625795124, 12625795125, 12625795126, 12625795109], "tags": {"amenity": "school", "name": "重庆市铁路中学校B区"}}, {"type": "way", "id": 1363597590, "center": {"lat": 29.4923029, "lon": 106.5349894}, "nodes": [12625795129, 12625795134, 12625795135, 12625795136, 12625795137, 12625795138, 12625795139, 12625795140, 12625795141, 12625795142, 12625795143, 12618163619, 12625795133, 12625795132, 12625795131, 12625795130, 12618163625, 12625795129], "tags": {"amenity": "school", "name": "重庆市工艺美术学校"}}, {"type": "way", "id": 1363597591, "center": {"lat": 29.4891603, "lon": 106.5299128}, "nodes": [7622693851, 12625795144, 12625795145, 12625795146, 12625795147, 12625795148, 12625795149, 12625795150, 12625795151, 12625795152, 12625795153, 12625795199, 12625795200, 12625795198, 12625795154, 12625795155, 12625795156, 12625795157, 12625795158, 12625795159, 12625795160, 12625795175, 12625795174, 12625795173, 12625795172, 12625795171, 12625795161, 12625795162, 12625795163, 12625795164, 12625795165, 12625795166, 12625795167, 12625795168, 12625795169, 12625795170, 7622693855, 7622693854, 7622693853, 13354959656, 7622693852, 7622693851], "tags": {"amenity": "school", "name": "重庆电力高等专科学校（西区）"}}, {"type": "way", "id": 1363985591, "center": {"lat": 29.5859523, "lon": 106.5506725}, "nodes": [12629969025, 12629969026, 12629969027, 12629969028, 12629969039, 12629969029, 12629969030, 12629969031, 12629969032, 12629969033, 12629969034, 12629969035, 12629969036, 12629969037, 12629969038, 12629969025], "tags": {"amenity": "school", "name": "重庆市字水中学校（东区）"}}, {"type": "way", "id": 1363985593, "center": {"lat": 29.5789451, "lon": 106.5480665}, "nodes": [12629969051, 12629969052, 12629969053, 12629969054, 12629969055, 12629969056, 12629969057, 12629969058, 12629969059, 12629969060, 12629969063, 12629969061, 12629969051], "tags": {"amenity": "hospital", "healthcare": "hospital", "name": "重庆三博长安医院"}}, {"type": "way", "id": 1363985596, "center": {"lat": 29.5795751, "lon": 106.5498151}, "nodes": [12629969076, 12629969091, 12629969090, 12629969089, 12629969077, 12629969078, 12629969079, 12629969080, 12629969081, 12629969082, 12629969083, 12629969084, 12629969085, 12629969086, 12629969076], "tags": {"amenity": "school", "name": "雨花小学"}}, {"type": "way", "id": 1364011495, "center": {"lat": 29.6383374, "lon": 106.472001}, "nodes": [12630234418, 12630234422, 12630234423, 12630234416, 12630234417, 12630234418], "tags": {"amenity": "kindergarten", "name": "两江新区雅心幼儿园"}}, {"type": "way", "id": 1364011496, "center": {"lat": 29.6389403, "lon": 106.4677891}, "nodes": [8181078748, 12630234424, 12630234425, 12630234426, 12630234430, 12630234429, 12630234440, 12630234441, 8181078750, 8181078748], "tags": {"amenity": "hospital", "healthcare": "hospital", "name": "重庆莱佛士医院"}}, {"type": "way", "id": 1364011499, "center": {"lat": 29.637007, "lon": 106.4683145}, "nodes": [12630234459, 12630234480, 12630234461, 12630234460, 12630234459], "tags": {"amenity": "kindergarten", "name": "杰夫天元道幼儿园"}}, {"type": "way", "id": 1364011842, "center": {"lat": 29.6427736, "lon": 106.4821588}, "nodes": [12630193317, 12630193318, 8791450517, 8791450540, 12630193317], "tags": {"amenity": "school", "name": "两江新区嘉成小学"}}, {"type": "way", "id": 1364034906, "center": {"lat": 29.5199699, "lon": 106.4602049}, "nodes": [12630433980, 12630433981, 12630433982, 12630433983, 12630433984, 12630433985, 12630433980], "tags": {"amenity": "school", "name": "巴山小学"}}, {"type": "way", "id": 1370599625, "center": {"lat": 29.5938162, "lon": 106.5835793}, "nodes": [12693776967, 12693776968, 12693776969, 12693776970, 12693776971, 12693776972, 12693776967], "tags": {"amenity": "kindergarten", "name": "南岸区爱弥儿幼儿园"}}, {"type": "way", "id": 1374182721, "center": {"lat": 29.5799353, "lon": 106.5061979}, "nodes": [12723533563, 12726054097, 12726088645, 12726088644, 12726088643, 12726088642, 12726088641, 12726088640, 12726088639, 12726088638, 2552142503, 2552142498, 2552142481, 12723533567, 12723533568, 12723533569, 12723533570, 12723533563], "tags": {"amenity": "school", "name": "西南大学国际教育中心"}}, {"type": "way", "id": 1374795048, "center": {"lat": 29.5544408, "lon": 106.5567102}, "nodes": [12729362136, 12729362137, 12729362138, 12729362139, 12729362140, 12729362141, 12729362142, 12729362150, 11342439495, 12729362143, 12729362144, 12729362145, 12729362146, 12729362147, 12729362148, 12729362149, 12729362136], "tags": {"amenity": "school", "name": "重庆复旦中学外国语学校", "name:zh": "重庆复旦中学外国语学校"}}, {"type": "way", "id": 1374934368, "center": {"lat": 29.5524622, "lon": 106.537228}, "nodes": [12730436743, 12730436779, 12730436764, 12730436780, 12730436781, 12730436765, 12730436766, 12730436767, 12730436768, 12730436769, 12730436770, 12730436771, 12730436772, 12730436773, 12730436778, 12730436774, 12730436782, 12730436775, 12730436776, 12730436777, 12730436745, 12730436744, 12730436743], "tags": {"amenity": "school", "name": "渝中区两路口小学"}}, {"type": "way", "id": 1374937021, "center": {"lat": 29.555404, "lon": 106.5687166}, "nodes": [3179109957, 12730460024, 12730460025, 12730460026, 12730457593, 12730457594, 12730457595, 12730457596, 12730457597, 12730457598, 12730457599, 9386074339, 3179109958, 12730460017, 3179109957], "tags": {"amenity": "school", "name": "重庆精一民族小学"}}, {"type": "way", "id": 1375313531, "center": {"lat": 29.596226, "lon": 106.5633794}, "nodes": [12734041518, 12734041519, 12734041520, 12734041521, 12734041522, 12734041523, 12734041524, 12734041525, 12734041526, 12734041527, 12734041528, 12734041529, 12734041530, 12734041531, 12734041532, 12734041533, 12734041534, 12734041535, 12734041536, 12734041537, 12734041538, 12734041539, 12734041540, 12734041541, 12734041542, 12734041543, 12734041544, 12734041545, 12734041546, 12734041518], "tags": {"amenity": "school", "name": "洋河花园实验小学翰澜校区"}}, {"type": "way", "id": 1376492824, "center": {"lat": 29.546098, "lon": 106.5208294}, "nodes": [5340111171, 12744874234, 11841648968, 12744861264, 5340111170, 12744861263, 5340111171], "tags": {"amenity": "school", "name": "渝中区解放小学"}}, {"type": "way", "id": 1377498170, "center": {"lat": 29.4952545, "lon": 106.5376694}, "nodes": [12754772544, 12754772551, 12754772545, 12754772546, 12754772547, 12754772548, 12754772549, 12754772550, 12754772544], "tags": {"amenity": "school", "name": "重庆铁路小学"}}, {"type": "way", "id": 1378036924, "center": {"lat": 29.6285736, "lon": 106.6148233}, "nodes": [12759603934, 12759603935, 12759603936, 12759603937, 12759603938, 12759603939, 12759603934], "tags": {"amenity": "kindergarten"}}, {"type": "way", "id": 1378036925, "center": {"lat": 29.6294101, "lon": 106.6200613}, "nodes": [12759603940, 12759603941, 12759603942, 12759603943, 12759603944, 12759603945, 12759603946, 12759603947, 12759603948, 12759603940], "tags": {"amenity": "school", "name": "鲤鱼池泽善小学"}}, {"type": "way", "id": 1378049682, "center": {"lat": 29.5402706, "lon": 106.5098866}, "nodes": [12759699568, 12759699569, 12759699570, 12759699571, 12759699572, 12759699573, 12759699574, 12759699575, 12759699576, 12759699577, 12759699578, 12759699579, 12759699580, 12759699581, 12759699582, 12759699583, 12759699584, 12759699585, 12759699586, 12759699587, 12759699588, 12759699589, 12759699590, 12759699591, 12759699592, 12759699568], "tags": {"amenity": "school", "name": "马家堡小学", "name:zh": "马家堡小学"}}, {"type": "way", "id": 1378241501, "center": {"lat": 29.6577615, "lon": 106.573384}, "nodes": [12761549166, 12761549167, 12761549168, 12761549169, 12761549170, 12761549166], "tags": {"amenity": "kindergarten", "name": "金德凯顿爱德蒙幼儿园"}}, {"type": "way", "id": 1378241503, "center": {"lat": 29.6583617, "lon": 106.5736367}, "nodes": [12761549173, 12761549174, 12761549175, 12761549176, 12761549177, 12761549178, 12761549173], "tags": {"amenity": "school", "name": "逸翠小学"}}, {"type": "way", "id": 1379326037, "center": {"lat": 29.5715506, "lon": 106.5383973}, "nodes": [12772266759, 12772266760, 12772266826, 12772266827, 12772266761, 12772266828, 12772266762, 12772266763, 12772266764, 12772266765, 12772266766, 12772266767, 12772266768, 12772266769, 12772266770, 12772266771, 12772266772, 12772266773, 12772266774, 12772266775, 12772266759], "tags": {"amenity": "school", "name": "重庆市御龙天峰十八中学", "name:en": "Chongqing Yulong-Tianfeng No.18 Middle School", "name:zh": "重庆市御龙天峰十八中学"}}, {"type": "way", "id": 1380818570, "center": {"lat": 29.5863758, "lon": 106.5809632}, "nodes": [12783489972, 12783489973, 12783489974, 12783489975, 12783489972], "tags": {"amenity": "police", "name": "长江航运公安局重庆分局"}}, {"type": "way", "id": 1381166512, "center": {"lat": 29.5863122, "lon": 106.5827205}, "nodes": [12786160618, 12786160619, 12786167226, 12786167225, 12786160620, 12786160621, 12786160622, 12786160624, 12786160623, 12786160618], "tags": {"amenity": "school", "name": "弹子石小学（卫国路校区）", "name:zh": "弹子石小学（卫国路校区）"}}, {"type": "way", "id": 1381166513, "center": {"lat": 29.5854467, "lon": 106.583492}, "nodes": [12786160635, 12786160636, 12786160637, 12786160638, 12786160639, 12786160640, 12786160641, 12786160668, 12786160642, 12786160643, 12786160644, 12786160645, 12786160646, 12786160647, 12786160648, 12786160649, 12786160650, 12786160622, 12786160621, 12786160620, 12786160651, 12786160652, 12786160653, 12786160654, 12786160655, 12786160656, 12786160657, 12786160658, 12786160659, 12786160660, 12786160635], "tags": {"amenity": "hospital", "healthcare": "hospital", "name": "武警重庆总队医院", "name:zh": "武警重庆总队医院"}}, {"type": "way", "id": 1382587631, "center": {"lat": 29.5342749, "lon": 106.4943632}, "nodes": [11844509560, 12800554932, 12800554933, 11844509561, 11844509560], "tags": {"amenity": "police", "name": "歇台子派出所"}}, {"type": "way", "id": 1382587636, "center": {"lat": 29.535236, "lon": 106.4908393}, "nodes": [12800554993, 12800555000, 12800554994, 12800555002, 12800555003, 12800555004, 12800554995, 12800554996, 12800554997, 12800554998, 12800554999, 12800554993], "tags": {"amenity": "kindergarten", "name": "蒲公英幼儿园"}}, {"type": "way", "id": 1382587646, "center": {"lat": 29.5364411, "lon": 106.4927396}, "nodes": [12800555077, 12800555069, 12800555070, 12800555071, 12800555075, 12800555073, 12800555074, 12800554950, 12800554951, 12800555061, 12800555062, 12800555078, 12800555077], "tags": {"amenity": "school", "name": "中共重庆市委党校"}}, {"type": "way", "id": 1383565792, "center": {"lat": 29.5854044, "lon": 106.5962939}, "nodes": [12809708168, 12809708169, 13041184259, 7891367549, 12809708172, 12809708173, 12809708174, 12809708175, 12809708176, 12809708177, 12809708178, 12809708179, 12809708180, 12809708181, 12809708168], "tags": {"amenity": "school", "isced:level": "2;3", "name": "重庆市第十一中学校"}}, {"type": "way", "id": 1385344371, "center": {"lat": 29.595755, "lon": 106.5395434}, "nodes": [12825821009, 12825821030, 12825821033, 12825821032, 12825821031, 12825823562, 12825821010, 12825821011, 12825821012, 12825821013, 12825821014, 12825821015, 12825821016, 12825821017, 12825821018, 12825821019, 12825821020, 12825821021, 12825821022, 12825821023, 12825821024, 12825821025, 12825821026, 12825821027, 12825821028, 12825821029, 12825821009], "tags": {"amenity": "school", "education": "school", "name": "渝北区龙塔实验学校初中部"}}, {"type": "way", "id": 1385344382, "center": {"lat": 29.5990899, "lon": 106.542871}, "nodes": [12825823438, 12825823439, 12825823440, 12825823441, 12825823442, 12825823443, 12825823444, 12825823445, 12825823446, 12825823447, 12825823448, 12825823449, 12825823450, 12825823451, 12825823452, 12825823453, 12825823454, 12825823455, 12825823456, 12825823457, 12825823458, 12825823459, 12825823460, 12825823461, 12825823462, 12825823463, 12825823438], "tags": {"amenity": "school", "name": "渝北区龙头寺小学"}}, {"type": "way", "id": 1385344387, "center": {"lat": 29.5994406, "lon": 106.5437766}, "nodes": [12825823462, 12825823477, 12825823478, 12825823479, 12825823480, 12825823457, 12825823458, 12825823459, 12825823460, 12825823461, 12825823462], "tags": {"amenity": "kindergarten", "name": "渝北区龙头寺小学附属幼儿园"}}, {"type": "way", "id": 1386473147, "center": {"lat": 29.4624096, "lon": 106.47478}, "nodes": [12836157435, 12836157436, 12836157437, 12836157438, 12836157439, 12836157435], "tags": {"amenity": "school", "name": "大渡口小学"}}, {"type": "way", "id": 1386473159, "center": {"lat": 29.4701347, "lon": 106.4701608}, "nodes": [12836163620, 12836163621, 12836163622, 12836163623, 12836163620], "tags": {"amenity": "police", "name": "大渡口公安局"}}, {"type": "way", "id": 1386473160, "center": {"lat": 29.4694395, "lon": 106.4701654}, "nodes": [12836163624, 12836163625, 12836163626, 12836163627, 12836163624], "tags": {"amenity": "hospital", "healthcare": "hospital", "name": "大渡口人民医院"}}, {"type": "way", "id": 1386473168, "center": {"lat": 29.4681515, "lon": 106.4804984}, "nodes": [12836163662, 12836163663, 12836163664, 12836163665, 12836163662], "tags": {"amenity": "school", "name": "钢花小学"}}, {"type": "way", "id": 1386473169, "center": {"lat": 29.4722755, "lon": 106.464112}, "nodes": [12836163669, 12836163670, 12836163671, 12836163672, 12836163669], "tags": {"amenity": "kindergarten", "name": "育才幼儿园(万有分园)"}}, {"type": "way", "id": 1386473171, "center": {"lat": 29.4726716, "lon": 106.4665603}, "nodes": [12836163677, 13283051370, 12836163678, 12836163679, 13283051371, 12836163680, 13283051372, 13283051379, 13283051378, 13283051377, 13283051376, 13283051375, 13283051374, 13283051373, 12836163681, 12836163682, 13283051369, 13283051368, 12836163683, 13283051367, 12836163677], "tags": {"addr:housenumber": "37", "addr:street": "凤祥路北段", "amenity": "school", "education": "school", "name": "自启学校"}}, {"type": "way", "id": 1387439271, "center": {"lat": 29.5966985, "lon": 106.5382789}, "nodes": [12843505039, 12843505051, 12843505052, 12843505053, 12825821009, 12825821030, 12843505054, 12843505048, 12843505047, 12843505046, 12843505045, 12843505044, 12843505043, 12843505042, 12843505041, 12843505040, 12843505039], "tags": {"amenity": "kindergarten", "name": "重庆笛迪国际艺术幼儿园"}}, {"type": "way", "id": 1387941912, "center": {"lat": 29.4673063, "lon": 106.4836619}, "nodes": [12848298111, 12848298112, 12848298113, 12848298114, 12848298115, 12848298116, 12848298117, 12848298118, 12848298119, 12848298120, 12848298121, 12848298122, 12848298111], "tags": {"amenity": "school", "name": "百花小学"}}, {"type": "way", "id": 1390068356, "center": {"lat": 29.5442812, "lon": 106.4522917}, "nodes": [12866786896, 12866786900, 12866789401, 12866789402, 12866789403, 12866786899, 12866786898, 12866786897, 12866786896], "tags": {"amenity": "police", "name": "重庆市公安局沙坪坝分局", "name:zh": "重庆市公安局沙坪坝分局"}}, {"type": "way", "id": 1396230694, "center": {"lat": 29.5767748, "lon": 106.4199104}, "nodes": [12923323585, 12923323586, 12923323587, 12923323588, 12923323589, 12923323590, 12923323591, 12923323592, 12923323593, 12923323594, 12923323595, 12923323596, 12923323597, 12923323598, 12923323599, 12923323600, 12923324301, 12923324302, 12923324303, 12923323585], "tags": {"alt_name": "重庆歌乐山传染病医院", "amenity": "hospital", "healthcare": "hospital", "name": "重庆市公共卫生医疗救治中心"}}, {"type": "way", "id": 1408393212, "center": {"lat": 29.5387422, "lon": 106.5774146}, "nodes": [12943332236, 12943332237, 12943332238, 12943332239, 12943332240, 12943332241, 12943332242, 12943332243, 12943332244, 12943332245, 12943332246, 12943332247, 12943332248, 12943332249, 12943332236], "tags": {"amenity": "school", "name": "南岸区珊瑚浦辉实验小学", "name:zh": "南岸区珊瑚浦辉实验小学"}}, {"type": "way", "id": 1408811113, "center": {"lat": 29.5768316, "lon": 106.5955455}, "nodes": [12946755148, 12946755149, 12946755150, 12946755151, 12946755152, 12946755153, 12946755154, 12946755155, 12946755156, 12946755157, 12946755158, 12946755159, 12946755164, 12946755160, 12946755148], "tags": {"amenity": "school", "name": "重庆滨江实验学校"}}, {"type": "way", "id": 1408811114, "center": {"lat": 29.5760141, "lon": 106.5946626}, "nodes": [12946755148, 12946755162, 12946755163, 12946755150, 12946755149, 12946755148], "tags": {"amenity": "kindergarten", "name": "南岸区滨江幼儿园"}}, {"type": "way", "id": 1412244887, "center": {"lat": 29.4610014, "lon": 106.5190467}, "nodes": [12977727582, 12979241100, 12977727583, 12977727584, 12977727585, 12977727586, 12977727587, 12979241099, 12977727582], "tags": {"amenity": "school", "education": "school", "name": "清华小学（渝汇校区）", "name:en": "Qinghua Primary School (Yuhui Campus)", "name:zh": "清华小学（渝汇校区）"}}, {"type": "way", "id": 1412730838, "center": {"lat": 29.5145211, "lon": 106.5997022}, "nodes": [12982650696, 12982650697, 12982650698, 12982650699, 12982650700, 12982657101, 12982657102, 12982657103, 12982657104, 12982658363, 12982658364, 12982650696], "tags": {"amenity": "school", "name": "南岸区南山珊瑚实验小学", "name:en": "Nan'an District Nanshan-Shanhu Experimental Primary School", "name:zh": "南岸区南山珊瑚实验小学"}}, {"type": "way", "id": 1414667840, "center": {"lat": 29.5008837, "lon": 106.5974201}, "nodes": [12999374157, 12999374158, 12999374159, 12999374160, 12999374161, 12999374162, 12999374163, 12999374157], "tags": {"amenity": "hospital", "healthcare": "hospital", "name": "重庆市南岸区精神卫生中心"}}, {"type": "way", "id": 1414667845, "center": {"lat": 29.5051816, "lon": 106.5965834}, "nodes": [12999406607, 4139790434, 12999406601, 12999374200, 12999374199, 12999374198, 12999374197, 4139790432, 4139790431, 4139790430, 12999406608, 12999406609, 12999406610, 12999406611, 12999406623, 12999406612, 12999406624, 12999406622, 12999406625, 12999406626, 12999406627, 12999406628, 12999406629, 12999406630, 12999406631, 12999406613, 12999406614, 12999406607], "tags": {"amenity": "school", "name": "重庆市广益中学（文峰校区）", "name:zh": "重庆市广益中学（文峰校区）"}}, {"type": "way", "id": 1415417495, "center": {"lat": 29.5216128, "lon": 106.5646656}, "nodes": [13006710498, 13006710499, 13006710500, 13006712501, 13006710498], "tags": {"amenity": "hospital", "healthcare": "hospital", "name": "重庆市残疾人综合服务中心", "name:zh": "重庆市残疾人综合服务中心"}}, {"type": "way", "id": 1415578388, "center": {"lat": 29.5728746, "lon": 106.4885397}, "nodes": [13008496261, 13008496262, 8896253981, 8896253980, 13008496263, 13008496264, 13008496265, 13008496266, 13008496267, 13008496268, 13008496261], "tags": {"addr:city": "重庆市", "addr:district": "大路村", "addr:housenumber": "72", "addr:postcode": "400000", "addr:province": "重庆市", "amenity": "hospital", "healthcare": "hospital", "name": "重庆骑士医院"}}, {"type": "way", "id": 1415578390, "center": {"lat": 29.5716445, "lon": 106.4888545}, "nodes": [13008496278, 13008496279, 13008496277, 6898453746, 13008496283, 6898453734, 11293295232, 6898453887, 13008496286, 13008496282, 13008496285, 13008496281, 13008496284, 13008496280, 13008496278], "tags": {"amenity": "hospital", "healthcare": "hospital", "name": "重庆三博江陵医院"}}, {"type": "way", "id": 1416313981, "center": {"lat": 29.5374607, "lon": 106.522893}, "nodes": [13015535118, 13015535119, 13015535120, 13015535121, 13015535122, 13015535123, 13015535124, 13015535125, 13015535126, 13015535127, 13015535128, 13015535129, 13016383364, 13015535131, 13015535132, 13015535133, 13015535134, 13015535135, 13015535136, 13015535118], "tags": {"amenity": "university", "name": "重庆交通大学（大坪分部）"}}, {"type": "way", "id": 1417492370, "center": {"lat": 29.4841986, "lon": 106.4396197}, "nodes": [13026269038, 13026269039, 13026269040, 13026269041, 13026269042, 13026269043, 13026269044, 13026269045, 13026269046, 13026269047, 13026269048, 13026269049, 13026269050, 13026269051, 13026269052, 13026269053, 13026269054, 13026269055, 13026269056, 13026269057, 13026269058, 13026269059, 13026269060, 13026269038], "tags": {"amenity": "school", "name": "重庆市人和中学"}}, {"type": "way", "id": 1419148132, "center": {"lat": 29.5834528, "lon": 106.5978277}, "nodes": [7891367550, 7891367549, 12809708172, 13041184295, 13041184294, 13041184293, 7891367551, 7891367550], "tags": {"amenity": "school", "isced:level": "1", "name": "龙门浩隆平第二小学校"}}, {"type": "way", "id": 1422708622, "center": {"lat": 29.6155301, "lon": 106.5286625}, "nodes": [13074720421, 13074720422, 13074720423, 13074720424, 13074720425, 13074720426, 13074720421], "tags": {"amenity": "kindergarten", "name": "中央美地幼儿园"}}, {"type": "way", "id": 1422717151, "center": {"lat": 29.6146673, "lon": 106.5239309}, "nodes": [13074788865, 13074788884, 13074788866, 13074788867, 13074788868, 13074788865], "tags": {"amenity": "driving_school", "name": "义鑫驾校"}}, {"type": "way", "id": 1423321227, "center": {"lat": 29.5831976, "lon": 106.5427409}, "nodes": [13081923968, 13081923995, 13081923996, 13081923997, 13081923998, 13081923970, 13081923987, 13081923969, 13081923968], "tags": {"amenity": "school", "name": "江北区培新小学校", "name:zh": "江北区培新小学校"}}, {"type": "way", "id": 1427660332, "center": {"lat": 29.4678878, "lon": 106.42939}, "nodes": [13124667604, 13124667605, 13124667606, 13124667607, 13124667608, 13124667609, 13124667610, 13124667611, 13124667612, 13124667613, 13124667614, 13124667615, 13124667616, 13124667617, 13124667618, 13124667619, 13124667620, 13124667621, 13124667604], "tags": {"amenity": "school", "name": "重庆市田家炳中学（B区）", "name:en": "Chongqing Tianjiabing Middle School (District B)", "name:zh": "重庆市田家炳中学（B区）", "religion": "no"}}, {"type": "way", "id": 1429001833, "center": {"lat": 29.4708344, "lon": 106.5300671}, "nodes": [13136282968, 13136282969, 13136282970, 13136282971, 13136282972, 13136282973, 13136282974, 13136282976, 13136282975, 13136282968], "tags": {"amenity": "school", "name": "重庆市巴南区南华小学校"}}, {"type": "way", "id": 1430306931, "center": {"lat": 29.5607894, "lon": 106.5538085}, "nodes": [13147512598, 13147512599, 13580480094, 13580480095, 13580480096, 13580480101, 13580480097, 13580480100, 13580480099, 13580480098, 13147512600, 13580480067, 13147489019, 13580480066, 13580480065, 13580480064, 13147597401, 13580480063, 13580480062, 13580480061, 13147597402, 13580480060, 13580480059, 13580480058, 13147597403, 13580480027, 13580480026, 13580480025, 13580480024, 13580480023, 13580480022, 13580480021, 13580480020, 13580480019, 13580480018, 13580480017, 13580480016, 13580480006, 13147597405, 13580480001, 13580480002, 13580480003, 13580480004, 13580480005, 13580480008, 13147597406, 13580480007, 13580480009, 13580480010, 13580480011, 13580480012, 13580480013, 13580480014, 13580480015, 13580480147, 13580480148, 13580480149, 13580480150, 13580480151, 13580480153, 13580480154, 13580480152, 13147512598], "tags": {"amenity": "school", "name": "重庆巴蜀中学（张家花园校区）", "name:en": "Chongqing Bashu Middle School (Zhangjia-huayuan Campus)", "name:zh": "重庆巴蜀中学（张家花园校区）", "old_name": "重庆市四十二中"}}, {"type": "way", "id": 1442150366, "center": {"lat": 29.5545848, "lon": 106.5435629}, "nodes": [13232880692, 13232880693, 13232880694, 13232880695, 13232880696, 13232880697, 13232880698, 13232880692], "tags": {"amenity": "school", "name": "肖家沟小学"}}, {"type": "way", "id": 1444543980, "center": {"lat": 29.5524967, "lon": 106.4834465}, "nodes": [13254478887, 13254478888, 13254478889, 13254478890, 13254478891, 13254478892, 13254478893, 13254490007, 13254478894, 13254478895, 13254478896, 13254490006, 13254478897, 13254490029, 13254478898, 13254490026, 13254478899, 13254478900, 13254490027, 13254490001, 13254490028, 13254490002, 13254490003, 13254490004, 13254490005, 13254478887], "tags": {"amenity": "school", "education": "school", "name": "重庆巴蜀中学虎头岩校区", "name:zh": "重庆巴蜀中学虎头岩校区"}}, {"type": "way", "id": 1448413252, "center": {"lat": 29.5903868, "lon": 106.5078635}, "nodes": [13289055555, 13289055556, 13289055557, 13289055558, 13289055559, 13289055560, 13289055561, 13289055562, 13289055563, 13289055564, 13289055565, 13289055566, 13289055567, 13289055568, 13289055569, 13289055570, 13289055582, 13289055571, 13289055572, 13289055573, 13289055574, 13289055575, 13289055555], "tags": {"amenity": "school", "education": "school", "name": "松树桥中学（A区）"}}, {"type": "way", "id": 1448413253, "center": {"lat": 29.5901603, "lon": 106.5086329}, "nodes": [13289055576, 13289055577, 13289055578, 13289055579, 13289055580, 13289055581, 13289055582, 13289055569, 13289055583, 13289055584, 13289055585, 13289055586, 13289055587, 13289055588, 13289055576], "tags": {"amenity": "school", "education": "school", "name": "龙溪小学校"}}, {"type": "way", "id": 1451018860, "center": {"lat": 29.5826699, "lon": 106.4906356}, "nodes": [13307709276, 13307709277, 13307709278, 13307709279, 13307709280, 13307709281, 13307709282, 13307709283, 13307732505, 13307709284, 13307709285, 13307709286, 13307732504, 13307709287, 13307709288, 13307709289, 13307709290, 13307709291, 13307709271, 13307709272, 13307709276], "tags": {"amenity": "hospital", "healthcare": "hospital", "name": "重庆龙山团圆口腔医院"}}, {"type": "way", "id": 1457525883, "center": {"lat": 29.6250389, "lon": 106.5089903}, "nodes": [3764764441, 13367359394, 13367359395, 13367359396, 13367359397, 13367359398, 13367359399, 13367359400, 13367363401, 13367363408, 13367363402, 13367363403, 13367363404, 13367363405, 13367363406, 13367363407, 3764764446, 3764764441], "tags": {"amenity": "hospital", "healthcare": "hospital", "name": "重庆海扶医院", "name:en": "Chongqing Haifu hospital", "name:zh": "重庆海扶医院"}}, {"type": "way", "id": 1457525900, "center": {"lat": 29.6184054, "lon": 106.5204521}, "nodes": [13367363579, 13367363586, 13367363580, 13367363581, 13367363582, 13367363583, 13367363584, 13367363579], "tags": {"amenity": "school", "education": "school", "name": "两江新区人和小学", "name:zh": "两江新区人和小学"}}, {"type": "way", "id": 1461856784, "center": {"lat": 29.638203, "lon": 106.5846103}, "nodes": [13408840179, 13408840180, 13408840181, 13408840182, 13408840183, 13408840184, 13408840185, 13408840186, 13408840187, 13408840188, 13408840179], "tags": {"amenity": "school", "education": "school", "name": "金石小学", "name:zh": "金石小学"}}, {"type": "way", "id": 1462241599, "center": {"lat": 29.6483246, "lon": 106.5656398}, "nodes": [13412683107, 13412683110, 13412683111, 13412683112, 13412683113, 13412683114, 13412683109, 13412676483, 13412683108, 13412676482, 13412676481, 13412683107], "tags": {"amenity": "kindergarten", "education": "kindergarten", "name": "尚岭景德幼儿园"}}, {"type": "way", "id": 1465785267, "center": {"lat": 29.5533503, "lon": 106.4670579}, "nodes": [13444728097, 13444728098, 13444728099, 13444728100, 13444728101, 13444728102, 13444728103, 13444728104, 13444728105, 13444728106, 13444728107, 13444728108, 13444728109, 13444728110, 13444728111, 13444728112, 13444728113, 13444728114, 13444728115, 13444728116, 13444728117, 13444728097], "tags": {"amenity": "hospital", "healthcare": "hospital", "name": "重庆市公共卫生医疗救治中心平顶山院区", "name:zh": "重庆市公共卫生医疗救治中心平顶山院区"}}, {"type": "way", "id": 1465785273, "center": {"lat": 29.5530481, "lon": 106.4628938}, "nodes": [13444728209, 13444728210, 13444728211, 13444728212, 13444728213, 13444728214, 13444728215, 13444728216, 13444728217, 13444728209], "tags": {"amenity": "school", "education": "school", "name": "沙坪坝区第一实验小学校", "name:en": "Shapingba District No.1 Experimental Primary School", "name:zh": "沙坪坝区第一实验小学校"}}, {"type": "way", "id": 1465788583, "center": {"lat": 29.5787964, "lon": 106.4472676}, "nodes": [13444763944, 13444763945, 13444853452, 13444853453, 13444853454, 13444853455, 13444763946, 13444763947, 13444763948, 13444763949, 13444853450, 13444853451, 13444763950, 13444763951, 13444763952, 13444763953, 13444763954, 13444763955, 13444763956, 13444763957, 13444763958, 13444763959, 13444763960, 13444763961, 13444763962, 13444763963, 13444763964, 13444763966, 13444763967, 13444763965, 13444763968, 13444763969, 13444763970, 13444763971, 13444763972, 13444763973, 13444763974, 13444763975, 13444763976, 13444763977, 13444763944], "tags": {"amenity": "school", "education": "school", "name": "重庆市第七中学校（沙磁校区）", "name:en": "Chongqing No.7 Middle School (Shaci Campus)", "name:zh": "重庆市第七中学校（沙磁校区）"}}, {"type": "way", "id": 1466188565, "center": {"lat": 29.4691603, "lon": 106.5032938}, "nodes": [13447832452, 13447832457, 13447832458, 13447832459, 13447832460, 13447832461, 13447832462, 13447832449, 13447832450, 13447832451, 13447832452], "tags": {"amenity": "kindergarten", "education": "kindergarten", "name": "春江天镜幼儿园", "name:zh": "春江天镜幼儿园"}}, {"type": "way", "id": 1466188566, "center": {"lat": 29.4677672, "lon": 106.5034188}, "nodes": [13447832463, 13447832464, 13447832465, 13447832466, 13447832467, 13447832468, 13447832469, 13447832470, 13447832471, 13447832472, 13447832473, 13447832474, 13447832475, 13447832476, 13447832463], "tags": {"amenity": "school", "education": "school", "name": "重庆市巴南巴蜀中学校滨江校区"}}, {"type": "way", "id": 1466753200, "center": {"lat": 29.5773435, "lon": 106.5398153}, "nodes": [13452587151, 8721340220, 8721340221, 13452587152, 13452587153, 13452587154, 13452587155, 13452587156, 13452587157, 13452587158, 13452587159, 13452587160, 13452587161, 13452587162, 13452587163, 13452587151], "tags": {"amenity": "school", "education": "school", "name": "鲤鱼池小学", "name:zh": "鲤鱼池小学"}}, {"type": "way", "id": 1467282273, "center": {"lat": 29.5470958, "lon": 106.4367902}, "nodes": [13458058838, 13458058778, 13458058779, 13458058780, 13458058781, 13458058782, 13458058783, 13458058784, 13458058839, 13458058838], "tags": {"amenity": "school", "education": "school", "name": "融汇沙坪坝小学", "name:en": "Ronghui-Shapingba Primary School", "name:zh": "融汇沙坪坝小学"}}, {"type": "way", "id": 1467285791, "center": {"lat": 29.5314962, "lon": 106.4449091}, "nodes": [13458086714, 13458086715, 13458086716, 13458086717, 13458086718, 13458086719, 13458086720, 13458086721, 13458086722, 13458086723, 13458086724, 13458086725, 13458086726, 13458086727, 13458086728, 13458086729, 13458086730, 13458086731, 13458086732, 13458086733, 13458086734, 13458086735, 13458086736, 13458086741, 13458086737, 13458086738, 13458086740, 13458086739, 13458086714], "tags": {"amenity": "school", "education": "school", "name": "重庆市凤鸣山中学", "name:en": "Chongqing Fengmingshan Middle School", "name:zh": "重庆市凤鸣山中学"}}, {"type": "way", "id": 1467641259, "center": {"lat": 29.492423, "lon": 106.4551761}, "nodes": [13460826334, 13460826337, 13460826336, 13460826335, 13460826334], "tags": {"amenity": "kindergarten", "education": "kindergarten", "name": "大渡口幼儿园朵力迎宾园"}}, {"type": "way", "id": 1467641265, "center": {"lat": 29.4880059, "lon": 106.4529678}, "nodes": [13460826389, 13460826396, 13460826397, 13460826398, 13460826399, 13460826390, 13460826389], "tags": {"amenity": "kindergarten", "education": "kindergarten", "name": "大渡口区育才幼儿园(星辰分园)"}}, {"type": "way", "id": 1469381810, "center": {"lat": 29.6737703, "lon": 106.4910602}, "nodes": [13475719379, 2539439089, 2539439076, 13475719380, 13475719381, 8167989712, 13475719382, 8167989713, 13475719383, 13475719379], "tags": {"amenity": "kindergarten", "education": "kindergarten", "name": "两江新区湖畔幼儿园"}}, {"type": "way", "id": 1470044856, "center": {"lat": 29.4954727, "lon": 106.4733959}, "nodes": [13481945921, 13481945989, 13481945990, 13481945991, 13481945931, 13481945926, 13481945922, 13481945921], "tags": {"amenity": "kindergarten", "education": "kindergarten", "name": "重庆市大渡口区联大儿童之家"}}, {"type": "way", "id": 1470044863, "center": {"lat": 29.4925395, "lon": 106.4769199}, "nodes": [13481946077, 13481946099, 13481946104, 13481946105, 13481946078, 13481946106, 13481946079, 13481946080, 13481946081, 13481946082, 13481946083, 13481946084, 13481946085, 13481946096, 13481946239, 13481946086, 13481946087, 13481946095, 13481946094, 13481946088, 13481946147, 13481946089, 13481946090, 13481946091, 13481946098, 13481946097, 13481946092, 13481946093, 13481946077], "tags": {"amenity": "hospital", "healthcare": "hospital", "name": "重庆邮电大学附属重钢总医院"}}, {"type": "way", "id": 1476217272, "center": {"lat": 29.6636775, "lon": 106.6091704}, "nodes": [13541089028, 13541089047, 13541089030, 13541089029, 13541089028], "tags": {"amenity": "kindergarten", "education": "kindergarten", "name": "金辰环山幼儿园"}}, {"type": "way", "id": 1476217298, "center": {"lat": 29.6689276, "lon": 106.6077341}, "nodes": [13541089271, 13541089276, 13541089277, 13541089266, 13541089267, 13541089271], "tags": {"amenity": "kindergarten", "education": "kindergarten", "name": "家纺城大地幼儿园"}}, {"type": "way", "id": 1478755401, "center": {"lat": 29.5175494, "lon": 106.4565016}, "nodes": [13566111260, 13566111261, 13566111262, 13566111263, 13566111260], "tags": {"amenity": "police", "building": "yes", "name": "石桥铺派出所"}}]}