{"version": 0.6, "generator": "Overpass API 0.7.62.10 2d4cfc48", "osm3s": {"timestamp_osm_base": "2026-02-25T17:51:53Z", "copyright": "The data included in this document is from www.openstreetmap.org. The data is made available under ODbL."}, "elements": [{"type": "node", "id": 1314184374, "lat": 30.6407642, "lon": 104.0766317, "tags": {"amenity": "university", "name": "四川音乐学院", "name:en": "Sichuan Conservatory of Music"}}, {"type": "node", "id": 1947467021, "lat": 30.6796065, "lon": 104.0860455, "tags": {"amenity": "kindergarten", "name": "省建一公司幼儿园"}}, {"type": "node", "id": 1958204071, "lat": 30.6754365, "lon": 104.0747145, "tags": {"amenity": "clinic", "healthcare": "clinic", "name": "丽婴房"}}, {"type": "node", "id": 1958204198, "lat": 30.6716657, "lon": 104.0784049, "tags": {"amenity": "school", "name": "成都市青羊实验联合中学", "name:en": "Qingyang Experiment United Middle School"}}, {"type": "node", "id": 1958204202, "lat": 30.6690303, "lon": 104.0798756, "tags": {"amenity": "school", "name": "四川电大省级机关分校", "place": "locality"}}, {"type": "node", "id": 1958204209, "lat": 30.6686297, "lon": 104.0822778, "tags": {"amenity": "school", "name": "成都市第十一中学", "place": "locality"}}, {"type": "node", "id": 1958204273, "lat": 30.671607, "lon": 104.0839763, "tags": {"amenity": "school", "name": "四川省成都列五中学（初中部）", "name:en": "Chengdu Liewu High School Of Sichuan Province"}}, {"type": "node", "id": 1964383754, "lat": 30.6701337, "lon": 104.0957683, "tags": {"amenity": "hospital", "healthcare": "hospital", "name": "成都成华戈韦尔医院"}}, {"type": "node", "id": 1964485650, "lat": 30.6679094, "lon": 104.1028611, "tags": {"amenity": "school", "name": "成华区教师进修学校", "wheelchair": "yes"}}, {"type": "node", "id": 1964536979, "lat": 30.6616485, "lon": 104.1046754, "tags": {"amenity": "school", "name": "成都市成华小学"}}, {"type": "node", "id": 1964586853, "lat": 30.6647509, "lon": 104.1185719, "tags": {"amenity": "hospital", "healthcare": "hospital", "name": "成都市华川医院"}}, {"type": "node", "id": 2651673336, "lat": 30.658885, "lon": 104.1127172, "tags": {"amenity": "hospital", "healthcare": "hospital", "name": "成都中德肾病医院"}}, {"type": "node", "id": 2653330900, "lat": 30.6556169, "lon": 104.1117101, "tags": {"amenity": "school", "name": "成都成华小学校（和美校区）"}}, {"type": "node", "id": 2715338048, "lat": 30.6506878, "lon": 104.0597267, "tags": {"amenity": "police", "name": "督院街派出所"}}, {"type": "node", "id": 2716031253, "lat": 30.6104738, "lon": 104.0779287, "tags": {"amenity": "hospital", "healthcare": "hospital", "name": "安琪儿妇产医院", "name:zh": "安琪儿妇产医院"}}, {"type": "node", "id": 2908410201, "lat": 30.6511947, "lon": 104.0660572, "tags": {"addr:city": "成都市", "addr:housenumber": "2号", "addr:street": "盐道街", "amenity": "school", "name": "成都市盐道街小学"}}, {"type": "node", "id": 2908615488, "lat": 30.6426152, "lon": 104.0880141, "tags": {"amenity": "kindergarten", "name": "三幼"}}, {"type": "node", "id": 3266802704, "lat": 30.617221, "lon": 104.0518735, "tags": {"amenity": "kindergarten", "name": "成都妈咪家双语幼儿学校", "name:en": "Chengdu Mommy Baby Bilingual Kindergarten"}}, {"type": "node", "id": 3582961919, "lat": 30.6436669, "lon": 104.0475111, "tags": {"amenity": "kindergarten", "name": "西南民族大学幼儿园"}}, {"type": "node", "id": 4201795165, "lat": 30.6536849, "lon": 104.1010371, "tags": {"amenity": "hospital", "healthcare": "hospital", "name": "新华医院"}}, {"type": "node", "id": 4235436727, "lat": 30.6043455, "lon": 104.0736044, "tags": {"amenity": "police", "name": "三瓦窑派出所"}}, {"type": "node", "id": 4500661291, "lat": 30.6488606, "lon": 104.0846723, "tags": {"amenity": "school", "name:en": "International Education Institute i2"}}, {"type": "node", "id": 4500680091, "lat": 30.6489326, "lon": 104.085347, "tags": {"amenity": "school", "name:en": "Eton's house"}}, {"type": "node", "id": 4661854188, "lat": 30.5915278, "lon": 104.0513544, "tags": {"addr:city": "成都市", "addr:housenumber": "516", "addr:street": "府城大道", "amenity": "hospital", "emergency": "yes", "healthcare": "hospital", "name": "成都市急救指挥中心(120)"}}, {"type": "node", "id": 4702508991, "lat": 30.5900136, "lon": 104.0524212, "tags": {"amenity": "hospital", "healthcare": "hospital", "name": "拉斐尔口腔", "name:zh": "拉斐尔口腔", "wheelchair": "yes"}}, {"type": "node", "id": 4716620990, "lat": 30.5987293, "lon": 104.0737298, "tags": {"amenity": "school"}}, {"type": "node", "id": 4724343816, "lat": 30.6298912, "lon": 104.0666701, "tags": {"addr:city": "成都市", "addr:housenumber": "6号", "addr:street": "成科西路", "amenity": "police", "name": "跳伞塔派出所"}}, {"type": "node", "id": 4724343820, "lat": 30.679376, "lon": 104.0480503, "tags": {"addr:city": "成都市", "addr:housenumber": "85号", "addr:street": "花牌坊街", "amenity": "hospital", "healthcare": "hospital", "name": "人民北路社区卫生服务中心"}}, {"type": "node", "id": 4772476117, "lat": 30.6613642, "lon": 104.0475088, "tags": {"amenity": "clinic", "healthcare": "clinic", "name": "门诊部"}}, {"type": "node", "id": 4826751234, "lat": 30.6498257, "lon": 104.1051722, "tags": {"amenity": "police", "name": "97路"}}, {"type": "node", "id": 4826753425, "lat": 30.6418574, "lon": 104.0998917, "tags": {"amenity": "police"}}, {"type": "node", "id": 4831098724, "lat": 30.6748028, "lon": 104.0554749, "tags": {"amenity": "hospital", "healthcare": "hospital"}}, {"type": "node", "id": 4831098725, "lat": 30.6739124, "lon": 104.0531675, "tags": {"amenity": "police"}}, {"type": "node", "id": 4831098727, "lat": 30.6752355, "lon": 104.0497263, "tags": {"amenity": "police"}}, {"type": "node", "id": 4831111722, "lat": 30.6735215, "lon": 104.0645606, "tags": {"amenity": "police"}}, {"type": "node", "id": 4832874128, "lat": 30.6612978, "lon": 104.0555781, "tags": {"amenity": "police"}}, {"type": "node", "id": 4973209508, "lat": 30.6133232, "lon": 104.042716, "tags": {"amenity": "school", "name": "成都师范银都小学紫薇校区"}}, {"type": "node", "id": 5160198122, "lat": 30.6703132, "lon": 104.0633107, "tags": {"amenity": "hospital", "full_name": "成都市青羊区草市御河社区卫生服务中心", "healthcare": "hospital", "healthcare:speciality": "general;paediatrics;internal;surgery;stomatology;dermatology;traditional_chinese_medicine;blood_check;diagnostic_radiology", "name": "草市御河社区卫生服务中心", "name:en": "Caoshi Yuhe Community Health Center", "name:zh": "草市御河社区卫生服务中心", "opening_hours": "Mo-Fr 08:15-12:00,13:30-17:00", "phone": "+86 28 86748422", "reg_ref": "PDY00107151010512B1001"}}, {"type": "node", "id": 5453434386, "lat": 30.6542131, "lon": 104.098223, "tags": {"amenity": "school", "name": "列五书池学校"}}, {"type": "node", "id": 5599540449, "lat": 30.6383765, "lon": 104.0737406, "tags": {"amenity": "college", "name": "四川广播电视大学"}}, {"type": "node", "id": 5807318425, "lat": 30.6642045, "lon": 104.0943659, "tags": {"amenity": "hospital", "healthcare": "hospital", "name": "成华区人民医院"}}, {"type": "node", "id": 6685885873, "lat": 30.6358333, "lon": 104.0783018, "tags": {"amenity": "police", "name": "派出所"}}, {"type": "node", "id": 6783954785, "lat": 30.6167889, "lon": 104.0601109, "tags": {"addr:housenumber": "1-3-1", "addr:street": "桐梓林东路", "amenity": "school", "name:en": "Chinese Corner", "phone": "+86 28 8555 4728", "website": "https://www.chinesecorner.cn/"}}, {"type": "node", "id": 6975489785, "lat": 30.6321206, "lon": 104.0681869, "tags": {"addr:housenumber": "2", "amenity": "school", "name": "IMHE"}}, {"type": "node", "id": 7069341985, "lat": 30.6569402, "lon": 104.0547645, "tags": {"addr:full": "青羊区上网家拐", "amenity": "hospital", "beds": "12", "healthcare": "clinic;doctor;pharmacy", "healthcare:speciality": "general;internal", "insurance:health": "private;public", "name": "汪家拐社区医院", "opening_hours": "Mo-Fr 00:00-23:55", "operational_status": "operational", "operator:type": "community", "staff_count:doctors": "7", "staff_count:nurses": "18", "water_source": "water_works", "wheelchair": "limited"}}, {"type": "node", "id": 7070965885, "lat": 30.617333, "lon": 104.0716538, "tags": {"amenity": "school", "name:en": "Kid Castle Weiken School"}}, {"type": "node", "id": 7605265911, "lat": 30.6788657, "lon": 104.0999013, "tags": {"amenity": "college", "name": "信息与软件工程学院"}}, {"type": "node", "id": 8227704742, "lat": 30.666863, "lon": 104.0350312, "tags": {"amenity": "school", "name": "四川省人民医院护士学校"}}, {"type": "node", "id": 8692997733, "lat": 30.6655666, "lon": 104.1150242, "tags": {"amenity": "hospital", "emergency": "no", "healthcare": "hospital", "healthcare:speciality": "plastic_surgery"}}, {"type": "node", "id": 9003487074, "lat": 30.6497821, "lon": 104.0384869, "tags": {"amenity": "hospital", "healthcare": "hospital", "name": "武侯区浆洗街社区卫生服务中心"}}, {"type": "node", "id": 9331912724, "lat": 30.6704103, "lon": 103.9818209, "tags": {"amenity": "school", "name": "青羊区特殊教育学校"}}, {"type": "node", "id": 9891825961, "lat": 30.6005827, "lon": 104.0325586, "tags": {"amenity": "school", "name": "成都沃顿公学"}}, {"type": "node", "id": 10101126207, "lat": 30.6271679, "lon": 103.9804463, "tags": {"amenity": "hospital", "healthcare": "hospital", "name": "成都聚焦超声医院"}}, {"type": "node", "id": 10101214899, "lat": 30.6354316, "lon": 103.9811415, "tags": {"amenity": "hospital", "healthcare": "hospital", "name": "武侯区第二人民医院"}}, {"type": "node", "id": 10298181318, "lat": 30.6599549, "lon": 104.0604856, "tags": {"amenity": "school", "name": "树德实验学校（东区）"}}, {"type": "node", "id": 11514143734, "lat": 30.6754248, "lon": 104.0574828, "tags": {"addr:city": "成都市", "addr:district": "青羊区", "addr:housenumber": "7", "addr:province": "四川省", "addr:street": "万和路", "alt_name": "成都市青羊区新华少城社区卫生服务中心", "amenity": "hospital", "emergency": "yes", "full_name": "成都市青羊区人民医院", "healthcare": "hospital", "healthcare:speciality": "general;ophthalmology;paediatrics;dermatology;internal;surgery;blood_check;diagnostic_radiology;traditional_chinese_medicine;anaesthetics;gynaecology;otolaryngology;stomatology;oncology;physiatry;pulmonology;neurology;gastroenterology;orthopaedics;urology", "name": "青羊区人民医院", "operator": "青羊区卫生健康局", "operator:type": "government", "reg_ref": "45077663151010512A1002;PDY00108X51010512B1001"}}, {"type": "node", "id": 11736402461, "lat": 30.6134466, "lon": 104.1183495, "tags": {"amenity": "hospital", "healthcare": "hospital", "name": "四川师范大学医院"}}, {"type": "node", "id": 11844353957, "lat": 30.6677285, "lon": 104.0410237, "tags": {"amenity": "school", "name": "研究生院"}}, {"type": "node", "id": 11846050887, "lat": 30.6702502, "lon": 104.0405453, "tags": {"amenity": "clinic", "healthcare": "clinic", "name": "脑病科"}}, {"type": "node", "id": 11846050888, "lat": 30.6701833, "lon": 104.0406741, "tags": {"amenity": "clinic", "healthcare": "clinic", "name": "心身疾病科"}}, {"type": "node", "id": 12438508397, "lat": 30.6564735, "lon": 104.1059144, "tags": {"amenity": "prep_school", "name": "成华区老年大学"}}, {"type": "node", "id": 12444429577, "lat": 30.6383518, "lon": 104.043336, "tags": {"amenity": "clinic", "healthcare": "clinic", "name": "罗氏骨科"}}, {"type": "node", "id": 12447431322, "lat": 30.6343522, "lon": 104.0407751, "tags": {"amenity": "clinic", "healthcare": "clinic", "name": "肖家河社区卫生服务中心健康管理中心"}}, {"type": "node", "id": 12449616002, "lat": 30.6403608, "lon": 104.0346092, "tags": {"amenity": "kindergarten", "name": "虹桥幼儿园"}}, {"type": "node", "id": 12451077431, "lat": 30.6326272, "lon": 104.052692, "tags": {"amenity": "dancing_school", "name": "聆音艺术中心(芳草店)"}}, {"type": "node", "id": 12451125607, "lat": 30.6309219, "lon": 104.0647003, "tags": {"amenity": "music_school", "name": "百家筝鸣古筝艺术中心(成都分校)"}}, {"type": "node", "id": 12451125612, "lat": 30.6306635, "lon": 104.0635228, "tags": {"amenity": "hospital", "healthcare": "hospital", "name": "悦瞳眼科医院"}}, {"type": "node", "id": 12451125850, "lat": 30.6275293, "lon": 104.0618757, "tags": {"amenity": "clinic", "healthcare": "clinic", "name": "武侯区人南诊所"}}, {"type": "node", "id": 12451223508, "lat": 30.6274433, "lon": 104.0567153, "tags": {"amenity": "prep_school", "name": "成都市群星美术学校(玉林西街后巷)"}}, {"type": "node", "id": 12451223723, "lat": 30.6312502, "lon": 104.0561831, "tags": {"amenity": "clinic", "healthcare": "clinic", "name": "成都市武侯区玉林北路社区卫生服务站"}}, {"type": "node", "id": 12451304346, "lat": 30.6270006, "lon": 104.0522808, "tags": {"amenity": "prep_school", "name": "成都高新区芳草老年大学"}}, {"type": "node", "id": 12453149181, "lat": 30.6257609, "lon": 104.0698949, "tags": {"amenity": "clinic", "healthcare": "clinic", "name": "洪春诊所(棕南西街)"}}, {"type": "node", "id": 12453198052, "lat": 30.6254655, "lon": 104.0746042, "tags": {"amenity": "dancing_school", "name": "舞蹈家DANCEHOME(川大望江店)"}}, {"type": "node", "id": 12460442354, "lat": 30.6093221, "lon": 104.0927236, "tags": {"amenity": "music_school", "name": "培町美术工作室"}}, {"type": "node", "id": 12460867992, "lat": 30.6174176, "lon": 104.0926419, "tags": {"amenity": "prep_school", "name": "天府棋院少儿围棋(锦江华润路店)"}}, {"type": "node", "id": 12460867993, "lat": 30.6173337, "lon": 104.0924529, "tags": {"amenity": "dancing_school", "name": "思普舞蹈艺术(东湖校区)"}}, {"type": "node", "id": 12460868014, "lat": 30.6166385, "lon": 104.0904617, "tags": {"amenity": "clinic", "healthcare": "clinic", "name": "华侨口腔牙科"}}, {"type": "node", "id": 12460975448, "lat": 30.6223908, "lon": 104.1014125, "tags": {"amenity": "kindergarten", "education": "kindergarten", "name": "芝兰幼稚园"}}, {"type": "node", "id": 12461009657, "lat": 30.6239896, "lon": 104.0899662, "tags": {"amenity": "clinic", "healthcare": "clinic", "name": "蓉达诊所"}}, {"type": "node", "id": 12463120376, "lat": 30.6293777, "lon": 104.0949392, "tags": {"amenity": "clinic", "healthcare": "clinic", "name": "锦江桦鑫堂诊所"}}, {"type": "node", "id": 12463232678, "lat": 30.6478547, "lon": 104.002744, "tags": {"amenity": "clinic", "healthcare": "clinic", "name": "成都市武侯区晋阳社区卫生服务中心"}}, {"type": "node", "id": 12463251400, "lat": 30.6462678, "lon": 103.9980127, "tags": {"amenity": "clinic", "healthcare": "clinic", "name": "肖龙口腔"}}, {"type": "node", "id": 12463259156, "lat": 30.6426145, "lon": 104.0017553, "tags": {"amenity": "prep_school", "name": "能动英语"}}, {"type": "node", "id": 12466638453, "lat": 30.6538345, "lon": 104.0042493, "tags": {"amenity": "music_school", "name": "大蜀艺术中心(晋阳路校区)"}}, {"type": "node", "id": 12466871946, "lat": 30.657426, "lon": 103.998171, "tags": {"amenity": "kindergarten", "name": "新杨杨幼儿园"}}, {"type": "node", "id": 12466932798, "lat": 30.6616149, "lon": 103.9942195, "tags": {"amenity": "kindergarten", "name": "美亚东坡幼儿园(暨托育中心)"}}, {"type": "node", "id": 12466994588, "lat": 30.6510498, "lon": 103.9864976, "tags": {"amenity": "hospital", "healthcare": "hospital", "name": "成都同神堂中西医结合医院"}}, {"type": "node", "id": 12471445048, "lat": 30.6470103, "lon": 104.0212333, "tags": {"amenity": "prep_school", "name": "兔子格斗(财富双楠写字楼店)"}}, {"type": "node", "id": 12471445298, "lat": 30.642942, "lon": 104.0254385, "tags": {"amenity": "prep_school", "name": "弈学园围棋(双楠校区)"}}, {"type": "node", "id": 12471445359, "lat": 30.6462928, "lon": 104.0238939, "tags": {"amenity": "prep_school", "name": "仁财会计教育(双楠路)"}}, {"type": "node", "id": 12475285915, "lat": 30.6378706, "lon": 104.0483063, "tags": {"amenity": "hospital", "healthcare": "hospital", "name": "成都西部白癜风医院"}}, {"type": "node", "id": 12475286063, "lat": 30.6378165, "lon": 104.0508089, "tags": {"amenity": "hospital", "healthcare": "hospital", "name": "成都武侯甘露海藏医院"}}, {"type": "node", "id": 12475286376, "lat": 30.6386219, "lon": 104.0512341, "tags": {"amenity": "driving_school", "name": "长征驾校总校(武侯总部)"}}, {"type": "node", "id": 12475365589, "lat": 30.6361541, "lon": 104.0596097, "tags": {"amenity": "dancing_school", "name": "茗澄舞韵舞蹈工作室"}}, {"type": "node", "id": 12475616317, "lat": 30.6383137, "lon": 104.0789902, "tags": {"amenity": "dancing_school", "name": "六艺堂舞蹈(川音校区)"}}, {"type": "node", "id": 12475616551, "lat": 30.6410992, "lon": 104.0801353, "tags": {"amenity": "dancing_school", "name": "四川成育艺术中心"}}, {"type": "node", "id": 12540962490, "lat": 30.6677441, "lon": 104.0385573, "tags": {"amenity": "hospital", "healthcare": "hospital", "name": "西南华西颈腰椎研究院"}}, {"type": "node", "id": 12541862911, "lat": 30.6752148, "lon": 104.046015, "tags": {"amenity": "hospital", "healthcare": "hospital", "name": "麦迪格眼科医院"}}, {"type": "node", "id": 12541862912, "lat": 30.6753302, "lon": 104.0459784, "tags": {"amenity": "dancing_school", "name": "舞六七芭舞蹈工作室"}}, {"type": "node", "id": 12543420493, "lat": 30.6789771, "lon": 104.0667363, "tags": {"amenity": "police", "name": "北较场派出所第五治安室"}}, {"type": "node", "id": 12543688294, "lat": 30.6724149, "lon": 104.0640591, "tags": {"amenity": "hospital", "healthcare": "hospital", "name": "成都小米熊医院"}}, {"type": "node", "id": 12544079736, "lat": 30.6643689, "lon": 104.0592461, "tags": {"amenity": "dancing_school", "name": "意舞舞蹈(天府广场店)"}}, {"type": "node", "id": 12544079850, "lat": 30.6744363, "lon": 104.0559572, "tags": {"amenity": "hospital", "healthcare": "hospital", "name": "成都颐和医院"}}, {"type": "node", "id": 12544080299, "lat": 30.6701729, "lon": 104.0547209, "tags": {"amenity": "prep_school", "name": "小原流花道成都东云教室"}}, {"type": "node", "id": 12545807845, "lat": 30.6609701, "lon": 104.0568672, "tags": {"amenity": "dancing_school", "name": "蒂舞元素"}}, {"type": "node", "id": 12546403274, "lat": 30.6616002, "lon": 104.0772077, "tags": {"amenity": "dancing_school", "education": "dancing_school", "name": "旖雯东方舞·声乐·练琴房工作室"}}, {"type": "node", "id": 12546663467, "lat": 30.6729723, "lon": 104.0735492, "tags": {"amenity": "kindergarten", "name": "盖顶顶幼儿园"}}, {"type": "node", "id": 12549378581, "lat": 30.666645, "lon": 104.0850221, "tags": {"amenity": "police", "name": "成都市公安局锦江分局书院街派出所"}}, {"type": "node", "id": 12550779557, "lat": 30.6676556, "lon": 104.0798844, "tags": {"amenity": "police", "name": "东通顺派出所玉沙电器市场治安管理室"}}, {"type": "node", "id": 12550811426, "lat": 30.6625864, "lon": 104.0837992, "tags": {"amenity": "university", "name": "重庆医科大学附属成都第三临床学院"}}, {"type": "node", "id": 12551144050, "lat": 30.657515, "lon": 104.0964117, "tags": {"amenity": "hospital", "healthcare": "hospital", "healthcare:speciality": "dentist", "name": "桥腔"}}, {"type": "node", "id": 12551384719, "lat": 30.6500844, "lon": 104.0871882, "tags": {"amenity": "prep_school", "name": "青禾考研"}}, {"type": "node", "id": 12551444424, "lat": 30.6460358, "lon": 104.0890532, "tags": {"amenity": "music_school", "name": "乐艺星美艺考(锦江校区)"}}, {"type": "node", "id": 12553253177, "lat": 30.657981, "lon": 104.0982638, "tags": {"amenity": "kindergarten", "name": "成都市成华区艾贝菈幼儿园(双林一巷)"}}, {"type": "node", "id": 12553389520, "lat": 30.6492664, "lon": 104.0953216, "tags": {"amenity": "hospital", "healthcare": "hospital", "name": "牛市口社区卫生服务中心"}}, {"type": "node", "id": 12553478332, "lat": 30.6496628, "lon": 104.1065825, "tags": {"amenity": "kindergarten", "name": "321教育棒娃娃艺美幼儿园"}}, {"type": "node", "id": 12553478952, "lat": 30.6517085, "lon": 104.1064499, "tags": {"amenity": "hospital", "healthcare": "hospital", "healthcare:speciality": "dental_oral_maxillo_facial_surgery", "name": "美昂口腔"}}, {"type": "node", "id": 12553479218, "lat": 30.6559217, "lon": 104.1070776, "tags": {"amenity": "prep_school", "name": "成都市携成职业技能培训学校"}}, {"type": "node", "id": 12553776639, "lat": 30.6275963, "lon": 104.1015408, "tags": {"amenity": "kindergarten", "education": "kindergarten", "name": "成都市锦江区牛沙幼儿园"}}, {"type": "node", "id": 12553893028, "lat": 30.6293865, "lon": 104.0995559, "tags": {"amenity": "prep_school", "education": "prep_school", "name": "昭然书法教育(静居寺校区)"}}, {"type": "node", "id": 12553893338, "lat": 30.6325338, "lon": 104.0948535, "tags": {"amenity": "driving_school", "education": "driving_school", "name": "长征驾校"}}, {"type": "node", "id": 12553893364, "lat": 30.6325071, "lon": 104.0958166, "tags": {"amenity": "kindergarten", "education": "kindergarten", "name": "龙舟社区幼儿园"}}, {"type": "node", "id": 12554006001, "lat": 30.6332751, "lon": 104.1091529, "tags": {"amenity": "prep_school", "name": "音基语言"}}, {"type": "node", "id": 12554006002, "lat": 30.6333573, "lon": 104.1090467, "tags": {"amenity": "prep_school", "name": "神墨美育(通宝街)"}}, {"type": "node", "id": 12554006546, "lat": 30.6351601, "lon": 104.0983095, "tags": {"amenity": "prep_school", "education": "prep_school", "name": "丹秋堂(莲桂东路校区)"}}, {"type": "node", "id": 12555847128, "lat": 30.6376351, "lon": 104.1055221, "tags": {"amenity": "music_school", "education": "music_school", "name": "朗声语言艺术中心"}}, {"type": "node", "id": 12555847129, "lat": 30.6375407, "lon": 104.1054164, "tags": {"amenity": "music_school", "education": "music_school", "name": "麦田音乐"}}, {"type": "node", "id": 12555847130, "lat": 30.6378555, "lon": 104.1049611, "tags": {"amenity": "music_school", "education": "music_school", "name": "美博教育(成都文华广场店)"}}, {"type": "node", "id": 12555847144, "lat": 30.6383992, "lon": 104.1055616, "tags": {"amenity": "dancing_school", "education": "dancing_school", "name": "Happyfeet大脚舞室(牛市口店)"}}, {"type": "node", "id": 12555847165, "lat": 30.6384721, "lon": 104.1044432, "tags": {"amenity": "clinic", "healthcare": "clinic", "name": "思迈口腔(文华店)"}}, {"type": "node", "id": 12555907111, "lat": 30.6414117, "lon": 104.099333, "tags": {"amenity": "hospital", "healthcare": "hospital", "name": "莲新社区卫生服务中心"}}, {"type": "node", "id": 12555907181, "lat": 30.6426004, "lon": 104.0985288, "tags": {"amenity": "prep_school", "name": "叁伍集·国风美学馆"}}, {"type": "node", "id": 12556052798, "lat": 30.6428077, "lon": 104.1078093, "tags": {"amenity": "prep_school", "education": "prep_school", "name": "师竹斋书画院(攀成钢创作点)"}}, {"type": "node", "id": 12556052962, "lat": 30.6455116, "lon": 104.1119378, "tags": {"amenity": "dancing_school", "education": "dancing_school", "name": "B DANCE并肩·舞蹈工作室"}}, {"type": "node", "id": 12556052963, "lat": 30.6457162, "lon": 104.1114906, "tags": {"amenity": "prep_school", "education": "prep_school", "name": "美苑小画家(成华校区)"}}, {"type": "node", "id": 12556161770, "lat": 30.6406367, "lon": 104.1129876, "tags": {"amenity": "prep_school", "name": "蕾猪画室(中粮鸿云·悦街店)"}}, {"type": "node", "id": 12556167927, "lat": 30.6456888, "lon": 104.1176072, "tags": {"amenity": "kindergarten", "name": "暖房子托育中心(万年场中心)"}}, {"type": "node", "id": 12556414405, "lat": 30.6534904, "lon": 104.1185673, "tags": {"amenity": "hospital", "healthcare": "hospital", "name": "联合社区卫生服务站"}}, {"type": "node", "id": 12556414429, "lat": 30.6546717, "lon": 104.1187283, "tags": {"amenity": "driving_school", "name": "蜀安驾校"}}, {"type": "node", "id": 12564823628, "lat": 30.6235521, "lon": 104.1084657, "tags": {"amenity": "prep_school", "education": "prep_school", "name": "艺术培训"}}, {"type": "node", "id": 12564905111, "lat": 30.623954, "lon": 104.1084699, "tags": {"amenity": "prep_school", "education": "prep_school", "name": "五朵金花·慧衔接成长中心(川师校区)"}}, {"type": "node", "id": 12564905112, "lat": 30.6242132, "lon": 104.1091938, "tags": {"amenity": "kindergarten", "education": "kindergarten", "name": "菲力幼儿园"}}, {"type": "node", "id": 12564905666, "lat": 30.6241435, "lon": 104.1139133, "tags": {"amenity": "music_school", "education": "music_school", "name": "谦鼓社"}}, {"type": "node", "id": 12565101695, "lat": 30.6305642, "lon": 104.1184243, "tags": {"amenity": "music_school", "education": "music_school", "name": "方厘·音乐"}}, {"type": "node", "id": 12565735001, "lat": 30.6214743, "lon": 104.1154431, "tags": {"amenity": "college", "education": "college", "name": "成都社会组织学院"}}, {"type": "node", "id": 12565917729, "lat": 30.608998, "lon": 104.1161657, "tags": {"amenity": "driving_school", "education": "driving_school", "name": "天宇驾校报名处(大学店)"}}, {"type": "node", "id": 12566993887, "lat": 30.6024927, "lon": 104.1196805, "tags": {"amenity": "prep_school", "education": "prep_school", "name": "起范儿口才·语言表演"}}, {"type": "node", "id": 12566993933, "lat": 30.6025856, "lon": 104.1187426, "tags": {"amenity": "prep_school", "education": "prep_school", "name": "人人练字(东华小学旗舰店)"}}, {"type": "node", "id": 12579285910, "lat": 30.6650323, "lon": 104.0004864, "tags": {"amenity": "dancing_school", "name": "爱德米乐舞蹈少儿艺术"}}, {"type": "node", "id": 12581433981, "lat": 30.6716182, "lon": 104.0183491, "tags": {"amenity": "dancing_school", "name": "国艺艺术学校"}}, {"type": "node", "id": 12581488447, "lat": 30.6642737, "lon": 104.0120704, "tags": {"amenity": "dancing_school", "name": "遇见芭蕾艺术中心"}}, {"type": "node", "id": 12582323215, "lat": 30.6604554, "lon": 104.0334212, "tags": {"amenity": "prep_school", "name": "往兮艺术·创意美术"}}, {"type": "node", "id": 12582323414, "lat": 30.6607237, "lon": 104.0374901, "tags": {"amenity": "police", "name": "成都市公安局青羊分局草堂派出所"}}, {"type": "node", "id": 12582379826, "lat": 30.669432, "lon": 104.0312206, "tags": {"amenity": "police", "name": "成都市公安局青羊区分局巡警(防暴)大队"}}, {"type": "node", "id": 12582379842, "lat": 30.6681513, "lon": 104.0307932, "tags": {"amenity": "driving_school", "name": "蜀安驾校"}}, {"type": "node", "id": 12585081128, "lat": 30.6729748, "lon": 104.0302281, "tags": {"amenity": "hospital", "healthcare": "hospital", "name": "成都胃病医院"}}, {"type": "node", "id": 12585081200, "lat": 30.6728401, "lon": 104.029887, "tags": {"amenity": "hospital", "healthcare": "hospital", "name": "金沙社区卫生服务中心"}}, {"type": "node", "id": 12585397960, "lat": 30.6772503, "lon": 104.0148536, "tags": {"amenity": "hospital", "healthcare": "hospital", "name": "府南金沙社区卫生服务中心"}}, {"type": "node", "id": 12585398344, "lat": 30.6743652, "lon": 104.014722, "tags": {"amenity": "prep_school", "name": "望子成龙"}}, {"type": "node", "id": 12585398572, "lat": 30.6786425, "lon": 104.0096747, "tags": {"amenity": "hospital", "healthcare": "hospital", "name": "西南口腔医院"}}, {"type": "node", "id": 12587435971, "lat": 30.6761255, "lon": 104.0016213, "tags": {"amenity": "prep_school", "name": "弈学园围棋"}}, {"type": "node", "id": 12607217398, "lat": 30.638146, "lon": 104.0204023, "tags": {"amenity": "kindergarten"}}, {"type": "node", "id": 12612416143, "lat": 30.6281517, "lon": 104.0201773, "tags": {"amenity": "dancing_school", "name": "星钻流行舞蹈"}}, {"type": "node", "id": 12612416656, "lat": 30.6254503, "lon": 104.0296546, "tags": {"amenity": "dancing_school", "name": "天姿国际舞蹈艺术馆"}}, {"type": "node", "id": 12612973594, "lat": 30.6163132, "lon": 104.0292465, "tags": {"amenity": "music_school", "name": "国演冰心传媒艺考"}}, {"type": "node", "id": 12614924781, "lat": 30.6095624, "lon": 104.0232028, "tags": {"amenity": "dancing_school", "name": "六艺堂舞蹈培训"}}, {"type": "node", "id": 12614924782, "lat": 30.6088711, "lon": 104.0229436, "tags": {"amenity": "dancing_school", "name": "成都吾来舞往艺术中心"}}, {"type": "node", "id": 12615651675, "lat": 30.6142726, "lon": 104.0402911, "tags": {"amenity": "hospital", "healthcare": "hospital", "name": "圣约瑟康复中心"}}, {"type": "node", "id": 12618059126, "lat": 30.6141995, "lon": 104.0759675, "tags": {"amenity": "music_school", "name": "梦龙钢琴工作室"}}, {"type": "node", "id": 12618141511, "lat": 30.6182401, "lon": 104.0725702, "tags": {"amenity": "dancing_school", "name": "艺蓉舞校"}}, {"type": "node", "id": 12618335921, "lat": 30.6044695, "lon": 104.0548671, "tags": {"amenity": "hospital", "healthcare": "hospital", "name": "瞳仁视康眼科医院"}}, {"type": "node", "id": 12627909997, "lat": 30.6124975, "lon": 104.0361764, "tags": {"amenity": "dancing_school", "name": "童森舞蹈(编舞)工作室"}}, {"type": "node", "id": 12628198277, "lat": 30.609865, "lon": 104.0373477, "tags": {"amenity": "police", "name": "肖家河派出所"}}, {"type": "node", "id": 12628198335, "lat": 30.606207, "lon": 104.0381709, "tags": {"amenity": "hospital", "healthcare": "hospital", "name": "成都高新同爱医院"}}, {"type": "node", "id": 12628331616, "lat": 30.598205, "lon": 104.0383424, "tags": {"amenity": "dancing_school", "name": "兮朴舞蹈"}}, {"type": "node", "id": 12628420427, "lat": 30.5872227, "lon": 104.0191481, "tags": {"amenity": "police", "name": "成都市轻微道路交通事故快速处高新区服务中心"}}, {"type": "node", "id": 12628471218, "lat": 30.5857015, "lon": 104.0404243, "tags": {"amenity": "music_school", "name": "交子爱乐世界名品钢琴馆"}}, {"type": "node", "id": 12638748863, "lat": 30.5914718, "lon": 104.1004269, "tags": {"amenity": "dancing_school", "name": "蓝屿舞蹈"}}, {"type": "node", "id": 12638805599, "lat": 30.5951162, "lon": 104.1126636, "tags": {"amenity": "kindergarten", "name": "睿晨幼儿园"}}, {"type": "node", "id": 12682857301, "lat": 30.6614295, "lon": 104.0790559, "tags": {"addr:housenumber": "16", "addr:street": "华兴东街", "amenity": "language_school", "education": "language_school", "name": "LTL Mandarin"}}, {"type": "node", "id": 12730598693, "lat": 30.6644638, "lon": 104.0215107, "tags": {"amenity": "hospital", "healthcare": "hospital", "healthcare:speciality": "otolaryngology", "name": "成都仁品耳鼻喉专科医院"}}, {"type": "node", "id": 12741539173, "lat": 30.6739547, "lon": 104.0614597, "tags": {"amenity": "kindergarten", "name": "成都市第五幼儿园"}}, {"type": "node", "id": 12741539208, "lat": 30.6737249, "lon": 104.0635853, "tags": {"amenity": "hospital", "healthcare": "hospital", "name": "健康管理中心"}}, {"type": "node", "id": 12741539241, "lat": 30.6744426, "lon": 104.058673, "tags": {"amenity": "hospital", "healthcare": "hospital", "name": "成都九龙医院"}}, {"type": "node", "id": 12770373124, "lat": 30.6727753, "lon": 104.0740087, "tags": {"amenity": "hospital", "healthcare": "hospital", "healthcare:speciality": "stomatology", "name": "成都青羊圣贝口腔医院"}}, {"type": "node", "id": 12770373178, "lat": 30.6726696, "lon": 104.0764352, "tags": {"amenity": "kindergarten", "full_name": "四川省直属机关玉泉幼儿园", "name": "玉泉幼儿园"}}, {"type": "node", "id": 12811615639, "lat": 30.6615265, "lon": 104.0310305, "tags": {"amenity": "kindergarten", "name": "菁芙蓉浣花幼儿园"}}, {"type": "node", "id": 12819286630, "lat": 30.6238587, "lon": 104.0968365, "tags": {"amenity": "kindergarten", "education": "kindergarten", "name": "博蓓幼稚中心"}}, {"type": "node", "id": 12960423470, "lat": 30.6730036, "lon": 104.0506812, "tags": {"amenity": "kindergarten", "name": "优乐贝幼稚园"}}, {"type": "node", "id": 13293838063, "lat": 30.6763561, "lon": 104.0941893, "tags": {"addr:city": "成都市", "addr:district": "成华区", "addr:housenumber": "240号", "addr:postcode": "610054", "addr:province": "四川省", "addr:street": "一环路东一段", "amenity": "college", "education": "college", "internet_access": "yes", "name": "电子科技大学继续教育学院", "operator": "电子科技大学", "operator:type": "government", "website": "http://www.remotedu.com/"}}, {"type": "node", "id": 13382696123, "lat": 30.6466729, "lon": 104.0579855, "tags": {"amenity": "hospital", "healthcare": "hospital", "name": "华西医院"}}, {"type": "node", "id": 13423028917, "lat": 30.6722724, "lon": 104.0702708, "tags": {"addr:city": "成都市", "addr:district": "青羊区", "addr:housenumber": "42", "addr:province": "四川省", "addr:street": "新华大道文武路", "amenity": "hospital", "emergency": "yes", "healthcare": "hospital", "name": "西南康复医院", "operator": "成都西南康复医院有限公司", "operator:type": "private"}}, {"type": "way", "id": 188063884, "center": {"lat": 30.6791062, "lon": 104.0996978}, "nodes": [1986891734, 1986891735, 6228930786, 1986891736, 1986891737, 8323879533, 1986891734], "tags": {"amenity": "police", "name": "保卫处", "name:en": "UESTC Guard", "name:zh": "保卫处"}}, {"type": "way", "id": 201271107, "center": {"lat": 30.6194234, "lon": 104.1001711}, "nodes": [9006637834, 2112261972, 2112261970, 2112261973, 9006637835, 9006637834], "tags": {"amenity": "school", "education": "school", "name": "成都市东光实验小学"}}, {"type": "way", "id": 201897220, "center": {"lat": 30.6113614, "lon": 104.1012006}, "nodes": [2119087831, 2119087837, 2119087829, 12734107882, 2119087847, 2119087848, 2119087851, 8645595387, 2119087831], "tags": {"amenity": "school", "education": "school", "name": "成都嘉祥外国语学校"}}, {"type": "way", "id": 207667616, "center": {"lat": 30.6176489, "lon": 104.0954282}, "nodes": [2179214139, 2179214142, 2179214135, 2179214140, 2179214138, 2179214141, 2179214139], "tags": {"amenity": "school", "name": "川师附小"}}, {"type": "way", "id": 232847137, "center": {"lat": 30.6100098, "lon": 104.1098889}, "nodes": [2411594745, 2411594746, 2411594747, 2411594748, 2411594749, 2411594750, 2411594751, 2411594752, 12723653065, 2411594753, 2411594754, 2411594755, 2411594745], "tags": {"amenity": "school", "education": "school", "name": "师一学校锦江校区"}}, {"type": "way", "id": 259715219, "center": {"lat": 30.6692362, "lon": 104.1000692}, "nodes": [2651673339, 2651673341, 2651673343, 2651673345, 2651673339], "tags": {"amenity": "school", "name": "培华小学"}}, {"type": "way", "id": 259868478, "center": {"lat": 30.6733337, "lon": 104.1096999}, "nodes": [2653342416, 4295619569, 2653342417, 4295619568, 4295619567, 2653342418, 2653342419, 2653342416], "tags": {"amenity": "school", "name": "成都市建设路小学"}}, {"type": "way", "id": 263960282, "center": {"lat": 30.612683, "lon": 104.1202086}, "nodes": [2696414003, 11736402448, 11736402447, 4934383716, 3450087730, 2696414004, 11736402460, 11736402450, 11736402451, 3450087713, 2119028379, 11736402459, 11736402458, 8642297173, 2119028356, 2696414005, 2696414006, 2696414007, 10709928613, 2696414008, 2696414009, 11736377362, 11736377363, 2696414010, 11736377364, 2696414011, 11736377365, 11736377361, 11736377360, 11736377359, 2696414012, 11736377350, 11736377351, 11736377352, 11736377353, 11736377354, 11736377355, 11736377356, 11736377357, 11736377358, 11736377347, 11736377349, 8642297167, 11736377366, 8642297171, 11736402390, 8642297174, 11736402375, 11736402369, 11736402376, 11736402370, 11736402377, 11736402371, 11736402373, 11736402374, 11736402372, 11736377368, 11736377367, 8642297170, 8642297172, 8642297169, 11736402418, 5475934106, 5475934105, 11736402416, 11736402417, 11736402408, 5475934280, 5475934279, 5475934074, 2696414015, 11736402434, 11736402409, 11736402410, 11736402449, 2696414003], "tags": {"addr:city": "成都市", "addr:district": "锦江区", "addr:housenumber": "5", "addr:postcode": "610066", "addr:province": "四川省", "addr:street": "静安路", "amenity": "university", "education": "university", "name": "四川师范大学（狮子山校区）", "name:en": "Sichuan Normal University (Shizishan Campus)", "name:zh": "四川师范大学（狮子山校区）", "website": "www.sicnu.edu.cn"}}, {"type": "way", "id": 266767877, "center": {"lat": 30.6794336, "lon": 104.030017}, "nodes": [2722829527, 2722829528, 2722829529, 2722829531, 2722829537, 2722829532, 2722829536, 2722829533, 2722829534, 2722829527], "tags": {"amenity": "school", "name": "成都第十八中学校"}}, {"type": "way", "id": 288171059, "center": {"lat": 30.637957, "lon": 104.0721098}, "nodes": [2917193930, 2917193931, 11775496746, 2917193932, 11775496736, 2917193933, 2917193934, 11775496735, 2677723139, 11775496743, 11775496744, 2917193935, 2917193936, 7334966834, 2917193930], "tags": {"amenity": "school", "education": "school", "name": "成都市第七中学（林荫校区）", "short_name": "成都市第七中学", "shortest_name": "成都七中", "wikipedia": "zh:四川省成都市第七中学"}}, {"type": "way", "id": 288171594, "center": {"lat": 30.6469017, "lon": 104.0855064}, "nodes": [2917201377, 2917201378, 4292862543, 2917201380, 2917201381, 2917201382, 2917201383, 2917201384, 2917201377], "tags": {"addr:city": "Chengdu", "addr:district": "锦江区", "addr:housenumber": "45号", "addr:postcode": "610014", "addr:province": "四川省", "addr:street": "双槐树街", "amenity": "school", "name": "成都七中育才学校", "name:en": "No. 7 Yucai Middle School"}}, {"type": "way", "id": 288172902, "center": {"lat": 30.648293, "lon": 104.0887915}, "nodes": [2917213932, 2917213933, 2917213934, 2917213935, 2917213936, 2917213938, 2917213939, 2917213937, 2917213932], "tags": {"amenity": "school", "name": "成都锦官驿小学"}}, {"type": "way", "id": 295959150, "center": {"lat": 30.6551882, "lon": 104.0559439}, "nodes": [2997203377, 3066384854, 7773814519, 3066384855, 2997203378, 2997203379, 2997203380, 2997203381, 2997203382, 3076797435, 3076797434, 7773807470, 3076797433, 2997203383, 7773807465, 3076793428, 3076793427, 3076793426, 2997203384, 3076793425, 2997203386, 3076797448, 3076797449, 3076797452, 3209233637, 3209233638, 3209233641, 2997203385, 2997203377], "tags": {"addr:city": "成都", "addr:district": "青羊", "addr:housenumber": "93号", "addr:postcode": "610041", "addr:province": "四川", "addr:street": "文庙前街", "amenity": "school", "name": "石室中学"}}, {"type": "way", "id": 299425432, "center": {"lat": 30.6413458, "lon": 104.0472781}, "nodes": [3034157101, 4137539383, 4137539386, 4137539387, 4137539390, 3034157102, 3034157103, 3158040408, 3158040409, 3158040410, 3158040411, 3158040412, 3158040413, 3158040414, 3034157104, 314655380, 4137539501, 4137539500, 3034157106, 3034157101], "tags": {"amenity": "university", "name": "西南民族大学（武侯校区）", "name:en": "Wuhou Campus, Southwest University for Nationalities", "name:zh": "西南民族大学（武侯校区）", "wikidata": "Q920505", "wikipedia": "zh:西南民族大学"}}, {"type": "way", "id": 299440043, "center": {"lat": 30.6330567, "lon": 104.0818819}, "nodes": [3034312345, 3034312346, 6652362747, 6652362748, 6652362750, 6652362749, 5141468622, 5141468623, 5141458220, 5141468621, 6497535197, 6497535198, 5141458218, 5141458219, 5141458217, 3034312347, 6497535201, 6685885835, 6685885834, 6685885833, 6497535202, 6497535200, 6497535199, 3034312348, 2709174921, 3034312349, 3034312350, 6497535203, 3034312351, 3034312352, 3034312353, 3034312354, 6685886038, 3034312355, 3034312356, 8910186970, 8910186974, 6685886036, 6685886035, 3034312357, 8910186996, 6187569883, 2709174920, 6187569882, 6685886065, 3034312358, 6685886067, 3034312359, 3034312345], "tags": {"amenity": "university", "name": "四川大学（望江校区）", "name:en": "Sichuan University (Wangjiang Campus)", "name:zh": "四川大学（望江校区）", "short_name": "四川大学"}}, {"type": "way", "id": 314292931, "center": {"lat": 30.6345251, "lon": 104.0358068}, "nodes": [3203414191, 3203414192, 3203414193, 3203414194, 3203414195, 3203414196, 3203414197, 3203414198, 3203414199, 3203414200, 3203414201, 3203414202, 3203414191], "tags": {"amenity": "school", "name": "西川中学", "name:en": "Xichuan Middle School", "name:zh": "西川中学"}}, {"type": "way", "id": 324900607, "center": {"lat": 30.6727725, "lon": 104.0775457}, "nodes": [1958204179, 3315779354, 3315779355, 3315779356, 1958204179], "tags": {"amenity": "hospital", "healthcare": "hospital", "name": "青羊区妇幼保健院", "place": "locality"}}, {"type": "way", "id": 341759193, "center": {"lat": 30.6793271, "lon": 104.0112175}, "nodes": [3488585738, 3488585739, 3488585740, 9177703911, 3488585741, 3488585742, 9177703907, 9177703908, 9177703910, 4772452889, 3488585744, 3488585738], "tags": {"addr:city": "成都市", "addr:district": "青羊区", "addr:housenumber": "66号", "addr:province": "四川省", "addr:street": "锦西路", "amenity": "school", "name": "四川师范大学实验外国语学校", "name:en": "Sichuan Normal University Experimental Foreign Language School", "name:zh": "四川师范大学实验外国语学校", "phone": "+86 28 8736 5493"}}, {"type": "way", "id": 342766150, "center": {"lat": 30.6423303, "lon": 104.0673851}, "nodes": [4794944081, 6187569844, 6187569851, 6187569852, 4794992609, 1159174899, 6187569853, 3943038385, 671587308, 671587299, 4794944087, 671587282, 6187569849, 6187569850, 4794944081], "tags": {"addr:city": "成都市", "addr:district": "武侯区", "addr:housenumber": "17", "addr:province": "四川省", "addr:street": "人民南路三段", "amenity": "college", "name": "四川大学（华西校区东区）", "name:zh": "四川大学（华西校区东区）"}}, {"type": "way", "id": 352526906, "center": {"lat": 30.6490898, "lon": 104.0419351}, "nodes": [5849447113, 1312615980, 4225497273, 7813563585, 8440216188, 8440216189, 8440216190, 8440216191, 8440216186, 8440216195, 8440216196, 8440216192, 8440216193, 8440216194, 3582961911, 3582961904, 8440216197, 8440216203, 8440216202, 8440216201, 8440216200, 8440216199, 8440216206, 8440216207, 8440216208, 8440216209, 3582961917, 8440216210, 3582961909, 3582961907, 8440216212, 8440216177, 4225497275, 8440216181, 8440216180, 8440216178, 8440216179, 4225497271, 8440216172, 432432561, 8440216185, 8440216184, 8440216174, 8440216173, 5849447113], "tags": {"amenity": "university", "check_date": "2024-08-05", "name": "成都体育学院（武侯校区）", "name:en": "Chengdu Sport University (Wuhou Campus)", "name:zh": "成都体育学院（武侯校区）", "operator": "成都体育学院", "operator:type": "university", "short_name": "成都体育学院", "short_name:en": "Chengdu Sport University", "shortest_name": "成体", "shortest_name:en": "CDSU", "wikidata": "Q5091323", "wikipedia": "zh:成都体育学院"}}, {"type": "way", "id": 391145281, "center": {"lat": 30.6440432, "lon": 104.0581591}, "nodes": [4794944083, 12988852930, 4794975958, 4794975960, 8761324273, 8761324274, 12988930820, 8761324275, 12988930819, 8761324276, 8761324280, 8761324279, 8761324278, 8761324277, 4794975961, 4794975962, 8761324272, 8761324271, 8761324270, 4794975963, 8761324269, 3523308830, 8761324268, 3523308824, 4794975968, 4794975967, 9692673054, 9693974716, 8761324282, 3943038360, 8761324281, 4794944083], "tags": {"addr:city": "成都市", "addr:district": "武侯区", "addr:housenumber": "37", "addr:province": "四川省", "addr:street": "国学巷", "amenity": "hospital", "emergency": "yes", "healthcare": "hospital", "name": "华西医院", "name:en": "West China Hospital", "name:zh": "华西医院", "official_name": "四川大学华西医院", "official_name:en": "West China Hospital, Sichuan University", "official_name:zh": "四川大学华西医院", "operator": "四川大学华西医学中心", "operator:type": "university", "wikidata": "Q10924797"}}, {"type": "way", "id": 391145287, "center": {"lat": 30.6448175, "lon": 104.0629249}, "nodes": [4794944086, 10770303256, 3943038378, 10770303269, 10770303270, 6187569846, 4794992610, 4794944086], "tags": {"addr:city": "成都市", "addr:district": "武侯区", "addr:housenumber": "14", "addr:province": "四川省", "addr:street": "人民南路三段", "amenity": "hospital", "healthcare": "hospital", "healthcare:speciality": "stomatology", "name": "华西口腔医院", "name:en": "West China Hospital of Stomatology", "name:zh": "华西口腔医院", "official_name": "四川大学华西口腔医院", "official_name:en": "West China Hospital of Stomatology, Sichuan University", "official_name:zh": "四川大学华西口腔医院", "operator": "四川大学华西医学中心", "operator:type": "university"}}, {"type": "way", "id": 391145288, "center": {"lat": 30.6426703, "lon": 104.0629707}, "nodes": [6187569845, 4794975951, 4794975944, 6187569847, 6187569845], "tags": {"addr:city": "成都市", "addr:district": "武侯区", "addr:housenumber": "18", "addr:province": "四川省", "addr:street": "人民南路三段", "amenity": "hospital", "emergency": "yes", "healthcare": "hospital", "name": "华西第四医院", "name:en": "No.4 West China Teaching Hospital", "name:zh": "华西第四医院", "official_name": "四川大学华西第四医院", "official_name:en": "No.4 West China Teaching Hospital, Sichuan University", "official_name:zh": "四川大学华西第四医院", "operator": "四川大学华西医学中心", "operator:type": "university"}}, {"type": "way", "id": 404143705, "center": {"lat": 30.6697464, "lon": 104.0115763}, "nodes": [4064178156, 7334858025, 4064178153, 7334858026, 10233039738, 4064178150, 4064178149, 10233039752, 4064178147, 10233039747, 9494930604, 9494930603, 10233039756, 4295666662, 9139964035, 4064178145, 9139964034, 9122275779, 4295666666, 4295666665, 10233040428, 4295666667, 9122275787, 9122275788, 10233040435, 10233040434, 9122275789, 9122275786, 4295666664, 10233040432, 10233040431, 10233040531, 10233040530, 10233040528, 10233040532, 10233040529, 10233040439, 10233040442, 4064178155, 4293997940, 4064178174, 7543711474, 7543711478, 7543711479, 7543711477, 9703326646, 7543711476, 7543711475, 9004568495, 9004568494, 4064178156], "tags": {"amenity": "university", "name": "西南财经大学（光华校区）", "name:en": "Southwestern University of Finance and Economics (Guanghua Campus))", "name:zh": "西南财经大学（光华校区）"}}, {"type": "way", "id": 412069034, "center": {"lat": 30.6119216, "lon": 104.050556}, "nodes": [4136052352, 4136052353, 4136052354, 4136052355, 9457155317, 4136052356, 9457121715, 9457167518, 9457167517, 9457167519, 4972899547, 4136052352], "tags": {"amenity": "school", "name": "四川省成都高新区实验小学"}}, {"type": "way", "id": 430229689, "center": {"lat": 30.6653408, "lon": 104.0363316}, "nodes": [4294997081, 4294997063, 8227704741, 8227704737, 10289517345, 10289517346, 4294997064, 4294997065, 10289517357, 10289517352, 10289517351, 10289517350, 10289517349, 10289517348, 10289517347, 4294997067, 12582323551, 4294997083, 4294997082, 4294997069, 4294997070, 4294997071, 4294997072, 4294997073, 4294997074, 4294997075, 4294997076, 8227681692, 10289517406, 8227681691, 5273689231, 5273689230, 12811615651, 5273689229, 5273689228, 12568479514, 8227681708, 8227681693, 8227681709, 8227704718, 4294997080, 8227681710, 8227704719, 4294997081], "tags": {"addr:city": "成都市", "addr:district": "青羊区", "addr:housenumber": "32号", "addr:province": "四川省", "addr:street": "一环路西二段", "amenity": "hospital", "emergency": "yes", "healthcare": "hospital", "name": "四川省人民医院", "name:en": "Sichuan Provincial People's Hospital", "name:zh": "四川省人民医院"}}, {"type": "way", "id": 430229690, "center": {"lat": 30.6696681, "lon": 104.0396618}, "nodes": [4294997084, 4294997085, 8227681687, 4294997086, 4294997087, 11846050969, 11846050959, 11846050960, 11846050961, 8227681690, 8227681689, 8227681688, 4294997088, 4294997289, 4294997084], "tags": {"addr:housenumber": "39", "addr:street": "十二桥路", "alt_name": "四川省中医医院", "amenity": "hospital", "emergency": "yes", "healthcare": "hospital", "healthcare:speciality": "general;emergency;traditional_chinese_medicine;internal;surgery", "name": "成都中医药大学附属医院", "name:en": "Chengdu Traditional Chinese Medicine University Affiliated Hospital", "name:zh": "成都中医药大学附属医院", "operator": "成都中医药大学", "operator:type": "university"}}, {"type": "way", "id": 430229691, "center": {"lat": 30.6687499, "lon": 104.0415779}, "nodes": [4294997290, 4294997291, 11844351910, 11844351911, 4294997292, 11844351937, 11844351938, 4294997293, 11844353886, 11844353885, 11844353883, 11844353882, 11844353881, 4294997290], "tags": {"addr:housenumber": "37号", "addr:street": "十二桥路", "amenity": "university", "name": "成都中医药大学（十二桥校区）", "name:en": "Chengdu University of TCM (Shierqiao Campus)", "name:zh": "成都中医药大学（十二桥校区）"}}, {"type": "way", "id": 438915578, "center": {"lat": 30.5707024, "lon": 103.9982045}, "nodes": [4365637451, 4365637452, 4365637453, 4365637454, 4365637455, 4365637456, 4365637451], "tags": {"addr:city": "成都市双流区西航港街道", "addr:street": "黄河中路二段", "amenity": "hospital", "emergency": "yes", "healthcare": "hospital", "name": "仁港医院", "name:zh": "仁港医院"}}, {"type": "way", "id": 444490843, "center": {"lat": 30.6473864, "lon": 104.0692945}, "nodes": [4419711745, 4719868000, 4419711747, 4419711748, 4419711745], "tags": {"amenity": "school", "grades": "7-12", "name": "成都市龙江路小学", "name:en": "Longjianglu Primary School", "religion": "none"}}, {"type": "way", "id": 450575815, "center": {"lat": 30.6779322, "lon": 104.053854}, "nodes": [4474928497, 4474928498, 4474928490, 4474928491, 4474928500, 4474928501, 4474928502, 4474928503, 4474928504, 4474928497], "tags": {"amenity": "school", "name": "成都树德中学", "name:en": "Chengdu Shude Middle School"}}, {"type": "way", "id": 456734477, "center": {"lat": 30.6371654, "lon": 104.0655311}, "nodes": [5436607062, 4529725270, 4529725271, 4529725272, 4529725274, 4529725275, 5436607095, 4529725276, 5436607093, 4529725277, 5436607088, 5436607092, 4529725278, 5436607827, 4529725279, 4529725280, 4529725281, 5436607077, 5436607062], "tags": {"amenity": "college", "name": "西华大学人南校区", "website": "http://rnxq.xhu.edu.cn/"}}, {"type": "way", "id": 459158607, "center": {"lat": 30.632521, "lon": 104.0269874}, "nodes": [2560005452, 4550701249, 12610044595, 4550701248, 4550701247, 4550701246, 2560005452], "tags": {"amenity": "school", "name": "成都市第43中学校", "name:en": "Chengdu Number 43 Middle School", "name:zh": "成都市第43中学校"}}, {"type": "way", "id": 471991671, "center": {"lat": 30.5926655, "lon": 104.0472082}, "nodes": [4661433690, 4661433691, 4661433692, 4661433693, 4661433694, 4661433695, 4661433690], "tags": {"addr:city": "成都市", "addr:housenumber": "120", "addr:street": "雍翠路", "amenity": "school", "name": "成都高新区锦城小学"}}, {"type": "way", "id": 471992772, "center": {"lat": 30.5953682, "lon": 104.0596248}, "nodes": [4661463600, 4661463601, 4661463602, 9290341243, 4741684620, 4661463603, 4661463604, 4661463600], "tags": {"addr:city": "成都市", "addr:housenumber": "83", "addr:street": "天益街", "amenity": "school", "name": "成都职业技术学校高新校区"}}, {"type": "way", "id": 472000013, "center": {"lat": 30.5923977, "lon": 104.050166}, "nodes": [4661847963, 4661847964, 4661847967, 4661847968, 4692318032, 4661847970, 4661847971, 4661847972, 4661847973, 4661847963], "tags": {"addr:city": "成都市", "addr:housenumber": "18", "addr:street": "万象北路", "amenity": "hospital", "healthcare": "hospital", "name": "成都市第一人民医院", "toilets:wheelchair": "yes", "wheelchair": "yes"}}, {"type": "way", "id": 472002325, "center": {"lat": 30.5923005, "lon": 104.0532208}, "nodes": [4661857404, 4661857405, 4661857406, 4661857407, 4661857408, 4661857409, 4661857410, 4661857411, 4661857404], "tags": {"addr:city": "成都市", "addr:district": "成都市高新区", "addr:housenumber": "63号", "addr:postcode": "610041", "addr:province": "四川省", "addr:street": "芸锦路", "amenity": "school", "name": "成都七中初中学校（锦城校区）", "website": "http://www.cdqzcz.com/"}}, {"type": "way", "id": 472031020, "center": {"lat": 30.5895435, "lon": 104.0379329}, "nodes": [4661945127, 4661945128, 4661945129, 4661945130, 4661945127], "tags": {"amenity": "school", "name": "成都市财政贸易学校", "name:zh": "成都市财政贸易学校"}}, {"type": "way", "id": 472032353, "center": {"lat": 30.5800565, "lon": 104.0503271}, "nodes": [4661956405, 4661956406, 4661956407, 4661956408, 4661956409, 4661956410, 4661956405], "tags": {"amenity": "school", "name": "泡桐树小学天府校区", "name:zh": "泡桐树小学天府校区"}}, {"type": "way", "id": 475633284, "center": {"lat": 30.6354219, "lon": 104.0689797}, "nodes": [4693610136, 4693610137, 4693610138, 4693610139, 4693610136], "tags": {"amenity": "school", "name": "磨子桥小学"}}, {"type": "way", "id": 475875836, "center": {"lat": 30.6062256, "lon": 104.0360176}, "nodes": [4695601714, 4695601715, 4695601716, 12627910251, 12627910252, 12627910253, 12627910254, 12627910255, 4695601717, 4695601714], "tags": {"amenity": "school", "name": "高新实验中学新北校区"}}, {"type": "way", "id": 475875837, "center": {"lat": 30.6068282, "lon": 104.0371294}, "nodes": [4695601718, 4695601719, 12627910250, 12627910249, 4695601720, 4695601721, 4695601722, 4695601718], "tags": {"amenity": "school", "name": "新光小学"}}, {"type": "way", "id": 475894620, "center": {"lat": 30.5829448, "lon": 104.042466}, "nodes": [4695764943, 4695764944, 4695764945, 4695764946, 4695764947, 4959941702, 4959941701, 4959941700, 4695764948, 4695764949, 4959941670, 4959941669, 4695764950, 4695764951, 4695764943], "tags": {"amenity": "school", "name": "石室天府中学", "name:en": "Shishi Tianfu Middle School", "name:zh": "石室天府中学"}}, {"type": "way", "id": 476291467, "center": {"lat": 30.6102444, "lon": 104.0384246}, "nodes": [4699007115, 4699007116, 4699007117, 4699007118, 4699007115], "tags": {"amenity": "kindergarten", "name": "贝诺尔幼儿园"}}, {"type": "way", "id": 476329031, "center": {"lat": 30.5985043, "lon": 104.0735916}, "nodes": [4699360093, 4699360094, 4699360095, 4699360096, 4699360097, 4699360098, 4699360093], "tags": {"addr:city": "桂溪街道", "addr:district": "成都市高新区", "addr:housenumber": "199号", "addr:postcode": "610041", "addr:province": "四川省", "addr:street": "天环街", "amenity": "school", "grades": "7-9", "name": "成都七中初中学校（天环校区）", "website": "http://www.cdqzcz.com/"}}, {"type": "way", "id": 476329038, "center": {"lat": 30.6056003, "lon": 104.0809381}, "nodes": [4699360127, 4699360128, 4699360129, 12618273433, 4699360130, 4699360131, 4699360132, 4699360127], "tags": {"amenity": "school", "name": "七中初中附小"}}, {"type": "way", "id": 479309887, "center": {"lat": 30.6757865, "lon": 104.0070355}, "nodes": [4724343821, 4724343822, 4724343823, 4724343824, 4724343821], "tags": {"addr:city": "成都市", "addr:housenumber": "202号", "addr:street": "中环路青羊大道段", "amenity": "hospital", "emergency": "yes", "healthcare": "hospital", "name": "金沙医院", "name:zh": "金沙医院"}}, {"type": "way", "id": 482789711, "center": {"lat": 30.5804165, "lon": 104.0473942}, "nodes": [4755833114, 4755833113, 4755833112, 4755833109, 4755833110, 4755833111, 4755833114], "tags": {"amenity": "police", "building": "yes", "name": "新益州派出所"}}, {"type": "way", "id": 484023668, "center": {"lat": 30.5819951, "lon": 104.0319185}, "nodes": [4767717160, 4767717161, 4767717162, 4767717163, 4767717164, 4767717165, 4767717160], "tags": {"amenity": "school", "name": "成都高新新源学校", "name:zh": "成都高新新源学校", "wheelchair": "limited"}}, {"type": "way", "id": 484309741, "center": {"lat": 30.5896437, "lon": 104.0709338}, "nodes": [4770541986, 10300603053, 4770541985, 4770541984, 4770541983, 4770541982, 4770541986], "tags": {"amenity": "school", "name": "成都高新区锦晖小学", "name:en": "Chengdu Hi-tech IDZ Jinhui Primary School", "name:zh": "成都高新区锦晖小学"}}, {"type": "way", "id": 484450907, "center": {"lat": 30.5724769, "lon": 104.0022737}, "nodes": [4772029026, 4772029031, 4772029032, 4772029039, 4772029026], "tags": {"amenity": "school", "name": "四川师范大学附属圣菲小学", "name:en": "Shengfei Primary School Attached to Sichuan Normal University", "name:zh": "四川师范大学附属圣菲小学"}}, {"type": "way", "id": 484451008, "center": {"lat": 30.58287, "lon": 104.0110333}, "nodes": [4772029503, 4772029504, 4772029505, 4772029506, 4772029507, 4772029508, 4772029509, 8932667218, 8932667221, 8932667220, 8932667219, 8932667217, 4772029510, 4772029498, 8932667223, 8932667224, 7272803305, 8932667222, 4772029511, 4772029512, 4772029503], "tags": {"amenity": "school", "name": "成都市盐道街外语学校", "name:zh": "成都市盐道街外语学校"}}, {"type": "way", "id": 485439480, "center": {"lat": 30.6314799, "lon": 104.0205591}, "nodes": [4782097633, 4782097634, 4782097636, 4782097637, 4782097638, 12607121399, 12607121400, 4782097633], "tags": {"amenity": "school", "name": "四川省交通管理学校", "name:zh": "四川省交通管理学校"}}, {"type": "way", "id": 486966308, "center": {"lat": 30.6443327, "lon": 104.0615853}, "nodes": [4794992611, 4794992612, 10770352563, 11736786321, 4794975951, 6187569845, 6187569847, 4794992610, 6187569846, 10770303270, 10770303269, 3943038378, 10770303256, 10770303255, 6187569848, 9003568078, 10770303257, 9003568080, 9003568082, 4794992615, 4794992616, 9003568096, 9003568087, 4794992617, 4794992611], "tags": {"addr:city": "成都市", "addr:district": "武侯区", "addr:housenumber": "16", "addr:province": "四川省", "addr:street": "人民南路三段", "amenity": "college", "name": "四川大学（华西校区西区）"}}, {"type": "way", "id": 495702657, "center": {"lat": 30.6263715, "lon": 104.1032606}, "nodes": [4882102325, 4874328014, 4874328015, 4874328018, 4874328019, 4874328020, 4874328121, 4874328125, 4874328124, 4874328123, 4874328122, 4874328017, 4882102325], "tags": {"alt_name": "成都市第二惠民医院", "alt_name:en": "Chengdu Second Public Benefit Hospital", "alt_name:zh": "成都市第二惠民医院", "amenity": "hospital", "healthcare": "hospital", "name": "成都市第十人民医院（净居寺院区）", "name:en": "Chengdu Tenth People's Hospital", "name:zh": "成都市第十人民医院（净居寺院区）", "operator": "成都市第十人民医院", "operator:type": "public"}}, {"type": "way", "id": 496007057, "center": {"lat": 30.6268517, "lon": 104.0990595}, "nodes": [4877246215, 4877246216, 4877246219, 4877246217, 4877246218, 12460975557, 12460975556, 4877246215], "tags": {"amenity": "school", "education": "school", "name": "龙舟路小学"}}, {"type": "way", "id": 511368048, "center": {"lat": 30.6610862, "lon": 104.0203899}, "nodes": [5002301682, 9568970831, 5002301683, 9568970832, 5002301684, 9568970833, 9568970834, 5002301685, 9568970835, 5002301686, 5002301687, 9568970830, 5002301688, 5002301689, 5002301682], "tags": {"amenity": "school", "name": "成都市文化艺术学校"}}, {"type": "way", "id": 529212216, "center": {"lat": 30.6122917, "lon": 104.0570511}, "nodes": [5141328511, 5141328512, 5141328513, 5141328514, 5141328515, 5141328516, 5141328518, 5141328517, 5141328511], "tags": {"amenity": "college", "name": "四川旅游学校"}}, {"type": "way", "id": 538385070, "center": {"lat": 30.6484271, "lon": 103.9958639}, "nodes": [5211327656, 5211327657, 5211327658, 5211327659, 5211327660, 5211327661, 5211327656], "tags": {"amenity": "school", "name": "成都市晋阳小学", "name:zh": "成都市晋阳小学"}}, {"type": "way", "id": 538385071, "center": {"lat": 30.6477695, "lon": 103.994627}, "nodes": [5211327661, 5211327662, 5211327663, 5211327664, 5211327656, 5211327661], "tags": {"amenity": "school", "name": "四川大学附属中学西区学校", "name:zh": "四川大学附属中学西区学校"}}, {"type": "way", "id": 538387240, "center": {"lat": 30.6052184, "lon": 104.0727127}, "nodes": [5211344126, 11724565513, 5211344128, 5211344129, 5211344130, 4959977773, 5211344126], "tags": {"amenity": "school", "name": "成都高新和平学校"}}, {"type": "way", "id": 543945074, "center": {"lat": 30.584307, "lon": 103.9862808}, "nodes": [8281301702, 2473397237, 5258093463, 5732990534, 8281301703, 9778889838, 9778889837, 9778889841, 9778889834, 8281301699, 8281301731, 8281301730, 9778839807, 9778839806, 5258152234, 5258152235, 5240820650, 5240820651, 5258152236, 8281301738, 8281301739, 2178755381, 8281301700, 10819925084, 5240820659, 8281301701, 8281301702], "tags": {"amenity": "university", "name": "成都信息工程大学（航空港校区）", "name:en": "Chengdu University of Information Technology", "name:zh": "成都信息工程大学（航空港校区）"}}, {"type": "way", "id": 545679924, "center": {"lat": 30.6788644, "lon": 104.023777}, "nodes": [5273688784, 5273688785, 5273688786, 5273688787, 5273688788, 5273688789, 5273688784], "tags": {"amenity": "school", "name": "成都市石室联合中学"}}, {"type": "way", "id": 545679930, "center": {"lat": 30.6790295, "lon": 104.0253965}, "nodes": [5273688819, 5273688820, 5273689221, 5273689222, 5273689223, 5273688819], "tags": {"amenity": "school", "name": "成都实验小学分校"}}, {"type": "way", "id": 549931746, "center": {"lat": 30.6695404, "lon": 104.1054485}, "nodes": [5797905093, 5797905091, 5797905088, 5797905090, 5797905098, 5797905106, 5797905107, 5797905108, 5797905097, 5797905096, 5797905095, 5797905094, 5797905105, 5797905104, 5797905093], "tags": {"amenity": "hospital", "emergency": "yes", "healthcare": "hospital", "name": "成都市第六人民医院（沙河院区）", "wheelchair": "yes"}}, {"type": "way", "id": 569386988, "center": {"lat": 30.6166623, "lon": 104.1185511}, "nodes": [5475934104, 5475934119, 5475934279, 5475934280, 11736402408, 11736402417, 11736402416, 5475934105, 11736402418, 8642297169, 11736402406, 12565735129, 12565735130, 12565735131, 12565735132, 12565735133, 12565735134, 5475934107, 11736402412, 5475934109, 11736402415, 5475934110, 5475934111, 5475934112, 5475934113, 5475934114, 11736402431, 11736402432, 11736402433, 5475934115, 5475934116, 5475934117, 11736402420, 11736402419, 5475934104], "tags": {"amenity": "school", "education": "school", "name": "四川师大附属中学"}}, {"type": "way", "id": 572810709, "center": {"lat": 30.5771486, "lon": 104.0024785}, "nodes": [5502915172, 12655446667, 12655446666, 12655446665, 12655446664, 5502915170, 5502915171, 5502915172], "tags": {"amenity": "school"}}, {"type": "way", "id": 572842088, "center": {"lat": 30.6040142, "lon": 104.0070471}, "nodes": [5503266575, 5503266576, 5503266577, 5503266578, 5503266579, 5503266575], "tags": {"amenity": "school", "name": "武侯高中"}}, {"type": "way", "id": 573410347, "center": {"lat": 30.6498956, "lon": 104.1170291}, "nodes": [5507313060, 5507313061, 5507313062, 5507313063, 5507313064, 5544375710, 5544375709, 5507313060], "tags": {"amenity": "school", "education": "school", "name": "石室小学"}}, {"type": "way", "id": 576684164, "center": {"lat": 30.6669306, "lon": 104.0527593}, "nodes": [5530490915, 5530490916, 5530490917, 5530490918, 5530490919, 5530490920, 5530491821, 5530491822, 5530491823, 5530490915], "tags": {"amenity": "school", "name": "泡桐树小学"}}, {"type": "way", "id": 577364627, "center": {"lat": 30.6781046, "lon": 104.0414729}, "nodes": [5535137830, 5535137831, 5535137832, 5535137833, 5535137830], "tags": {"amenity": "school", "name": "成都十八中"}}, {"type": "way", "id": 578724803, "center": {"lat": 30.6445405, "lon": 104.1148012}, "nodes": [5544396332, 5544396333, 5544396334, 5544396335, 5544396332], "tags": {"amenity": "kindergarten", "education": "kindergarten", "name": "嘉业幼儿园"}}, {"type": "way", "id": 582845154, "center": {"lat": 30.6496488, "lon": 104.0685556}, "nodes": [5573132337, 5573132338, 5573132339, 5573132340, 5573132341, 5573132337], "tags": {"amenity": "school", "name": "盐道街中学（高中部）", "name:en": "Yandao Street Middle School"}}, {"type": "way", "id": 584407650, "center": {"lat": 30.6534557, "lon": 104.0377353}, "nodes": [5586338104, 5586338105, 5586338106, 5586338107, 5586338108, 5586338109, 5586338104], "tags": {"amenity": "hospital", "healthcare": "hospital", "healthcare:speciality": "orthopaedics", "name": "四川省骨科医院"}}, {"type": "way", "id": 586022096, "center": {"lat": 30.6747687, "lon": 104.0990896}, "nodes": [5599738086, 5599738092, 5599738093, 6442973710, 6442973709, 6442973708, 6442973707, 5599738089, 6403568747, 6228930166, 5599738086], "tags": {"amenity": "school", "name": "龙江路小学成华校区"}}, {"type": "way", "id": 586022099, "center": {"lat": 30.6681617, "lon": 104.100512}, "nodes": [5599738103, 5599738104, 5599738105, 5599738106, 5599738103], "tags": {"amenity": "school", "name": "石室中学初中（培华校区）"}}, {"type": "way", "id": 586022101, "center": {"lat": 30.66757, "lon": 104.1022568}, "nodes": [5599738113, 5599738114, 5599738115, 5599738116, 5599738117, 5599738113], "tags": {"amenity": "hospital", "healthcare": "hospital", "name": "成华区建设路社区卫生服务中心", "wheelchair": "yes"}}, {"type": "way", "id": 587609130, "center": {"lat": 30.6613048, "lon": 104.0072958}, "nodes": [5612876916, 5612876917, 5612876894, 5612876918, 5612876919, 5612876920, 5612876921, 5612876916], "tags": {"amenity": "school", "name": "成都花园国际小学"}}, {"type": "way", "id": 587609164, "center": {"lat": 30.6307552, "lon": 104.0026196}, "nodes": [5612877030, 8212606723, 5612877031, 5612877032, 5612877033, 5612877030], "tags": {"amenity": "kindergarten", "name": "金苹果丽都花园城幼稚园"}}, {"type": "way", "id": 587609165, "center": {"lat": 30.6311601, "lon": 104.0032601}, "nodes": [5612877034, 5612877035, 5612877036, 5612877037, 5612877034], "tags": {"amenity": "school", "name": "龙江路小学祥云分校"}}, {"type": "way", "id": 587634750, "center": {"lat": 30.6536138, "lon": 103.9926928}, "nodes": [5613051880, 9568892031, 9568892026, 5613051881, 5613051882, 9568892032, 5613051883, 5613051884, 5613051885, 5613051886, 5613051880], "tags": {"amenity": "hospital", "healthcare": "hospital", "name": "四川省妇幼保健院", "wheelchair": "yes"}}, {"type": "way", "id": 587802044, "center": {"lat": 30.6682556, "lon": 104.0529037}, "nodes": [5614569494, 5614569495, 5614569496, 5614569497, 5614569494], "tags": {"amenity": "school", "name": "泡桐树小学"}}, {"type": "way", "id": 587802047, "center": {"lat": 30.6559815, "lon": 104.0542789}, "nodes": [5614569518, 5614569519, 5614569520, 5614570021, 5614570022, 5614570023, 3076793425, 2997203384, 3076793428, 5614569518], "tags": {"amenity": "university", "name": "成都中医药大学（汪家拐校区）", "name:en": "Chengdu University of TCM (Wangjiaguai Campus)", "name:zh": "成都中医药大学（汪家拐校区）"}}, {"type": "way", "id": 587802049, "center": {"lat": 30.6518381, "lon": 104.0662389}, "nodes": [5614570030, 5614570031, 5614570032, 5614570033, 5614570034, 5614570035, 5614570030], "tags": {"addr:city": "成都市", "addr:district": "锦江区", "addr:housenumber": "2号", "addr:postcode": "610014", "addr:province": "四川", "addr:street": "盐道街", "amenity": "school", "name": "成都盐道街小学", "name:en": "Chengdu Yandaojie Primary School", "name:zh": "成都盐道街小学"}}, {"type": "way", "id": 587802051, "center": {"lat": 30.6522992, "lon": 104.0660601}, "nodes": [5614570044, 5614570045, 5614570046, 11484307148, 11484307149, 5614570030, 5614570035, 5614570034, 5614570033, 2677597831, 2677597840, 2677597839, 2677597813, 5614570047, 5614570044], "tags": {"amenity": "school", "name": "盐道街中学（初中部）", "name:en": "Yandao Street Middle School", "name:zh-Latn-pinyin": "Yándàojiē zhōngxué"}}, {"type": "way", "id": 590215094, "center": {"lat": 30.6613412, "lon": 104.0962578}, "nodes": [5635400061, 12438551429, 12438551430, 5635400062, 5635400063, 5635400064, 5635400061], "tags": {"amenity": "school", "name": "成都双语实验学校"}}, {"type": "way", "id": 591296333, "center": {"lat": 30.6713521, "lon": 104.0555722}, "nodes": [5645108202, 5645108203, 9064121559, 9064121558, 5645108204, 5645108205, 5645108202], "tags": {"amenity": "school", "name": "成都树德实验中学"}}, {"type": "way", "id": 607558685, "center": {"lat": 30.5928213, "lon": 104.1049769}, "nodes": [5757680983, 5757680984, 5757680985, 5757680986, 5757680983], "tags": {"amenity": "school", "education": "school", "name": "锦江区教师进修学校"}}, {"type": "way", "id": 614874103, "center": {"lat": 30.6673612, "lon": 104.0852105}, "nodes": [5815413595, 5815413596, 5815413597, 5815413598, 5815413599, 5815413600, 5815413601, 5815413602, 5815413595], "tags": {"amenity": "school", "grades": "7-12", "name": "成都市第二中学", "name:zh": "成都市第二中学", "old_name": "北京师范大学成都实验中学", "operator": "成都市教育局", "operator:type": "government", "website": "http://www.bsdcdsy.com/"}}, {"type": "way", "id": 619120038, "center": {"lat": 30.6662519, "lon": 104.0326811}, "nodes": [5851008433, 12811615702, 5851008434, 5851008435, 5851008437, 12571209019, 5851008436, 5851008433], "tags": {"amenity": "university", "name": "四川电力职业技术学院"}}, {"type": "way", "id": 619703470, "center": {"lat": 30.6639747, "lon": 104.0515227}, "nodes": [5855869897, 5855869898, 5855869899, 5855869900, 5855869901, 5855869902, 5855869903, 5855869904, 5855869905, 5855869897], "tags": {"amenity": "school", "name": "少城小学"}}, {"type": "way", "id": 660893172, "center": {"lat": 30.6424519, "lon": 104.0825041}, "nodes": [6187569839, 6187569840, 6187569841, 6187569842, 6187569843, 6187569839], "tags": {"amenity": "university", "name": "成都市老年大学"}}, {"type": "way", "id": 665487436, "center": {"lat": 30.5725313, "lon": 104.0699037}, "nodes": [6228792833, 6228792830, 6228792831, 6228792832, 6228792833], "tags": {"amenity": "police", "building": "yes", "building:levels": "1"}}, {"type": "way", "id": 665501067, "center": {"lat": 30.6770885, "lon": 104.1014163}, "nodes": [2041314651, 7902563115, 5845637084, 6868807292, 7902563167, 5500156608, 5845637085, 6814327953, 6442965172, 6442965175, 6228930141, 6228930145, 6228930143, 6228930144, 6228930142, 2041314651], "tags": {"amenity": "hospital", "healthcare": "hospital", "name": "电子科技大学医院（沙河院区）", "name:en": "UESTC Hospital (Shahe)", "name:zh": "电子科技大学医院（沙河院区）"}}, {"type": "way", "id": 669726784, "center": {"lat": 30.6756659, "lon": 103.981673}, "nodes": [6271860809, 6271860810, 6271860811, 10185875115, 10185875117, 10185875119, 10185875118, 6271860812, 10185875116, 6271860809], "tags": {"amenity": "school", "name": "东坡小学"}}, {"type": "way", "id": 674962798, "center": {"lat": 30.6124702, "lon": 104.0675347}, "nodes": [6321107446, 6321107447, 12616013916, 12616013917, 6321107448, 6321107449, 6321107450, 6321107451, 12616014003, 12616014002, 12616014001, 12616014000, 12616013895, 12616013896, 12616013897, 6321107452, 12616013898, 6321107453, 6321107446], "tags": {"amenity": "hospital", "healthcare": "hospital", "name": "四川省肿瘤医院"}}, {"type": "way", "id": 675185823, "center": {"lat": 30.6032242, "lon": 104.0992604}, "nodes": [6323160033, 6323160034, 6323160035, 6323160036, 6323160037, 6323160038, 6323160033], "tags": {"amenity": "school", "name": "盐道街小学"}}, {"type": "way", "id": 675766267, "center": {"lat": 30.6046979, "lon": 104.1084681}, "nodes": [6328459391, 6328459392, 11494315572, 6328459393, 6328459395, 11494315571, 6328459397, 6328459398, 6328459399, 6328459400, 12460904976, 6328459401, 12460904980, 12460904979, 12460904978, 6328459402, 6328459403, 6328459404, 12460904977, 6328459405, 6328459406, 6328459407, 6328459391], "tags": {"amenity": "school", "education": "school", "name": "成都华德福学校"}}, {"type": "way", "id": 678838738, "center": {"lat": 30.6749879, "lon": 104.0939308}, "nodes": [6356151912, 6356151913, 6356151914, 6356151915, 6356151916, 6356151917, 6356151918, 6356151919, 6356151920, 6356151921, 8042481188, 6356151922, 6356151923, 6356151924, 6356151925, 6356151912], "tags": {"amenity": "school", "name": "成都石室中学初中学校（过渡校区）"}}, {"type": "way", "id": 678838739, "center": {"lat": 30.6743856, "lon": 104.0932601}, "nodes": [6356151915, 6356151926, 6356151927, 6356151928, 6356151929, 6356151930, 6356151912, 6356151913, 6356151914, 6356151915], "tags": {"amenity": "university", "name": "成都开放大学", "old_name": "成都广播电视大学"}}, {"type": "way", "id": 685949218, "center": {"lat": 30.6565294, "lon": 104.0616652}, "nodes": [6429024256, 6429024257, 6429024258, 6429024259, 6429024260, 6429024261, 6429024262, 6429024263, 6429024264, 6429024256], "tags": {"amenity": "school", "name": "石室联合中学"}}, {"type": "way", "id": 690144431, "center": {"lat": 30.6804993, "lon": 104.0946928}, "nodes": [6474752365, 6474752371, 6474752370, 6474752355, 6474752354, 6474752369, 6341069027, 6474752351, 6341069028, 6341069029, 11540254823, 6341069026, 5845637081, 7902563153, 6474752366, 5845637080, 5845637078, 11540254822, 11540254821, 6474752364, 6474752365], "tags": {"amenity": "school", "grades": "1", "name": "电子科技大学附属实验小学（沙河校区）", "name:zh": "电子科技大学附属实验小学（沙河校区）"}}, {"type": "way", "id": 701505908, "center": {"lat": 30.6318128, "lon": 104.0762414}, "nodes": [6588174426, 6588174427, 6588174428, 6588174429, 6588174430, 6588174431, 6682522699, 6588174432, 6682516582, 6588174433, 6588174434, 6588174426], "tags": {"amenity": "college", "email": "gaocaixi@scu.edu.cn", "fax": "+86 28 8540 5402", "name": "高分子科学与工程学院", "phone": "+86 28 8540 5401;+86 28 8546 1786", "website": "https://cpse.scu.edu.cn/"}}, {"type": "way", "id": 711177626, "center": {"lat": 30.6380147, "lon": 104.0837905}, "nodes": [6685885743, 6685885770, 6685885771, 6685885744, 6685885745, 6685885746, 6685885747, 6685885748, 6685885749, 6685885750, 6685885751, 8234693976, 6685885743], "tags": {"amenity": "school", "name": "四川省成都市第十二中学（川大附中）"}}, {"type": "way", "id": 711177634, "center": {"lat": 30.6353089, "lon": 104.084635}, "nodes": [6685885850, 6685885851, 6685885852, 6685885853, 6685885854, 6685885855, 6685885850], "tags": {"amenity": "kindergarten", "name": "四川大学第一幼儿园"}}, {"type": "way", "id": 711177635, "center": {"lat": 30.635847, "lon": 104.0836053}, "nodes": [6685885856, 6685885857, 6685885858, 6685885859, 6685885860, 6685885861, 6685885862, 6685885851, 6685885850, 6685885863, 6685885864, 6685885856], "tags": {"amenity": "school", "name": "川大附属实验小学"}}, {"type": "way", "id": 711177637, "center": {"lat": 30.6360345, "lon": 104.0783148}, "nodes": [6685885869, 6685885870, 6685885871, 6685885872, 6685885869], "tags": {"amenity": "police", "building": "yes"}}, {"type": "way", "id": 714379165, "center": {"lat": 30.6593208, "lon": 104.1176279}, "nodes": [6715171227, 6715194460, 6715194461, 6715171228, 6715171229, 6715194462, 6715194465, 6715194464, 6715194463, 6715171230, 6715171227], "tags": {"amenity": "hospital", "emergency": "yes", "healthcare": "hospital", "loc_name": "成都三博东篱医院", "name": "四川省人民医院（医疗集团）三博东篱医院"}}, {"type": "way", "id": 714380450, "center": {"lat": 30.6604324, "lon": 104.1179485}, "nodes": [6715194444, 6715194445, 6715194456, 6715194446, 6715194447, 7475449119, 6715194448, 6715194449, 6715194450, 6715194451, 6715194444], "tags": {"amenity": "school", "name": "成华小学"}}, {"type": "way", "id": 714380451, "center": {"lat": 30.6603349, "lon": 104.1171183}, "nodes": [6715194452, 6715194458, 6715194459, 6715194457, 6715194453, 6715194454, 6715194455, 6715194452], "tags": {"amenity": "kindergarten", "name": "锦绣东方幼儿园"}}, {"type": "way", "id": 785085448, "center": {"lat": 30.640291, "lon": 104.0771173}, "nodes": [7334966814, 7334966782, 9289887305, 7334966793, 9289887306, 7334966794, 9289887296, 7334966798, 7334966799, 7334966800, 7334966801, 7334966802, 7334966803, 7334966820, 7334966772, 7334966771, 11775496734, 7334966821, 9289940090, 7334966807, 7334966806, 7334966825, 7334966805, 7334966804, 7334966808, 7334966814], "tags": {"addr:city": "成都市", "addr:district": "锦江区", "addr:housenumber": "8号", "addr:province": "四川省", "addr:street": "新生路", "amenity": "university", "name": "四川音乐学院（锦江校区）", "name:zh": "四川音乐学院（锦江校区）", "short_name": "四川音乐学院"}}, {"type": "way", "id": 786510788, "center": {"lat": 30.6761663, "lon": 104.0929905}, "nodes": [7354166815, 7354166816, 8842316825, 7354166817, 7354166818, 7354166815], "tags": {"amenity": "kindergarten", "name": "千里马大地幼儿园"}}, {"type": "way", "id": 827798341, "center": {"lat": 30.6712329, "lon": 104.0601262}, "nodes": [4201795163, 7727965416, 11915647700, 7619523076, 12645565244, 12645565243, 10280599622, 10280599620, 12645565241, 12645565240, 12422508748, 12422508747, 10280599618, 7619523065, 8928093203, 11684002019, 11939946441, 7727965417, 8928093205, 8928093206, 8928093202, 6257925151, 11684002021, 11684002020, 7727965418, 4201795163], "tags": {"addr:city": "成都市", "addr:district": "青羊区", "addr:housenumber": "19", "addr:province": "四川省", "addr:street": "羊市街", "amenity": "hospital", "beds": "1900", "emergency": "yes", "healthcare": "hospital", "name": "成都市第三人民医院", "name:en": "The Third People's Hospital of Chengdu", "name:zh": "成都市第三人民医院", "operator": "成都市卫生健康委员会", "operator:type": "government", "phone": "+86 28 61312288", "reg_ref": "45075438751010511A1001", "short_name": "成都三医院", "shortest_name": "三医院", "website": "https://www.cd3hospital.com/"}}, {"type": "way", "id": 827798343, "center": {"lat": 30.6357828, "lon": 104.0934081}, "nodes": [7727965431, 7727965432, 7727965433, 12811065658, 7727965434, 12811065657, 12811065655, 12811065656, 12811065654, 7727965435, 12463120418, 12811065665, 12811065664, 12463120419, 12811065661, 12811065663, 12811065662, 7727965436, 7727965437, 12811065659, 7727965438, 7727965439, 7727965431], "tags": {"alt_name": "解放军第四五二医院", "amenity": "hospital", "emergency": "yes", "healthcare": "hospital", "name": "西部战区空军医院", "name:zh": "西部战区空军医院", "operator": "西部战区空军后勤部", "operator:type": "military", "wikidata": "Q30951083", "wikipedia": "zh:中国人民解放军西部战区空军医院"}}, {"type": "way", "id": 827798347, "center": {"lat": 30.6739081, "lon": 104.0514382}, "nodes": [4831098726, 7727965463, 7727965464, 7727965465, 5530490905, 5530490904, 5530490903, 5530490902, 3614070502, 7727965466, 7727965467, 7727965468, 7727965469, 7727965470, 7727965471, 4831098726], "tags": {"amenity": "hospital", "healthcare": "hospital", "healthcare:speciality": "traditional_chinese_medicine;general;emergency", "name": "四川省第二中医医院"}}, {"type": "way", "id": 827798348, "center": {"lat": 30.6519068, "lon": 104.0522161}, "nodes": [5646863234, 5646863233, 7727965472, 7727965473, 7727965474, 7727965475, 5646863234], "tags": {"addr:city": "成都市", "addr:district": "武侯区", "addr:housenumber": "108", "addr:province": "四川省", "addr:street": "倒桑树街", "amenity": "hospital", "healthcare": "hospital", "name": "通用医疗三六三医院（武侯院区）", "name:en": "Genertec 363 Hospital", "name:zh": "通用医疗三六三医院（武侯院区）", "phone": "+86 28 6181 0363", "website": "https://www.363120.com/", "wikidata": "Q114450332", "wikipedia": "zh:通用医疗三六三医院"}}, {"type": "way", "id": 827798349, "center": {"lat": 30.6441559, "lon": 104.0773851}, "nodes": [7727965476, 7727965477, 7727965478, 7727965479, 7727965476], "tags": {"amenity": "hospital", "healthcare": "hospital", "name": "成都市第七人民医院"}}, {"type": "way", "id": 827798351, "center": {"lat": 30.6444538, "lon": 104.0492558}, "nodes": [7727965484, 7727998985, 7727998986, 7727998987, 7727998988, 7727998989, 7727998990, 7727965484], "tags": {"alt_name": "四川大学华西医院西藏成办分院", "amenity": "hospital", "full_name": "西藏自治区人民政府驻成都办事处医院", "healthcare": "hospital", "name": "西藏成办医院", "operator": "西藏自治区人民政府驻成都办事处", "operator:type": "government"}}, {"type": "way", "id": 827798354, "center": {"lat": 30.6361748, "lon": 104.0361413}, "nodes": [3203414190, 12449616154, 7727999002, 7727999003, 7727999005, 7727999006, 7727999007, 7727999008, 3203414190], "tags": {"amenity": "hospital", "healthcare": "hospital", "name": "武侯区人民医院", "name:en": "Wuhou District People's Hospital", "name:zh": "武侯区人民医院"}}, {"type": "way", "id": 829623130, "center": {"lat": 30.6579828, "lon": 104.1061524}, "nodes": [7743391158, 12438508487, 7743391159, 8722369278, 7743391160, 7743391161, 7743391162, 7743391163, 7743391164, 7743391166, 7743391165, 7743391158], "tags": {"amenity": "school", "grades": "10-12", "name": "成都列五中学"}}, {"type": "way", "id": 837186679, "center": {"lat": 30.6613563, "lon": 104.0810217}, "nodes": [7813478096, 7813478097, 7813478098, 7813478099, 7813478100, 7813478096], "tags": {"amenity": "school", "education": "school", "name": "第十七中学初中部"}}, {"type": "way", "id": 837502351, "center": {"lat": 30.6802759, "lon": 104.0140687}, "nodes": [7816604290, 7816604291, 7816604292, 7816604293, 7816604294, 7816604295, 7816604296, 7816604297, 7816604298, 7816604299, 7816604300, 7816604301, 7816604302, 7816604303, 7816604304, 7816604290], "tags": {"amenity": "school", "name": "成都市青羊区教育科学研究院附属实验学校"}}, {"type": "way", "id": 852720211, "center": {"lat": 30.6381366, "lon": 104.0698658}, "nodes": [7954573910, 7954573911, 7954573920, 7954573921, 2930647327, 7954573910], "tags": {"amenity": "kindergarten", "name": "童心亲子园"}}, {"type": "way", "id": 858799474, "center": {"lat": 30.665106, "lon": 104.10382}, "nodes": [8005615668, 8005615669, 8005615670, 8005615671, 8005615668], "tags": {"amenity": "hospital", "healthcare": "hospital", "name": "成华区双桥子社区卫生服务中心"}}, {"type": "way", "id": 885994857, "center": {"lat": 30.6546342, "lon": 104.06981}, "nodes": [8238486008, 8238486014, 11506210110, 8238486013, 8238486012, 12545983576, 12545983575, 12545983574, 11506210039, 11506210040, 8238486011, 12545983573, 8238486010, 8238486009, 8238486008], "tags": {"amenity": "school", "name": "成都师范附属小学", "name:en": "Chengshi Primary School", "name:zh": "成师附小"}}, {"type": "way", "id": 886017483, "center": {"lat": 30.6602618, "lon": 104.0834359}, "nodes": [8238627453, 8238627452, 8238627451, 8238627450, 8238627449, 8238627448, 8238627447, 8238627446, 8238627445, 8238627444, 8238627453], "tags": {"amenity": "school", "name": "成都职业技术学院(锦江校区)", "name:en": "Chengdu Vocational and Technical College (Jinjiang Campus)", "name:zh": "成都职业技术学院(锦江校区)"}}, {"type": "way", "id": 889116396, "center": {"lat": 30.6794937, "lon": 104.0463331}, "nodes": [5535137827, 8265984308, 5535133204, 5535137825, 5535137827], "tags": {"amenity": "college", "name": "成都工业学院（花牌坊校区）"}}, {"type": "way", "id": 891004267, "center": {"lat": 30.579458, "lon": 104.0025312}, "nodes": [8281276778, 8281276780, 8281276776, 8281276779, 4772029448, 8281276778], "tags": {"amenity": "hospital", "healthcare": "hospital", "name": "成都台双医院"}}, {"type": "way", "id": 891004284, "center": {"lat": 30.5808945, "lon": 103.995505}, "nodes": [8281276797, 8281276781, 10161574348, 4772029434, 8281301686, 8281301690, 8281276792, 8281276795, 8281276796, 8281276797], "tags": {"amenity": "hospital", "emergency": "yes", "healthcare": "hospital", "name": "四川省司法警官总医院"}}, {"type": "way", "id": 891004295, "center": {"lat": 30.5836171, "lon": 103.9926312}, "nodes": [8281301731, 8281301732, 8281301733, 8281301734, 8281301737, 8281301736, 8281301735, 8281301699, 8281301731], "tags": {"amenity": "school", "name": "中国工商银行四川金融培训学校"}}, {"type": "way", "id": 908998344, "center": {"lat": 30.6614018, "lon": 104.0474384}, "nodes": [8440216151, 8440216152, 8440216153, 8440216140, 11773101953, 8440216151], "tags": {"amenity": "hospital", "healthcare": "hospital", "name": "成都军区联勤部机关医院"}}, {"type": "way", "id": 908998346, "center": {"lat": 30.6630051, "lon": 104.0468432}, "nodes": [8440216138, 4772476122, 8440216158, 7541251185, 8440216138], "tags": {"amenity": "kindergarten", "name": "省军区机关第二幼儿园"}}, {"type": "way", "id": 908998353, "center": {"lat": 30.6533964, "lon": 104.0445323}, "nodes": [8440216240, 8440216280, 8440216281, 8440216282, 8440216283, 8440216284, 8440216242, 8440216241, 8440216240], "tags": {"amenity": "kindergarten", "name": "成都飞机设计研究所幼儿园"}}, {"type": "way", "id": 908998354, "center": {"lat": 30.6514069, "lon": 104.0512529}, "nodes": [8440216271, 8440216270, 8440216288, 8440216289, 8440216285, 8440216272, 8440216271], "tags": {"amenity": "kindergarten", "name": "成都军区空军第二幼儿园"}}, {"type": "way", "id": 925874301, "center": {"lat": 30.6530474, "lon": 104.0551134}, "nodes": [8592416686, 8592416687, 8592416688, 8592416689, 8592416690, 8592416691, 8592416686], "tags": {"amenity": "school", "name": "成都市彩虹小学"}}, {"type": "way", "id": 926110156, "center": {"lat": 30.633882, "lon": 104.1056816}, "nodes": [2917006505, 8594376132, 8594376133, 8594376134, 8594376135, 8594376136, 8594376137, 8594376138, 2917006505], "tags": {"amenity": "school", "education": "school", "name": "成都七中育才学校（新校区）"}}, {"type": "way", "id": 926110165, "center": {"lat": 30.6396727, "lon": 104.1165285}, "nodes": [8594376205, 8594376203, 8508755770, 8594376193, 8508755769, 8594376202, 8594376201, 8594376194, 8594376198, 8594376196, 8594376205], "tags": {"amenity": "school", "name": "盐道街小学（通桂校区）"}}, {"type": "way", "id": 926110166, "center": {"lat": 30.6388865, "lon": 104.1164954}, "nodes": [8594376195, 8594376196, 8594376205, 8594376204, 8594376197, 8594376195], "tags": {"amenity": "kindergarten", "name": "成都市第三幼儿园（国际新城园区）"}}, {"type": "way", "id": 926110167, "center": {"lat": 30.639301, "lon": 104.1157136}, "nodes": [8594376198, 8594376199, 8594376200, 8594376195, 8594376196, 8594376198], "tags": {"amenity": "clinic", "healthcare": "clinic", "name": "东大国际社区卫生服务中心"}}, {"type": "way", "id": 931936530, "center": {"lat": 30.6628945, "lon": 104.0848238}, "nodes": [8639584540, 8639584541, 8639584542, 8639584543, 8639584544, 8639584545, 10860346736, 10860346731, 10860346734, 10860346735, 8639584546, 12265641180, 12265641181, 12265641182, 12265641183, 12265641184, 12265641185, 8639584547, 8639584548, 8639584549, 8639584540], "tags": {"addr:housenumber": "10", "addr:street": "庆云南街", "amenity": "hospital", "emergency": "yes", "healthcare": "hospital", "name": "成都市第二人民医院", "name:en": "2nd Chengdu People's Hospital", "name:zh": "成都市第二人民医院"}}, {"type": "way", "id": 942258751, "center": {"lat": 30.6794775, "lon": 104.1210938}, "nodes": [1956610426, 8725474470, 8725474471, 9026224706, 8725474472, 8725474473, 8725474474, 1956610426], "tags": {"amenity": "school", "name": "成都市第四十九中学校", "website": "https://www.cd49.com/"}}, {"type": "way", "id": 948592624, "center": {"lat": 30.6206783, "lon": 104.0933331}, "nodes": [8780362871, 8780362882, 8780362883, 8780362872, 8780362871], "tags": {"amenity": "school", "name": "成都市盐道街小学(东湖分校)"}}, {"type": "way", "id": 955368602, "center": {"lat": 30.6745175, "lon": 104.1010787}, "nodes": [8842316816, 6015592548, 8842316819, 8842316814, 8842316815, 8842316816], "tags": {"amenity": "kindergarten", "name": "金世纪东区幼儿园"}}, {"type": "way", "id": 955368605, "center": {"lat": 30.6759072, "lon": 104.0919721}, "nodes": [5599738078, 8842316822, 8842316827, 8842316828, 8842316826, 8842316823, 8842316824, 5599738078], "tags": {"amenity": "hospital", "healthcare": "hospital", "name": "石油成都医院"}}, {"type": "way", "id": 957890614, "center": {"lat": 30.6575215, "lon": 104.0006394}, "nodes": [4773916776, 8863313486, 8863313487, 8863313488, 8863313489, 8863313490, 8863313491, 4773916774, 4773916776], "tags": {"amenity": "school", "name": "成都市沙堰小学"}}, {"type": "way", "id": 958215111, "center": {"lat": 30.6024587, "lon": 104.0261242}, "nodes": [8866141716, 8866141717, 8866141718, 8866141733, 8866141719, 8866141735, 8866141731, 8866141720, 8866141721, 8866141722, 8866141723, 12614925059, 12614925060, 12614925063, 12614925062, 12614925061, 8866141716], "tags": {"amenity": "college", "name": "四川体育职业学院（太平寺校区）"}}, {"type": "way", "id": 958215113, "center": {"lat": 30.5992826, "lon": 104.0256653}, "nodes": [8866141731, 8866141730, 8866141732, 8866141737, 8866141718, 8866141733, 8866141734, 8866141735, 8866141731], "tags": {"amenity": "school", "name": "华艺外国语学校"}}, {"type": "way", "id": 960091351, "center": {"lat": 30.6162638, "lon": 103.9914487}, "nodes": [8883005161, 8883005162, 8883005166, 8883005167, 8883005168, 8883005169, 8883005170, 8883005171, 8883005172, 8883005173, 8883005174, 12645552598, 8883005175, 12645552599, 8883005161], "tags": {"amenity": "school", "name": "北京第二外国语学院成都附属中学（千秀校区）", "short_name": "北二外成都附中（千秀校区）"}}, {"type": "way", "id": 972840668, "center": {"lat": 30.6545274, "lon": 104.0262416}, "nodes": [4787113423, 10648225452, 9004166356, 9004166357, 9004166358, 9004166360, 9004166361, 9004166362, 12730609952, 9004166363, 9004166368, 9004166367, 9004166364, 9004166365, 9004166366, 4787113423], "tags": {"addr:housenumber": "62号", "addr:street": "大石西路", "amenity": "hospital", "healthcare": "hospital", "name": "四川省人民医院（草堂病区）", "name:zh": "四川省人民医院（草堂病区）"}}, {"type": "way", "id": 981250679, "center": {"lat": 30.6352221, "lon": 104.1053929}, "nodes": [9076860781, 9076860782, 9076860783, 9076860784, 9076860785, 9076860781], "tags": {"amenity": "kindergarten", "education": "kindergarten", "name": "成都市第三幼儿园（汇泉园区）", "name:zh": "成都市第三幼儿园（汇泉园区）", "operator": "成都市第三幼儿园", "operator:type": "public"}}, {"type": "way", "id": 986912028, "center": {"lat": 30.6666568, "lon": 104.0152005}, "nodes": [9122275779, 9122275780, 12581433774, 12581433773, 12581433772, 12730609808, 12581433770, 9122275781, 12730598699, 9122275782, 10233040492, 10233040491, 10233040493, 9122275783, 10233040424, 10233040494, 10233040498, 10233040465, 9122275784, 10233040425, 10233040426, 10233040427, 10233040433, 10233040430, 10233040429, 10233040428, 4295666665, 4295666666, 9122275779], "tags": {"amenity": "college", "name": "四川省行政学院"}}, {"type": "way", "id": 988651752, "center": {"lat": 30.6149251, "lon": 103.9816737}, "nodes": [9138160338, 9138160340, 9138160341, 9138160342, 9138160343, 9138160338], "tags": {"amenity": "kindergarten", "name": "成都市武侯区第十五幼儿园（智达园区）"}}, {"type": "way", "id": 988877008, "center": {"lat": 30.6662291, "lon": 104.0097211}, "nodes": [9139964036, 9139964037, 9139964155, 9139964038, 9139964039, 9139964040, 9139964041, 9139964042, 9139964043, 9139964044, 9139964047, 9139964045, 9139964046, 9139964036], "tags": {"amenity": "school", "name": "西南财经大学附属小学"}}, {"type": "way", "id": 988877011, "center": {"lat": 30.660584, "lon": 104.0083227}, "nodes": [9139964073, 9139964074, 9139964075, 9139964076, 9139964077, 9139964078, 5612876898, 5612876899, 5612876900, 9139964073], "tags": {"amenity": "kindergarten", "name": "金苹果成都花园多元智能幼稚园"}}, {"type": "way", "id": 988877020, "center": {"lat": 30.665717, "lon": 104.0085563}, "nodes": [9139964152, 9139964153, 9139964154, 7543711467, 7543711471, 7543711473, 9139964158, 9139964144, 9139964143, 9139964041, 9139964040, 9139964039, 9139964038, 9139964155, 9139964156, 9139964157, 9139964152], "tags": {"amenity": "college", "name": "四川行政学院（西校区）"}}, {"type": "way", "id": 993208556, "center": {"lat": 30.6658473, "lon": 104.0619639}, "nodes": [9175975250, 6225189346, 9175975253, 9175975254, 9175975255, 7619640131, 7619640138, 7619640137, 9175975256, 9175975316, 9175975244, 9175975246, 9175975249, 9175975250], "tags": {"amenity": "school", "name": "成都实验小学"}}, {"type": "way", "id": 993208561, "center": {"lat": 30.6626717, "lon": 104.0604811}, "nodes": [9175975310, 9175975311, 9175975312, 9175975321, 9175975323, 9175975322, 9175975307, 9175975308, 9175975309, 9175975310], "tags": {"amenity": "kindergarten", "full_name": "成都市青羊区天府幼儿园", "name": "天府幼儿园", "name:zh": "天府幼儿园"}}, {"type": "way", "id": 993398663, "center": {"lat": 30.6614839, "lon": 104.0589851}, "nodes": [9177703869, 5451165789, 9177703876, 9177703870, 9177703871, 9177703872, 9175975394, 9175975395, 9175975396, 9177703869], "tags": {"amenity": "school", "name": "成都市回民小学"}}, {"type": "way", "id": 993398691, "center": {"lat": 30.6799427, "lon": 104.0195419}, "nodes": [9177716652, 9177716649, 9177716646, 9177716647, 9177716652], "tags": {"amenity": "kindergarten", "name": "绿舟金沙幼儿园"}}, {"type": "way", "id": 1001360111, "center": {"lat": 30.6220892, "lon": 104.1217549}, "nodes": [9242772977, 9242772978, 9242772979, 9242772980, 9242772981, 9242772982, 9242772983, 9242772984, 9392485174, 9294082179, 9294082180, 12565840260, 9242772985, 9242772986, 9242772987, 12565102171, 12828376671, 9242772988, 9242772989, 12565102170, 9242772977], "tags": {"amenity": "university", "education": "university", "name": "四川邮电职业技术学院"}}, {"type": "way", "id": 1006955907, "center": {"lat": 30.6404278, "lon": 104.0778858}, "nodes": [9289940090, 7334966821, 9289940092, 9289940093, 7334966807, 9289940090], "tags": {"amenity": "kindergarten"}}, {"type": "way", "id": 1007393018, "center": {"lat": 30.620523, "lon": 104.1188304}, "nodes": [9293744079, 9293744080, 9293744081, 9293744082, 9293744083, 9293744084, 9293744085, 9293744086, 9293744079], "tags": {"amenity": "school", "education": "school", "name": "菱窠路小学"}}, {"type": "way", "id": 1007410944, "center": {"lat": 30.6241347, "lon": 104.1173193}, "nodes": [9293949980, 12828263897, 9293949981, 12828263865, 12828263864, 9293949982, 9293949983, 9293949984, 12828263863, 12828263862, 9293949985, 9293949980], "tags": {"amenity": "hospital", "healthcare": "hospital", "name": "四川锦欣西囡妇女儿童医院(静秀院区)"}}, {"type": "way", "id": 1007715256, "center": {"lat": 30.6225264, "lon": 104.1184052}, "nodes": [9296822162, 9296822163, 9296822164, 9296822165, 9296822166, 9296822167, 9296822168, 9296822169, 9296822162], "tags": {"amenity": "police", "building": "yes", "name": "狮子山派出所", "operator": "中华人民共和国公安部", "operator:en": "Ministry of Public Security", "operator:wikidata": "Q2346285", "operator:wikipedia": "zh:中华人民共和国公安部", "operator:zh": "中华人民共和国公安部"}}, {"type": "way", "id": 1011006521, "center": {"lat": 30.6235924, "lon": 103.9988885}, "nodes": [9327501371, 9327501364, 9327501365, 9327501366, 9327501367, 9327501368, 9327501369, 9327501370, 9327501371], "tags": {"amenity": "school", "education": "school", "name": "北京第二外国语学院成都附属中学"}}, {"type": "way", "id": 1011006522, "center": {"lat": 30.6248725, "lon": 103.9975448}, "nodes": [9327501372, 9327501378, 9327501373, 9327501374, 9327501375, 9327501376, 9327501377, 9327501372], "tags": {"amenity": "school", "education": "school", "name": "北京第二外国语学院成都附属小学"}}, {"type": "way", "id": 1011006523, "center": {"lat": 30.6250023, "lon": 103.9986423}, "nodes": [9327501378, 9327501379, 9327501380, 9327501381, 9327501372, 9327501378], "tags": {"amenity": "kindergarten", "name": "北京第二外国语学院成都附属幼儿园"}}, {"type": "way", "id": 1011435257, "center": {"lat": 30.6705884, "lon": 103.981442}, "nodes": [9331912688, 9331912689, 9331912690, 9331912691, 9331912688], "tags": {"amenity": "kindergarten"}}, {"type": "way", "id": 1018719867, "center": {"lat": 30.6695973, "lon": 104.0502664}, "nodes": [9396118473, 9396118474, 9396118475, 9396118476, 9396118477, 9396118478, 9396118473], "tags": {"addr:city": "成都市", "addr:district": "青羊区", "addr:housenumber": "32", "addr:postcode": "610000", "addr:province": "四川省", "addr:street": "实业街", "amenity": "hospital", "emergency": "yes", "healthcare": "hospital", "healthcare:speciality": "paediatrics;gynaecology", "name": "成都市妇女儿童中心医院实业街院区", "operator": "成都市妇女儿童中心医院", "operator:type": "government"}}, {"type": "way", "id": 1025428420, "center": {"lat": 30.571769, "lon": 104.0183909}, "nodes": [9454760099, 9454760109, 9454760100, 9454760101, 9454760102, 4767661135, 4767658284, 4771943173, 9454760099], "tags": {"amenity": "school"}}, {"type": "way", "id": 1025729648, "center": {"lat": 30.6123728, "lon": 104.0503323}, "nodes": [9457121712, 9457121713, 9457121714, 9457121716, 9458129533, 9457121712], "tags": {"amenity": "kindergarten", "name": "紫薇幼儿园"}}, {"type": "way", "id": 1033437976, "center": {"lat": 30.6670636, "lon": 104.1165891}, "nodes": [9521250832, 5435518869, 9521250833, 9521250834, 9521250832], "tags": {"amenity": "kindergarten"}}, {"type": "way", "id": 1033678199, "center": {"lat": 30.6231468, "lon": 104.0678591}, "nodes": [9523139132, 9523139133, 9523139134, 9523139135, 10721098983, 9523139137, 10721098984, 9523139139, 9523139132], "tags": {"amenity": "hospital", "building:levels": "6", "healthcare": "hospital", "name": "棕南医院"}}, {"type": "way", "id": 1039086411, "center": {"lat": 30.6357635, "lon": 104.0145213}, "nodes": [9568890266, 9568890267, 9568890268, 9568890269, 9568890270, 9568890271, 9568890266], "tags": {"amenity": "school", "name": "成都市明远书院学校"}}, {"type": "way", "id": 1039094974, "center": {"lat": 30.6545652, "lon": 104.0293359}, "nodes": [5000837422, 9568936484, 9568936485, 9568936486, 9568936487, 9568936488, 9568936489, 9568936490, 9568936491, 9568936492, 5000837422], "tags": {"amenity": "college", "name": "成都职业技术学院（青羊校区）", "name:zh": "成都职业技术学院（青羊校区）"}}, {"type": "way", "id": 1052259982, "center": {"lat": 30.5964844, "lon": 104.1062736}, "nodes": [9670230306, 9670230307, 9670230308, 9670230309, 9670230306], "tags": {"amenity": "hospital", "healthcare": "hospital", "name": "成都锦江泰三堂德康医院"}}, {"type": "way", "id": 1052259985, "center": {"lat": 30.5954612, "lon": 104.1043753}, "nodes": [9670325922, 9670325923, 9670325924, 9670325925, 9670325922], "tags": {"amenity": "kindergarten", "education": "kindergarten", "name": "新华实验幼儿园("}}, {"type": "way", "id": 1052259987, "center": {"lat": 30.5924473, "lon": 104.095899}, "nodes": [9670325934, 9670325941, 9670325935, 10289517335, 9670325936, 10289517336, 9670325937, 9670325934], "tags": {"amenity": "school", "name": "锦江区教育科学研究院附属中学"}}, {"type": "way", "id": 1052259988, "center": {"lat": 30.5925691, "lon": 104.0947164}, "nodes": [9670325938, 9670325939, 9670325940, 9670325941, 9670325934, 9670325938], "tags": {"amenity": "school", "name": "盐道街小学锦馨分校"}}, {"type": "way", "id": 1052259989, "center": {"lat": 30.593006, "lon": 104.0936389}, "nodes": [9670325943, 9670325944, 9670325945, 9670325946, 9670325947, 9670325948, 9670325949, 9670325943], "tags": {"amenity": "kindergarten", "name": "成都市第二幼儿园锦馨园区"}}, {"type": "way", "id": 1052259992, "center": {"lat": 30.5932258, "lon": 104.1093552}, "nodes": [9670325977, 9670325978, 9670325979, 9670325980, 9670325981, 9670325977], "tags": {"amenity": "school", "name": "天涯石小学逸景分校"}}, {"type": "way", "id": 1052259997, "center": {"lat": 30.5906009, "lon": 104.1107294}, "nodes": [9670326006, 9670326007, 9670326008, 9670326009, 9670326006], "tags": {"amenity": "kindergarten", "name": "逸景幼儿园"}}, {"type": "way", "id": 1052260000, "center": {"lat": 30.5940387, "lon": 104.1095989}, "nodes": [9670326018, 9670326019, 9670326020, 9670326021, 9670326022, 9670326018], "tags": {"amenity": "kindergarten", "name": "成都市第一幼儿园逸景园区"}}, {"type": "way", "id": 1053207060, "center": {"lat": 30.5977094, "lon": 103.9927111}, "nodes": [9678901343, 9678901344, 9678901345, 9678901346, 9678901347, 10177891143, 9678901348, 10177891144, 9678901340, 9678901339, 9678901350, 9678901343], "tags": {"amenity": "school", "education": "school", "name": "成都市武侯实验中学"}}, {"type": "way", "id": 1064361490, "center": {"lat": 30.6031352, "lon": 104.0727998}, "nodes": [9775190590, 9775190591, 9775190592, 9775190598, 9775190593, 9775190594, 9775190595, 9775190596, 9775190590], "tags": {"amenity": "kindergarten", "name": "天仁幼儿园"}}, {"type": "way", "id": 1064547576, "center": {"lat": 30.6199511, "lon": 103.9848387}, "nodes": [9776813543, 9776813544, 9776813545, 9776813546, 9776813547, 10235609999, 9776813548, 9776813543], "tags": {"amenity": "school", "name": "成都市武顺街小学"}}, {"type": "way", "id": 1064741070, "center": {"lat": 30.5725902, "lon": 103.9914853}, "nodes": [9778491222, 9778491223, 9778491224, 4772029354, 4772029342, 4772029089, 4772029092, 9778491225, 9778491222], "tags": {"alt_name": "双流棠湖中学空港校区", "amenity": "school", "name": "成都信息工程大学红樱实验学校"}}, {"type": "way", "id": 1073922299, "center": {"lat": 30.6435564, "lon": 104.09352}, "nodes": [2908615487, 9850905456, 9850905457, 9850905458, 9850905459, 2908615487], "tags": {"amenity": "school", "name": "骄子小学", "wheelchair": "yes"}}, {"type": "way", "id": 1075251670, "center": {"lat": 30.6212793, "lon": 104.0276732}, "nodes": [9861577395, 9861577396, 9861577397, 9861577398, 9861577399, 9861577395], "tags": {"amenity": "police", "name": "成都市公安局轨道公交分局"}}, {"type": "way", "id": 1082550944, "center": {"lat": 30.6066699, "lon": 103.9928296}, "nodes": [9921234966, 9921234967, 10233305826, 9921234968, 9921234969, 9921234970, 9921234971, 9921234966], "tags": {"amenity": "hospital", "healthcare": "hospital", "name": "武侯区第三人民医院"}}, {"type": "way", "id": 1082810416, "center": {"lat": 30.6390434, "lon": 103.9853745}, "nodes": [9923792451, 9923792452, 9923792453, 9923792454, 9923792455, 9923792451], "tags": {"amenity": "school", "name": "成都市武侯科技园小学"}}, {"type": "way", "id": 1089046937, "center": {"lat": 30.6526606, "lon": 104.0083475}, "nodes": [9976832970, 9976832978, 9976832979, 9976832965, 9976832971, 9976832970], "tags": {"amenity": "kindergarten", "name": "成都市武侯区融汇幼儿园"}}, {"type": "way", "id": 1089046944, "center": {"lat": 30.6541754, "lon": 104.0094158}, "nodes": [9976832952, 9976833010, 9976833011, 9976833015, 9976833012, 9976833013, 9976837419, 9976833014, 9976832952], "tags": {"amenity": "kindergarten", "name": "龙腾幼稚园"}}, {"type": "way", "id": 1089046949, "center": {"lat": 30.6511863, "lon": 104.0068718}, "nodes": [9976837439, 9976837433, 9976837434, 9976837441, 9976837440, 9976837439], "tags": {"amenity": "hospital", "healthcare": "hospital", "name": "成都武侯三松德森医院"}}, {"type": "way", "id": 1089046950, "center": {"lat": 30.6514478, "lon": 104.0082375}, "nodes": [9976837430, 9976837442, 9976837443, 9976837444, 9976837445, 9976837437, 9976837427, 9976837428, 9976837436, 9976837435, 9976837429, 9976837430], "tags": {"amenity": "hospital", "healthcare": "hospital", "name": "成都市疾病预防控制中心"}}, {"type": "way", "id": 1089046960, "center": {"lat": 30.6529036, "lon": 104.0115139}, "nodes": [9976837494, 9976837500, 9976837501, 9976837502, 9976837503, 9976837507, 9976837495, 9976837494], "tags": {"amenity": "hospital", "healthcare": "hospital", "name": "成都武侯尼斯铂尚医疗美容门诊部"}}, {"type": "way", "id": 1089046973, "center": {"lat": 30.6525825, "lon": 104.0203182}, "nodes": [9976837578, 9976837579, 9976837577, 9976837580, 9976837581, 9976837578], "tags": {"amenity": "hospital", "healthcare": "hospital", "name": "四川奥斯迪康骨医院"}}, {"type": "way", "id": 1089046982, "center": {"lat": 30.652642, "lon": 104.0165713}, "nodes": [9976837602, 9976837613, 9976837603, 9976837604, 9976837605, 9976837606, 9976837607, 9976837602], "tags": {"amenity": "school", "name": "四川大学附属实验小学西区"}}, {"type": "way", "id": 1089046986, "center": {"lat": 30.6516334, "lon": 104.0189319}, "nodes": [9976837622, 9976837626, 9976837627, 9976837628, 9976837619, 9976837620, 9976837621, 9976837622], "tags": {"amenity": "police", "name": "成都市国家安全局"}}, {"type": "way", "id": 1089046996, "center": {"lat": 30.6494846, "lon": 104.0072545}, "nodes": [9976837695, 9976837696, 9976837693, 9976837694, 9976837695], "tags": {"amenity": "kindergarten", "name": "凯星幼儿园（国际园）"}}, {"type": "way", "id": 1089046997, "center": {"lat": 30.6500102, "lon": 104.0078005}, "nodes": [9976837696, 9976837697, 9976837698, 9976837699, 9976837703, 9976837700, 9976837695, 9976837696], "tags": {"amenity": "school", "name": "成都市龙祥路小学"}}, {"type": "way", "id": 1089047003, "center": {"lat": 30.6460227, "lon": 104.0131306}, "nodes": [9976837739, 9976837740, 9976837741, 9976837738, 9976837739], "tags": {"amenity": "police", "name": "红牌楼派出所"}}, {"type": "way", "id": 1089047004, "center": {"lat": 30.6460694, "lon": 104.0134737}, "nodes": [9976837735, 9976837742, 9976837743, 9976837740, 9976837739, 9976837737, 9976837736, 9976837735], "tags": {"amenity": "kindergarten", "name": "迪赛尔博幼稚园"}}, {"type": "way", "id": 1089047005, "center": {"lat": 30.6456247, "lon": 104.0132883}, "nodes": [9976837744, 9976837745, 9976837746, 9976837747, 9976837732, 9976837748, 9976837744], "tags": {"amenity": "kindergarten", "name": "成都市武侯区第二十六幼儿园"}}, {"type": "way", "id": 1089047012, "center": {"lat": 30.646878, "lon": 104.0175743}, "nodes": [9976837784, 9976837788, 9976837789, 9976837790, 9976837791, 9976837786, 9976837787, 9976837784], "tags": {"amenity": "school", "name": "成都市棕北中学西区（小学部）"}}, {"type": "way", "id": 1089047022, "center": {"lat": 30.6444935, "lon": 104.0174393}, "nodes": [9976837838, 9976837839, 9976837840, 9976837841, 9976837842, 9976837843, 9976837847, 9976837844, 9976837845, 9976837846, 9976837838], "tags": {"amenity": "school", "name": "棕北中学西区实验学校"}}, {"type": "way", "id": 1089047032, "center": {"lat": 30.6428591, "lon": 104.0147875}, "nodes": [9976837891, 9976837894, 9976837895, 9976837887, 9976837888, 9976837889, 9976837890, 9976837891], "tags": {"amenity": "kindergarten", "name": "武侯区第二十四幼儿园（双丰东路校区）"}}, {"type": "way", "id": 1089047036, "center": {"lat": 30.6404588, "lon": 104.0125928}, "nodes": [9976837925, 9976837926, 9976837927, 9976837928, 9976837929, 9976837930, 9976837931, 9976837932, 9976837933, 9976837925], "tags": {"amenity": "kindergarten", "name": "双丰实验幼稚园"}}, {"type": "way", "id": 1090550402, "center": {"lat": 30.5977454, "lon": 103.9858423}, "nodes": [9988797933, 9988797934, 9988797935, 10177891067, 9988797936, 9988797933], "tags": {"amenity": "school", "name": "成都市武侯实验中学附属小学"}}, {"type": "way", "id": 1095087924, "center": {"lat": 30.6472813, "lon": 104.0284353}, "nodes": [10028898686, 10028898687, 10028898688, 10028898689, 10028898690, 10028898691, 10028898692, 10028898693, 10028898686], "tags": {"amenity": "school", "name": "成都石室双楠实验学校"}}, {"type": "way", "id": 1095087946, "center": {"lat": 30.6509296, "lon": 104.0260757}, "nodes": [10028898823, 10028898824, 10028898825, 10028898826, 10028898823], "tags": {"amenity": "school", "name": "成都市武侯实验小学"}}, {"type": "way", "id": 1095087973, "center": {"lat": 30.641362, "lon": 104.0283855}, "nodes": [10028898950, 10028898952, 10028898953, 10028898951, 10028898950], "tags": {"amenity": "kindergarten", "name": "成都市第十幼儿园（碧云园区）"}}, {"type": "way", "id": 1095087986, "center": {"lat": 30.6483335, "lon": 104.0219588}, "nodes": [10028898976, 10028898997, 10028898998, 10028898820, 10028898982, 10028898981, 10028898977, 10028898976], "tags": {"amenity": "kindergarten", "name": "成都市第十幼儿园（广厦园区）"}}, {"type": "way", "id": 1101640547, "center": {"lat": 30.5780412, "lon": 103.9832662}, "nodes": [10081239911, 10081239912, 10081239913, 10081239914, 10081239915, 10081239916, 10081268817, 10081268818, 10081239911], "tags": {"amenity": "school", "name": "翰林学校"}}, {"type": "way", "id": 1101645070, "center": {"lat": 30.5963805, "lon": 103.9858964}, "nodes": [10081296652, 10081296653, 10081296654, 10177891070, 10081296655, 10081296652], "tags": {"amenity": "kindergarten", "name": "武侯区第一幼儿园"}}, {"type": "way", "id": 1101647239, "center": {"lat": 30.671945, "lon": 103.980537}, "nodes": [10081305246, 10081305247, 10081305248, 10081305249, 10081305250, 10081305246], "tags": {"alt_name": "青羊区第九人民医院", "amenity": "hospital", "healthcare": "hospital", "name": "苏坡社区卫生服务中心"}}, {"type": "way", "id": 1102757100, "center": {"lat": 30.6181884, "lon": 104.1115788}, "nodes": [10091229031, 10091229032, 10091229033, 10091229034, 10091229035, 10091229036, 10091229037, 10091217241, 10127563074, 9867882925, 10091229038, 10091229031], "tags": {"amenity": "school", "education": "school"}}, {"type": "way", "id": 1102757101, "center": {"lat": 30.6178229, "lon": 104.1121198}, "nodes": [10091229039, 10091229040, 10091229041, 10091229042, 10091229043, 10091229039], "tags": {"amenity": "kindergarten", "education": "kindergarten", "name": "树基幼儿园"}}, {"type": "way", "id": 1103212708, "center": {"lat": 30.6178624, "lon": 104.0219719}, "nodes": [10095545806, 10095545807, 10095545808, 10095545809, 10095545810, 10095545806], "tags": {"amenity": "school", "name": "北京第二外国语学院成都附属小学北区学校"}}, {"type": "way", "id": 1103212710, "center": {"lat": 30.6184121, "lon": 104.0234067}, "nodes": [10095567018, 10095567019, 10095567020, 10095567021, 10095567018], "tags": {"amenity": "kindergarten", "name": "成都市武侯区第七幼儿园"}}, {"type": "way", "id": 1103845942, "center": {"lat": 30.62613, "lon": 103.9814794}, "nodes": [10101126193, 10101126194, 10101126206, 10101126203, 10101126195, 10101126196, 10101126197, 10101126198, 10101126199, 10101126193], "tags": {"amenity": "hospital", "healthcare": "hospital", "name": "米诺娃妇女儿童医院", "operator": "米诺娃国际医院管理有限公司", "operator:type": "private"}}, {"type": "way", "id": 1106159399, "center": {"lat": 30.5790481, "lon": 103.9829423}, "nodes": [10121691612, 10121691613, 10121691614, 10121691615, 10121691612], "tags": {"amenity": "kindergarten", "name": "睿嘉幼儿园"}}, {"type": "way", "id": 1106159411, "center": {"lat": 30.5796749, "lon": 103.9803008}, "nodes": [10121752567, 10121752548, 10121752547, 10121752571, 10121752568, 10121752569, 10121752570, 10121752567], "tags": {"alt_name": "双流棠湖中学空港校区", "amenity": "school", "name": "成都信息工程大学实验学校"}}, {"type": "way", "id": 1107971085, "center": {"lat": 30.6328294, "lon": 103.9855861}, "nodes": [10137800346, 10137800347, 10137800348, 10137800343, 10137800344, 10137800345, 10137800346], "tags": {"amenity": "kindergarten", "name": "爱菲儿幼儿园"}}, {"type": "way", "id": 1107971097, "center": {"lat": 30.6325019, "lon": 103.986779}, "nodes": [10137800412, 10137800413, 10137800414, 10137800415, 10137800416, 10137800412], "tags": {"amenity": "kindergarten", "name": "恩贝斯幼稚园"}}, {"type": "way", "id": 1107971105, "center": {"lat": 30.6343812, "lon": 103.9919814}, "nodes": [10137800438, 10137800439, 10137800440, 10137800441, 10137800442, 10137800438], "tags": {"amenity": "hospital", "healthcare": "hospital", "name": "四川现代医院（武侯院区）"}}, {"type": "way", "id": 1107971113, "center": {"lat": 30.6361009, "lon": 103.9903267}, "nodes": [10137800471, 10137800477, 10137800480, 10137800482, 10137800481, 10137800476, 10137800472, 10137800471], "tags": {"amenity": "kindergarten", "name": "成都市第二十一幼儿园"}}, {"type": "way", "id": 1112295237, "center": {"lat": 30.6107509, "lon": 103.9831147}, "nodes": [10175976588, 10175976589, 10175976590, 10175976591, 10175976592, 10175976593, 10175976588], "tags": {"amenity": "school", "name": "成都市龙江路小学（新城分校）"}}, {"type": "way", "id": 1112295238, "center": {"lat": 30.6115361, "lon": 103.9828724}, "nodes": [10175976588, 10175976594, 10175976595, 10175976596, 10175976597, 10175976589, 10175976588], "tags": {"amenity": "kindergarten", "name": "成都市第二十三幼儿园"}}, {"type": "way", "id": 1112295243, "center": {"lat": 30.6038905, "lon": 103.9808622}, "nodes": [7002615296, 10175976635, 10175976636, 10175976637, 10175976638, 10175976639, 7002615296], "tags": {"amenity": "school", "name": "成都武侯外国语学校"}}, {"type": "way", "id": 1112295252, "center": {"lat": 30.6057811, "lon": 103.9845388}, "nodes": [10175976669, 10175976692, 10175976670, 10175976671, 10175976672, 10175976673, 10175976674, 10175976675, 10175976676, 10175976677, 10175976678, 10175976679, 10175976683, 10175976682, 10175976684, 10175976685, 10175976680, 10175976681, 10175976669], "tags": {"alt_name": "成都市武侯区西川实验学校", "amenity": "school", "name": "西川中学（南区）"}}, {"type": "way", "id": 1112453709, "center": {"lat": 30.5984973, "lon": 103.9825225}, "nodes": [10081296662, 10177873495, 10177891063, 10177891064, 4550701341, 4550701342, 10177891009, 10177873494, 10081296662], "tags": {"amenity": "school", "education": "school", "name": "成都城投领川外国语学校"}}, {"type": "way", "id": 1112453728, "center": {"lat": 30.5996906, "lon": 103.9901621}, "nodes": [10776055340, 10776055341, 10776055342, 10177891174, 10177891175, 10177891176, 10177891177, 10776055338, 10776055340], "tags": {"amenity": "kindergarten", "name": "锦城爱贝幼儿园"}}, {"type": "way", "id": 1115743002, "center": {"lat": 30.5730397, "lon": 103.9966025}, "nodes": [10204188230, 10204188231, 10204188253, 10204188232, 10204188233, 10204188230], "tags": {"amenity": "kindergarten", "name": "机场路幼儿园"}}, {"type": "way", "id": 1117589130, "center": {"lat": 30.6743491, "lon": 104.0182995}, "nodes": [10221424467, 10221424464, 10221424463, 10221424470, 10221424467], "tags": {"amenity": "university", "name": "成都市职工大学"}}, {"type": "way", "id": 1117816550, "center": {"lat": 30.6478454, "lon": 103.9845006}, "nodes": [10223587883, 10223587884, 10223587885, 10223587886, 10223587883], "tags": {"amenity": "kindergarten", "name": "圣宝宝幼儿园"}}, {"type": "way", "id": 1117816558, "center": {"lat": 30.6474439, "lon": 103.9892733}, "nodes": [10223587918, 10223587919, 10223587909, 10223587920, 10223587918], "tags": {"amenity": "kindergarten", "name": "成都市第三十八幼儿园"}}, {"type": "way", "id": 1117816566, "center": {"lat": 30.6448467, "lon": 103.9927571}, "nodes": [10223587955, 10223587960, 10223587952, 10223587953, 10223587954, 10223587955], "tags": {"amenity": "kindergarten", "name": "弗奇尼国际幼儿园"}}, {"type": "way", "id": 1117816578, "center": {"lat": 30.6396554, "lon": 103.997327}, "nodes": [10223588020, 10223588026, 10223588027, 10223588028, 10223588029, 10223588025, 10223588020], "tags": {"amenity": "school"}}, {"type": "way", "id": 1117816579, "center": {"lat": 30.6384006, "lon": 103.9995339}, "nodes": [10223588030, 10223588031, 10223588032, 10223588033, 5269982137, 10223588030], "tags": {"amenity": "kindergarten", "name": "成都市麦可蕊幼稚园"}}, {"type": "way", "id": 1117816580, "center": {"lat": 30.6386273, "lon": 104.000084}, "nodes": [10223588031, 10223588034, 10223588035, 8882930784, 10223588030, 10223588031], "tags": {"amenity": "police", "name": "簇锦派出所"}}, {"type": "way", "id": 1118384050, "center": {"lat": 30.6706162, "lon": 104.0019991}, "nodes": [10228579937, 10228579950, 10228579958, 10228579935, 10228579936, 10228579937], "tags": {"amenity": "hospital", "healthcare": "hospital", "name": "成都满地可医院"}}, {"type": "way", "id": 1118384052, "center": {"lat": 30.6715914, "lon": 104.0024477}, "nodes": [10228579961, 10228579960, 10228579963, 10228579930, 10228579931, 10228579932, 10228579933, 10228579934, 10228579962, 10228579961], "tags": {"amenity": "kindergarten", "name": "百纪金春博瑞艺星幼稚园"}}, {"type": "way", "id": 1118384058, "center": {"lat": 30.6705501, "lon": 103.994703}, "nodes": [10228579987, 10228579988, 10228579989, 10228579990, 10228579991, 10228579992, 10228579993, 10228579987], "tags": {"amenity": "school", "name": "成都市青羊实验中学附属小学"}}, {"type": "way", "id": 1118384068, "center": {"lat": 30.6711632, "lon": 103.9886705}, "nodes": [10228580020, 10228580021, 10228580026, 10228580027, 10228580019, 10228580020], "tags": {"amenity": "kindergarten", "name": "成都青羊幼师境界实验幼儿园"}}, {"type": "way", "id": 1118384070, "center": {"lat": 30.6714691, "lon": 103.987216}, "nodes": [10228580028, 10228580034, 10228580035, 10228580036, 10228580037, 10228580038, 10228580039, 10228580040, 10228580028], "tags": {"amenity": "school", "name": "泡桐树小学（境界校区）"}}, {"type": "way", "id": 1118654976, "center": {"lat": 30.6680863, "lon": 103.9863266}, "nodes": [10230995114, 6781070488, 10231020119, 10230995115, 10230995114], "tags": {"amenity": "police", "name": "东坡派出所"}}, {"type": "way", "id": 1118654991, "center": {"lat": 30.665092, "lon": 103.9943034}, "nodes": [10231020212, 10231020222, 10231020223, 10231020224, 10231020225, 10231020212], "tags": {"amenity": "school", "name": "成都市泡桐树小学（西区分校A区）"}}, {"type": "way", "id": 1118654996, "center": {"lat": 30.6615387, "lon": 103.9942633}, "nodes": [10231020242, 10231020247, 10231020252, 10231020251, 10231020242], "tags": {"amenity": "kindergarten", "name": "美亚蒙特梭利幼儿园（东坡国际园店）"}}, {"type": "way", "id": 1118654997, "center": {"lat": 30.6673961, "lon": 103.9930787}, "nodes": [10231020260, 10231020261, 10231020262, 10231020263, 10231020260], "tags": {"amenity": "kindergarten", "name": "成都市泡桐树幼儿园"}}, {"type": "way", "id": 1118654998, "center": {"lat": 30.6665905, "lon": 103.9930387}, "nodes": [10231020261, 10231020279, 10231020264, 10231020265, 10231020270, 10231020266, 10231020262, 10231020261], "tags": {"amenity": "school", "name": "成都市泡桐树小学（西区）"}}, {"type": "way", "id": 1118655019, "center": {"lat": 30.6672599, "lon": 103.9983734}, "nodes": [10231020364, 10231020365, 12579215775, 10231020366, 10231020361, 10231020364], "tags": {"amenity": "school", "name": "四川省粮食干部学校"}}, {"type": "way", "id": 1118655022, "center": {"lat": 30.6668582, "lon": 104.0005781}, "nodes": [10231020384, 10231020387, 10231020388, 10231020389, 10231020390, 10231020391, 10231020392, 10231020393, 10231020394, 10231020377, 10231020378, 10231020379, 10231020380, 10231020381, 10231020382, 10231020383, 10231020384], "tags": {"amenity": "school", "name": "青羊实验中学（优品道校区）"}}, {"type": "way", "id": 1118655027, "center": {"lat": 30.6677724, "lon": 104.0014793}, "nodes": [5628695302, 10231020416, 10231020417, 5628695300, 5628695301, 5628695302], "tags": {"amenity": "kindergarten", "name": "紫领宝幼儿园（优品道校区号）"}}, {"type": "way", "id": 1118903508, "center": {"lat": 30.6714405, "lon": 104.0094722}, "nodes": [10233039778, 10233039779, 10233039780, 10233039781, 10233039782, 10233039783, 10233039784, 10233039785, 10233039778], "tags": {"amenity": "kindergarten", "name": "西南财经大学第二幼儿园"}}, {"type": "way", "id": 1118903539, "center": {"lat": 30.6688884, "lon": 104.0186152}, "nodes": [10233040478, 10233040480, 10233040466, 10233040467, 10233040468, 10233040469, 10233040470, 10233040479, 10233040478], "tags": {"amenity": "hospital", "healthcare": "hospital", "name": "成都爱迪眼科医院"}}, {"type": "way", "id": 1118903543, "center": {"lat": 30.6673522, "lon": 104.0179047}, "nodes": [10233040495, 10233040500, 10233040501, 10233040502, 10233040497, 10233040496, 10233040495], "tags": {"amenity": "kindergarten", "name": "成都市实验小学附属幼儿园（文苑园区）"}}, {"type": "way", "id": 1119167571, "center": {"lat": 30.6254232, "lon": 103.9853184}, "nodes": [10235576073, 9272393151, 9272393150, 10235576092, 10235576093, 10235576080, 10235576079, 10235576078, 10235576077, 10235576076, 10235576075, 10235576074, 10235576073], "tags": {"amenity": "school", "name": "中国农业银行四川省分行党校"}}, {"type": "way", "id": 1119167582, "center": {"lat": 30.6257412, "lon": 103.9911271}, "nodes": [10235609732, 10235609733, 10235609734, 10235609735, 10235609736, 10235609732], "tags": {"amenity": "kindergarten", "education": "kindergarten", "name": "成都市武侯区第五幼儿园"}}, {"type": "way", "id": 1119167607, "center": {"lat": 30.6243202, "lon": 104.0039189}, "nodes": [10235609881, 10235609882, 10235609883, 10235609884, 10235609881], "tags": {"amenity": "kindergarten", "education": "kindergarten", "name": "成都市武侯区第十九幼儿园"}}, {"type": "way", "id": 1119167619, "center": {"lat": 30.6215196, "lon": 103.9894834}, "nodes": [10235609978, 10235609993, 10235609981, 10235609980, 10235609979, 10235609978], "tags": {"amenity": "kindergarten", "name": "成都市武侯区第六幼儿园"}}, {"type": "way", "id": 1119167621, "center": {"lat": 30.619078, "lon": 103.984873}, "nodes": [10235609996, 10235609997, 10235609998, 9776813548, 10235609999, 10235610000, 10235610001, 10235609996], "tags": {"amenity": "kindergarten", "name": "金太阳国际新城幼儿园"}}, {"type": "way", "id": 1125188496, "center": {"lat": 30.5807879, "lon": 104.0734984}, "nodes": [10289484257, 10289484258, 10289484259, 10289484260, 10289484261, 10289484262, 10289484263, 10289484264, 10289484257], "tags": {"amenity": "school", "name": "成都高新区锦晖小学（金融城分校）"}}, {"type": "way", "id": 1125188499, "center": {"lat": 30.5811254, "lon": 104.0722929}, "nodes": [10289484269, 10289484270, 10289484271, 10289484272, 10289484269], "tags": {"amenity": "kindergarten", "name": "成都高新金融城幼儿园"}}, {"type": "way", "id": 1126464325, "center": {"lat": 30.6450849, "lon": 104.0031116}, "nodes": [10300407208, 10300407209, 10300407210, 10300407211, 10300407212, 10300407213, 10300407208], "tags": {"alt_name": "成都市第二十幼儿园（吉福园区）", "amenity": "kindergarten", "name": "成都市武侯区第十三幼儿园"}}, {"type": "way", "id": 1126464328, "center": {"lat": 30.6444361, "lon": 104.0032444}, "nodes": [10300407209, 10300407246, 10300407241, 10300407210, 10300407209], "tags": {"amenity": "police", "name": "晋阳派出所"}}, {"type": "way", "id": 1126464329, "center": {"lat": 30.6440702, "lon": 104.0056714}, "nodes": [10300407247, 10300407248, 10300407249, 10300407250, 10300407251, 10300407252, 10300407253, 10300407254, 10300407255, 10300407256, 10300407257, 10300407258, 10300407259, 10300407267, 10300407268, 10300407269, 10300407271, 10300407272, 10300407270, 10300407260, 10300407273, 10300407261, 10300407276, 10300407279, 10300407278, 10300407277, 10300407275, 10300407280, 10300407274, 10300407262, 10300407263, 10300407264, 10300407282, 10300407265, 10300407266, 10300407247], "tags": {"amenity": "school", "name": "成都市磨子桥小学分校"}}, {"type": "way", "id": 1126464330, "center": {"lat": 30.6434937, "lon": 104.0053647}, "nodes": [10300407280, 10300407281, 10300407282, 10300407264, 10300407263, 10300407262, 10300407274, 10300407280], "tags": {"amenity": "kindergarten", "name": "成都卓乐幼稚园"}}, {"type": "way", "id": 1126486150, "center": {"lat": 30.5888629, "lon": 104.0700015}, "nodes": [10300603052, 10300603053, 4770541986, 4770541988, 10300603056, 10300603052], "tags": {"amenity": "kindergarten", "name": "成都高新区交子幼儿园"}}, {"type": "way", "id": 1126486155, "center": {"lat": 30.5946888, "lon": 104.0791923}, "nodes": [10300603072, 10300603073, 10300603074, 10300603075, 10300603076, 10300603077, 10300603072], "tags": {"amenity": "kindergarten", "name": "锦绣幼儿园"}}, {"type": "way", "id": 1126486157, "center": {"lat": 30.5977427, "lon": 104.0722002}, "nodes": [4699359082, 10300603080, 10300603081, 4699359081, 4699360005, 4699359082], "tags": {"amenity": "kindergarten", "name": "高新区天府春晓幼儿园"}}, {"type": "way", "id": 1154448412, "center": {"lat": 30.6712682, "lon": 104.020962}, "nodes": [10736561513, 10736561517, 10736561518, 10736561519, 10736561514, 10736561513], "tags": {"amenity": "kindergarten", "name": "青羊区天府幼儿园（鸣翠分园）"}}, {"type": "way", "id": 1154448423, "center": {"lat": 30.6691835, "lon": 104.021914}, "nodes": [10736561570, 10736561571, 10736561572, 10736561573, 10736561574, 10736561568, 10736561555, 10736561570], "tags": {"amenity": "kindergarten", "name": "成都音乐幼儿园"}}, {"type": "way", "id": 1154448425, "center": {"lat": 30.6683691, "lon": 104.0204393}, "nodes": [10736561580, 10736561581, 10736561582, 10736561583, 10736561566, 10736561565, 10736561564, 10736561580], "tags": {"amenity": "kindergarten", "name": "联谊嘉尚幼稚园"}}, {"type": "way", "id": 1157443197, "center": {"lat": 30.5741451, "lon": 103.9982745}, "nodes": [10763909346, 10763909347, 10763909348, 10763909349, 10763909346], "tags": {"amenity": "school", "name": "蓝港外国语学校"}}, {"type": "way", "id": 1163035786, "center": {"lat": 30.6745624, "lon": 103.9802926}, "nodes": [6271860822, 6271860817, 10816365386, 6271860821, 6271860822], "tags": {"amenity": "kindergarten", "name": "成都市泡桐树幼儿园（中鹏分园）"}}, {"type": "way", "id": 1178571144, "center": {"lat": 30.6279332, "lon": 104.0225461}, "nodes": [10967877016, 10948887980, 10948887981, 10948887982, 10967877016], "tags": {"addr:city": "成都市", "addr:district": "武侯区", "addr:province": "四川省", "addr:street": "核桃堰路与长益西二路交叉口", "amenity": "kindergarten", "name": "成都市武侯区第四十九幼儿园"}}, {"type": "way", "id": 1236755874, "center": {"lat": 30.6502715, "lon": 104.0784247}, "nodes": [11484307133, 11484307134, 11484307135, 11484307136, 11484307137, 11484307138, 11484307139, 11484307133], "tags": {"amenity": "college", "name": "四川省成都市礼仪职业中学"}}, {"type": "way", "id": 1236755875, "center": {"lat": 30.649224, "lon": 104.0781128}, "nodes": [11484307140, 11507998266, 11507998267, 11484307141, 11484307142, 11484307143, 11484307140], "tags": {"amenity": "school", "name": "成都七中育才学道街分校"}}, {"type": "way", "id": 1236765495, "center": {"lat": 30.6505474, "lon": 104.0889595}, "nodes": [11484495951, 11484495952, 11484495953, 11484495954, 11484495955, 11484495956, 11484495951], "tags": {"amenity": "school", "name": "成都市第十七中学"}}, {"type": "way", "id": 1237513898, "center": {"lat": 30.6024069, "lon": 104.1171748}, "nodes": [9670326029, 11494315473, 11494315474, 11494315475, 11494315476, 11494315477, 11494315478, 11494315479, 9670326032, 9670326028, 9670326029], "tags": {"amenity": "school", "education": "school", "name": "七中育才学校华兴分校"}}, {"type": "way", "id": 1237513899, "center": {"lat": 30.6035566, "lon": 104.1166492}, "nodes": [9670326032, 9670326040, 11494315480, 11494315481, 11494315479, 9670326032], "tags": {"amenity": "school", "education": "school", "name": "锦江区东华小学"}}, {"type": "way", "id": 1237513900, "center": {"lat": 30.6047558, "lon": 104.1187005}, "nodes": [11494315472, 11494315484, 11494315485, 9670326045, 11494315472], "tags": {"amenity": "kindergarten", "education": "kindergarten", "name": "锦江区华兴幼儿园"}}, {"type": "way", "id": 1237513912, "center": {"lat": 30.6028417, "lon": 104.1089749}, "nodes": [5759988542, 11494315550, 11494315551, 11494315552, 11494315553, 11494315554, 11494315555, 11494315556, 11494315557, 11494315558, 11494315559, 11494315560, 11494315561, 11494315562, 11494315563, 11494315564, 11494315571, 6328459395, 6328459393, 11494315572, 6328459392, 6328459391, 11494315565, 11494315566, 11494315567, 11494315568, 11494315569, 11494315570, 5759988542], "tags": {"amenity": "college", "education": "college", "name": "成都华大医药卫生学校"}}, {"type": "way", "id": 1237513913, "center": {"lat": 30.6008719, "lon": 104.1026164}, "nodes": [11494315573, 11494315574, 11494315575, 11494315576, 11494315577, 10298181337, 10298181336, 11494315578, 11494315579, 10298181335, 11494315573], "tags": {"amenity": "school", "education": "school", "name": "四川师大附中锦华分校"}}, {"type": "way", "id": 1238629022, "center": {"lat": 30.6337281, "lon": 104.0932894}, "nodes": [11506153307, 11506153308, 11506153309, 11506153310, 11506153311, 11506153312, 11506153313, 11506153314, 11506153315, 11506153316, 11506153317, 11506153318, 11506153319, 11506153320, 11506153321, 11506153307], "tags": {"amenity": "school", "education": "school", "name": "成都市田家炳中学"}}, {"type": "way", "id": 1238792166, "center": {"lat": 30.6517331, "lon": 104.0756018}, "nodes": [11508012338, 11508012339, 11508012340, 11508012341, 11508012342, 11508012343, 11508012344, 11508012338], "tags": {"amenity": "school", "name": "龙王庙正街小学"}}, {"type": "way", "id": 1252702038, "center": {"lat": 30.6791636, "lon": 104.035889}, "nodes": [11643966920, 11643966921, 11643966922, 12809939022, 11643966923, 11643966920], "tags": {"amenity": "school", "name": "抚琴小学"}}, {"type": "way", "id": 1252702039, "center": {"lat": 30.6766675, "lon": 104.0352369}, "nodes": [11643966924, 11643966925, 11643966926, 11643966927, 11643966928, 11643966929, 11643966930, 11643966931, 11643966924], "tags": {"amenity": "school", "name": "成都金牛实验中学"}}, {"type": "way", "id": 1252702040, "center": {"lat": 30.6761217, "lon": 104.0359976}, "nodes": [11643966932, 11643966933, 11643966934, 11643966935, 11643966932], "tags": {"amenity": "kindergarten", "name": "小燕子幼儿园"}}, {"type": "way", "id": 1252900001, "center": {"lat": 30.645481, "lon": 104.0669042}, "nodes": [11645848034, 11645848033, 11645848036, 11645848035, 11645848034], "tags": {"amenity": "kindergarten", "name": "川大华西幼儿园"}}, {"type": "way", "id": 1252900004, "center": {"lat": 30.6456744, "lon": 104.0690256}, "nodes": [11645848051, 11645848052, 11645848047, 11645848054, 11645848055, 11645848056, 11645848039, 11645848046, 11645848051], "tags": {"amenity": "school", "name": "金苹果龙南小学"}}, {"type": "way", "id": 1256793074, "center": {"lat": 30.6715159, "lon": 104.0584303}, "nodes": [5451165786, 11684002028, 11684002029, 11684002030, 5451165786], "tags": {"amenity": "school", "name": "东城根街小学（A区）"}}, {"type": "way", "id": 1258748213, "center": {"lat": 30.6624324, "lon": 104.0512645}, "nodes": [11701408556, 11701408557, 11701408558, 11701408559, 11707882782, 11708912834, 11707882781, 11708912832, 11708912831, 11708912830, 11707882780, 11707882779, 11701408560, 11701408556], "tags": {"addr:housenumber": "11、12", "addr:street": "横小南街", "amenity": "school", "name": "成都胜西小学"}}, {"type": "way", "id": 1259323857, "center": {"lat": 30.665498, "lon": 104.0499459}, "nodes": [5623984506, 11707868615, 11707868616, 11707868617, 11707868618, 11846067232, 11846067231, 11707868619, 11707868620, 5623984506], "tags": {"amenity": "school", "name": "成都市树德协进中学"}}, {"type": "way", "id": 1259323870, "center": {"lat": 30.6608296, "lon": 104.0507379}, "nodes": [11707882783, 11707882784, 11707882785, 11707882786, 11707882787, 11707882788, 11707882789, 11707882790, 11707882791, 11707882792, 11707882793, 11707882783], "tags": {"amenity": "school", "name": "石室联合中学蜀华分校"}}, {"type": "way", "id": 1259747047, "center": {"lat": 30.6596403, "lon": 104.050616}, "nodes": [11711639368, 11711639367, 11711659046, 11711659047, 11711659048, 11711659049, 11711659050, 11711659051, 11711659052, 11711658970, 11711658969, 11711639368], "tags": {"amenity": "hospital", "healthcare": "hospital", "name": "新世纪妇儿医院"}}, {"type": "way", "id": 1261916502, "center": {"lat": 30.6619508, "lon": 104.0494104}, "nodes": [11725189153, 11725189154, 11725189155, 11725189156, 11725189157, 11725189158, 11725189159, 11725189160, 11725189153], "tags": {"addr:housenumber": "36", "addr:street": "蜀华街", "amenity": "kindergarten", "name": "红衫里仁幼儿园"}}, {"type": "way", "id": 1263166729, "center": {"lat": 30.6731042, "lon": 104.0672596}, "nodes": [11736342706, 11736342707, 11736342708, 11736342709, 11736342710, 11736342711, 11778481572, 11736342712, 11736342713, 11736342714, 11736342715, 11736342716, 11736342717, 11736342718, 11736342719, 11736342720, 11736342706], "tags": {"addr:city": "成都市", "addr:district": "青羊区", "addr:housenumber": "136", "addr:province": "四川省", "addr:street": "新华大道文武路", "amenity": "police", "name": "成都市公安局", "name:zh": "成都市公安局"}}, {"type": "way", "id": 1263170252, "center": {"lat": 30.6145264, "lon": 104.1179968}, "nodes": [11736402390, 11736402391, 11736402392, 11736402393, 11736402394, 11736402395, 11736402396, 11736402397, 11736402398, 11736402399, 11736402400, 11736402401, 11736402402, 11736402403, 11736402404, 11736402405, 11736402407, 8642297169, 8642297172, 8642297170, 11736377367, 11736377368, 11736402372, 11736402374, 11736402373, 11736402371, 11736402377, 11736402370, 11736402376, 11736402369, 11736402375, 8642297174, 11736402390], "tags": {"amenity": "school", "education": "school", "name": "四川师范大学附属实验学校"}}, {"type": "way", "id": 1263222332, "center": {"lat": 30.6416661, "lon": 104.062998}, "nodes": [4794975951, 11736786321, 11736786323, 11736786324, 11736786325, 11736786322, 4794975944, 4794975951], "tags": {"addr:city": "成都市", "addr:district": "武侯区", "addr:housenumber": "20", "addr:province": "四川省", "addr:street": "人民南路三段", "alt_name": "四川大学华西妇产儿童医院", "alt_name:en": "West China Women’s and Children’s Hospital, Sichuan University", "alt_name:zh": "四川大学华西妇产儿童医院", "amenity": "hospital", "emergency": "yes", "healthcare": "hospital", "name": "华西第二医院", "name:en": "No.2 West China Teaching Hospital", "name:zh": "华西第二医院", "official_name": "四川大学华西第二医院", "official_name:en": "No.2 West China Teaching Hospital, Sichuan University", "official_name:zh": "四川大学华西第二医院", "operator": "四川大学华西医学中心", "operator:type": "university"}}, {"type": "way", "id": 1268170231, "center": {"lat": 30.6747741, "lon": 104.0677592}, "nodes": [11778481507, 11778481508, 11778481509, 11778481510, 11778481511, 11778481512, 11778481513, 11778481507], "tags": {"addr:city": "成都市", "addr:district": "青羊区", "addr:housenumber": "153", "addr:province": "四川省", "addr:street": "新华大道文武路", "amenity": "police", "name": "成都市公安局", "name:zh": "成都市公安局"}}, {"type": "way", "id": 1270657192, "center": {"lat": 30.676031, "lon": 104.0643488}, "nodes": [11514143684, 11799972695, 11799972696, 11799972697, 11799972698, 12811611347, 11167157116, 11167157115, 6576061547, 11514143682, 11514143683, 11514143684], "tags": {"amenity": "police", "name": "成都市公安局青羊区分局", "name:zh": "成都市公安局青羊区分局", "short_name": "青羊公安"}}, {"type": "way", "id": 1271182262, "center": {"lat": 30.674858, "lon": 104.0857428}, "nodes": [11804921784, 11804921783, 11804921798, 11804921799, 11804921806, 11804921784], "tags": {"amenity": "hospital", "healthcare": "hospital", "name": "四川省建筑医院"}}, {"type": "way", "id": 1272169033, "center": {"lat": 30.6750184, "lon": 104.0634802}, "nodes": [11813420756, 11813420757, 11813420758, 11813420759, 11813420760, 11813420761, 11813420762, 11813420763, 11813420764, 11813420765, 11813420766, 11813420767, 11813420768, 11813420769, 11813420770, 11813420771, 11813420772, 11813420783, 11813420773, 11813420774, 11813420775, 11813420776, 11813420777, 11813420756], "tags": {"amenity": "school", "name": "东城根街小学（B区）"}}, {"type": "way", "id": 1273382319, "center": {"lat": 30.6686498, "lon": 104.0436614}, "nodes": [11824981669, 11824981670, 11824981671, 11824981672, 11824981673, 11826579882, 11824981674, 11824981669], "tags": {"amenity": "school", "name": "四川省成都市财贸职业高级中学"}}, {"type": "way", "id": 1275909192, "center": {"lat": 30.6709846, "lon": 104.0396816}, "nodes": [11846050907, 11846050908, 11846050909, 11846050910, 11846050907], "tags": {"amenity": "school", "building": "hangar", "name": "榕阳教育"}}, {"type": "way", "id": 1275936010, "center": {"lat": 30.6743167, "lon": 104.0391707}, "nodes": [11846318348, 11846318349, 11846318350, 11846318351, 11846318352, 11846318353, 11846318354, 11846318348], "tags": {"amenity": "kindergarten", "name": "成都市第九幼儿园"}}, {"type": "way", "id": 1276035481, "center": {"lat": 30.6727493, "lon": 104.0445883}, "nodes": [11846928563, 11846928564, 11846928565, 11846928566, 11846928567, 11846928568, 11846956369, 11846956370, 11846956371, 11846956372, 11846956373, 11846956374, 11846956375, 11846956376, 11846956377, 11846956378, 11846928563], "tags": {"amenity": "school", "name": "成都市西安路小学"}}, {"type": "way", "id": 1276328186, "center": {"lat": 30.675009, "lon": 104.0444019}, "nodes": [11849665092, 11849665093, 11849665094, 11849665095, 11849665096, 11849665097, 11849665098, 11849665099, 11849665100, 11849665101, 11849705079, 11849665102, 11849665103, 11849665107, 11849665104, 11849665105, 11849665106, 11849665092], "tags": {"amenity": "kindergarten", "name": "成都市机关第三幼儿园"}}, {"type": "way", "id": 1276719937, "center": {"lat": 30.6311811, "lon": 104.0579669}, "nodes": [11853783138, 12518124331, 11853783139, 11853783140, 11853783141, 11853783142, 11853783143, 11853783138], "tags": {"amenity": "school", "name": "玉林中学"}}, {"type": "way", "id": 1282506513, "center": {"lat": 30.6272669, "lon": 104.0499802}, "nodes": [11901445259, 11901445260, 11901445261, 11901445262, 11901445263, 11901445264, 11901445259], "tags": {"addr:city": "芳草街街道", "addr:district": "成都市高新区", "addr:housenumber": "80号", "addr:postcode": "610041", "addr:province": "四川省", "addr:street": "芳草东街", "amenity": "school", "grades": "10-12", "name": "成都玉林中学（芳草校区）", "website": "http://www.cdylzx.net/"}}, {"type": "way", "id": 1282535314, "center": {"lat": 30.6613092, "lon": 104.0323153}, "nodes": [11901654426, 11901654427, 11901654428, 11901654429, 11901654430, 11901654431, 11901654432, 11901654426], "tags": {"addr:city": "成都市", "addr:district": "青羊区", "addr:housenumber": "180", "addr:postcode": "610041", "addr:province": "四川省", "addr:street": "浣花南路", "amenity": "school", "grades": "1-6", "name": "成都市草堂小学", "name:en": "Chengdu Caotang Primary School"}}, {"type": "way", "id": 1285599778, "center": {"lat": 30.626011, "lon": 104.0637707}, "nodes": [11925713496, 11925713506, 11925713507, 11925713495, 11925713496], "tags": {"amenity": "hospital", "healthcare": "hospital", "name": "四川何氏骨科医院"}}, {"type": "way", "id": 1311151909, "center": {"lat": 30.6158125, "lon": 104.0657057}, "nodes": [12136852505, 12136852506, 12136852527, 12136852526, 12136852525, 12136852507, 12136852508, 12136852522, 12136852509, 12136852510, 12136852505], "tags": {"amenity": "hospital", "healthcare": "hospital", "name": "四川省中西医结合医院"}}, {"type": "way", "id": 1342441276, "center": {"lat": 30.6743458, "lon": 104.1191841}, "nodes": [12420389269, 12420389232, 12420389233, 12420389230, 12420389231, 6213505215, 12420389269], "tags": {"amenity": "school", "name": "建设路小学（建功校区）"}}, {"type": "way", "id": 1342571117, "center": {"lat": 30.6168196, "lon": 104.0583189}, "nodes": [12421909328, 12421909329, 4701464376, 12421909330, 12421909331, 12421909332, 12421909328], "tags": {"amenity": "school", "name": "桐梓林小学"}}, {"type": "way", "id": 1342588449, "center": {"lat": 30.6711936, "lon": 104.0988805}, "nodes": [12422088702, 12422088703, 12422088704, 12422088705, 12422088702], "tags": {"amenity": "hospital", "healthcare": "hospital", "name": "国光医院"}}, {"type": "way", "id": 1342654663, "center": {"lat": 30.6693996, "lon": 104.0987711}, "nodes": [12422584953, 12422584954, 12422584955, 12422584956, 12422584953], "tags": {"amenity": "kindergarten", "name": "八二幼儿园"}}, {"type": "way", "id": 1342952287, "center": {"lat": 30.6624536, "lon": 104.1203996}, "nodes": [12425254152, 12425254153, 12425254154, 12425254155, 12425254156, 12425254152], "tags": {"amenity": "driving_school", "name": "交建驾校"}}, {"type": "way", "id": 1344512770, "center": {"lat": 30.6557043, "lon": 104.1115474}, "nodes": [12438414603, 12438414604, 12438414605, 12438414606, 12438414607, 12438414608, 12438414609, 12438414603], "tags": {"amenity": "school", "name": "成都成华小学校（和美校区）"}}, {"type": "way", "id": 1344523987, "center": {"lat": 30.6571934, "lon": 104.107031}, "nodes": [12438508374, 12438508375, 12438508376, 12438508377, 12438508374], "tags": {"amenity": "kindergarten", "name": "双桥幼儿园"}}, {"type": "way", "id": 1344524007, "center": {"lat": 30.6592654, "lon": 104.1054272}, "nodes": [12438508468, 12438508469, 12438508470, 12438508471, 12438508468], "tags": {"amenity": "kindergarten", "name": "贝格花园幼稚园"}}, {"type": "way", "id": 1344524036, "center": {"lat": 30.66169, "lon": 104.1040038}, "nodes": [12438508599, 12438508600, 12438508601, 12438508602, 12438508603, 12438508604, 12438508605, 12438508606, 12438508607, 12438508608, 12438508599], "tags": {"amenity": "police", "building": "yes", "name": "猛追湾派出所"}}, {"type": "way", "id": 1344524038, "center": {"lat": 30.6616118, "lon": 104.1048801}, "nodes": [12438508613, 12438508614, 12438508615, 12438508616, 12438508617, 12438508618, 12438508619, 12438508620, 12438508613], "tags": {"amenity": "school"}}, {"type": "way", "id": 1344528739, "center": {"lat": 30.6630186, "lon": 104.1021639}, "nodes": [12438540549, 12438540550, 12438540551, 12438540552, 12438540553, 12438540549], "tags": {"amenity": "kindergarten", "name": "春蕾幼儿园"}}, {"type": "way", "id": 1344528850, "center": {"lat": 30.6616869, "lon": 104.0967625}, "nodes": [12438551594, 12438551595, 12438551596, 12438551597, 12438551598, 12438551599, 12438551594], "tags": {"amenity": "school", "name": "猛追湾小学"}}, {"type": "way", "id": 1344528905, "center": {"lat": 30.6638942, "lon": 104.0942149}, "nodes": [12438551836, 12438551837, 12438551838, 12438551839, 12438551840, 12438551841, 12438551842, 12438551836], "tags": {"amenity": "hospital", "healthcare": "hospital", "name": "成华区妇幼保健院"}}, {"type": "way", "id": 1345144938, "center": {"lat": 30.6386052, "lon": 104.0441317}, "nodes": [12444429561, 12444429562, 12444429563, 12444429564, 12444429561], "tags": {"amenity": "clinic", "building": "yes", "healthcare": "clinic", "name": "成都高新区肖家河社区卫生服务中心"}}, {"type": "way", "id": 1345145035, "center": {"lat": 30.6320189, "lon": 104.0426117}, "nodes": [12444430044, 12444430045, 12444430046, 12444430047, 12444430048, 12444430049, 12444430044], "tags": {"amenity": "school", "name": "成都玉林中学肖家河校区"}}, {"type": "way", "id": 1345145038, "center": {"lat": 30.6323151, "lon": 104.0436706}, "nodes": [12444430060, 12444430061, 12444430062, 12444430063, 12444430064, 12444430060], "tags": {"amenity": "school", "name": "成都市玉林中学附属小学（高小部）"}}, {"type": "way", "id": 1345145047, "center": {"lat": 30.6356978, "lon": 104.039752}, "nodes": [12444430104, 12444430105, 12444430106, 12444430107, 12444430104], "tags": {"amenity": "school", "name": "成都西藏中学"}}, {"type": "way", "id": 1345145052, "center": {"lat": 30.6353101, "lon": 104.0411529}, "nodes": [12444430124, 12444430125, 12444430126, 12444430127, 12444430124], "tags": {"amenity": "school", "name": "成都市玉林中学附属小学（低小部）"}}, {"type": "way", "id": 1346001978, "center": {"lat": 30.6410463, "lon": 104.0340163}, "nodes": [12449615928, 12449615929, 12449615930, 12449615931, 12449615928], "tags": {"amenity": "school", "name": "红牌楼小学"}}, {"type": "way", "id": 1346166015, "center": {"lat": 30.6277636, "lon": 104.0654138}, "nodes": [12451125892, 12451125893, 12451125894, 12451125895, 12451125892], "tags": {"amenity": "hospital", "healthcare": "hospital", "name": "成都中医药大学附属生殖妇幼医院"}}, {"type": "way", "id": 1346166016, "center": {"lat": 30.6286206, "lon": 104.0656729}, "nodes": [12451125896, 12451125897, 12451125898, 12451125899, 12451125900, 12451125901, 12451125902, 12451125903, 12451125904, 12451125905, 12451125896], "tags": {"amenity": "university", "name": "成都中医药大学(人民南路校区)"}}, {"type": "way", "id": 1346172629, "center": {"lat": 30.6274393, "lon": 104.0570318}, "nodes": [12451223509, 12451223510, 12451223511, 12451223512, 12451223513, 12451223509], "tags": {"amenity": "prep_school", "building": "yes"}}, {"type": "way", "id": 1346172640, "center": {"lat": 30.6283387, "lon": 104.0570118}, "nodes": [12451223578, 12451223579, 12451223580, 12451223581, 12451223582, 12451223583, 12451223578], "tags": {"amenity": "school", "name": "成都市玉林小学"}}, {"type": "way", "id": 1346386266, "center": {"lat": 30.6248853, "lon": 104.0707676}, "nodes": [12453149146, 12453149147, 12453149148, 12453149149, 12453149150, 12453149151, 12453149152, 12453149153, 12453149154, 12453149146], "tags": {"amenity": "kindergarten", "name": "成都市第三十一幼儿园"}}, {"type": "way", "id": 1346392990, "center": {"lat": 30.629014, "lon": 104.0682141}, "nodes": [12453197592, 12453197593, 12453197594, 12453197595, 12453197596, 12453197592], "tags": {"amenity": "school", "name": "棕北中学"}}, {"type": "way", "id": 1346393013, "center": {"lat": 30.6290619, "lon": 104.071957}, "nodes": [12453197719, 12453197720, 12453197721, 12453197722, 12453197719], "tags": {"amenity": "school", "name": "棕北小学"}}, {"type": "way", "id": 1346639540, "center": {"lat": 30.6049551, "lon": 104.0865845}, "nodes": [12456009164, 12456009165, 12456009166, 12456009167, 12456009164], "tags": {"amenity": "kindergarten"}}, {"type": "way", "id": 1346648807, "center": {"lat": 30.5985529, "lon": 104.0938089}, "nodes": [12456119996, 12456119997, 12456119998, 12456119999, 12456120000, 12456120001, 12456120002, 12456120003, 12456120004, 12456120005, 12456119996], "tags": {"amenity": "school", "name": "成都市锦江区特殊教育学校(琉璃校区)"}}, {"type": "way", "id": 1346648870, "center": {"lat": 30.6058813, "lon": 104.1036019}, "nodes": [12456120320, 12456120321, 12456120322, 12456120323, 12456120324, 12456120325, 12456120320], "tags": {"amenity": "clinic", "building": "yes", "healthcare": "clinic", "name": "成都市锦江区成龙路社区卫生服务中心"}}, {"type": "way", "id": 1346648871, "center": {"lat": 30.6059155, "lon": 104.1032597}, "nodes": [12456120326, 12456120327, 12456120328, 12456120329, 12456120330, 12456120331, 12456120326], "tags": {"amenity": "clinic", "building": "yes", "healthcare": "clinic", "name": "成都锦江益民医院"}}, {"type": "way", "id": 1346656171, "center": {"lat": 30.6040092, "lon": 104.0985314}, "nodes": [12456175579, 12456175580, 12456175581, 12456175582, 12456175579], "tags": {"amenity": "kindergarten", "name": "东方阳光幼稚园"}}, {"type": "way", "id": 1347033950, "center": {"lat": 30.6149983, "lon": 104.1042311}, "nodes": [12460428863, 12460428864, 12460428865, 12460428866, 12460428867, 12460428863], "tags": {"amenity": "kindergarten", "education": "kindergarten", "name": "英贝雅智幼儿园"}}, {"type": "way", "id": 1347033964, "center": {"lat": 30.6096677, "lon": 104.1026916}, "nodes": [12460442080, 12460442081, 12460442082, 12460442083, 12460442084, 12460442080], "tags": {"amenity": "kindergarten", "education": "kindergarten", "name": "金苹果爱弥儿幼儿园(爱东园)"}}, {"type": "way", "id": 1347038318, "center": {"lat": 30.6074927, "lon": 104.1027862}, "nodes": [12460490557, 12460490558, 12460490559, 12460490560, 12460490561, 12460490557], "tags": {"amenity": "school", "education": "school", "name": "成都金宝贝脑伤儿童关爱中心"}}, {"type": "way", "id": 1347080995, "center": {"lat": 30.6184929, "lon": 104.0949092}, "nodes": [12460867837, 12460867838, 12460867839, 12460867840, 12460867837], "tags": {"amenity": "kindergarten", "name": "成都市锦江区东润幼儿园"}}, {"type": "way", "id": 1347081004, "center": {"lat": 30.618692, "lon": 104.0936667}, "nodes": [12460867879, 12460867880, 12460867881, 12460867882, 12460867883, 12460867884, 12460867885, 12460867886, 12460867879], "tags": {"amenity": "school", "name": "成都市七中育才学校(东湖校区)"}}, {"type": "way", "id": 1347086184, "center": {"lat": 30.6177471, "lon": 104.0986088}, "nodes": [12460913254, 12460913255, 12460913256, 12460913257, 12460913258, 12460913254], "tags": {"amenity": "police", "building": "yes", "name": "交警三分局"}}, {"type": "way", "id": 1347093109, "center": {"lat": 30.6229688, "lon": 104.0971904}, "nodes": [12460975771, 12460975772, 12460975773, 12460975774, 12460975771], "tags": {"amenity": "clinic", "building": "yes", "healthcare": "clinic"}}, {"type": "way", "id": 1347093110, "center": {"lat": 30.6231138, "lon": 104.0969054}, "nodes": [12460975775, 12460975776, 12460975777, 12460975778, 12460975775], "tags": {"amenity": "clinic", "building": "yes", "healthcare": "clinic"}}, {"type": "way", "id": 1347093111, "center": {"lat": 30.6228574, "lon": 104.0968969}, "nodes": [12460975779, 12460975780, 12460975781, 12460975782, 12460975779], "tags": {"amenity": "clinic", "building": "yes", "healthcare": "clinic"}}, {"type": "way", "id": 1347331124, "center": {"lat": 30.6294183, "lon": 104.0942782}, "nodes": [12463120233, 12463120234, 12463120235, 12463120236, 12463120237, 12463120238, 12463120239, 12463120240, 12463120233], "tags": {"amenity": "prep_school", "building": "yes", "name": "成都市锦江区青少年宫"}}, {"type": "way", "id": 1347577652, "center": {"lat": 30.6318567, "lon": 104.0298346}, "nodes": [12465334952, 12465334953, 12465334954, 12465334955, 12465334956, 12465334957, 12465334952], "tags": {"amenity": "school", "name": "龙江路小学分校(南区学校)"}}, {"type": "way", "id": 1347577653, "center": {"lat": 30.6325907, "lon": 104.0302316}, "nodes": [12465334958, 12465334959, 12465334960, 12465334961, 12465334962, 12465334963, 12465334958], "tags": {"amenity": "kindergarten", "name": "成都市武侯区第三十幼儿园"}}, {"type": "way", "id": 1347583029, "center": {"lat": 30.638983, "lon": 104.001809}, "nodes": [12465395235, 12465395236, 12465395237, 12465395238, 12465395239, 12465395240, 12465395241, 12465395235], "tags": {"amenity": "kindergarten", "name": "芝圃幼儿园"}}, {"type": "way", "id": 1347753022, "center": {"lat": 30.6522583, "lon": 104.000743}, "nodes": [12466762075, 12466762076, 12466762077, 12466762078, 12466762079, 12466762112, 12466762113, 12466762114, 12466762115, 12466762116, 12466762117, 12466762080, 12466762081, 12466762082, 12466762083, 12466762075], "tags": {"amenity": "hospital", "healthcare": "hospital", "name": "四川赫尔森康复医院"}}, {"type": "way", "id": 1347756136, "center": {"lat": 30.6600132, "lon": 104.0047488}, "nodes": [12466796404, 12466796405, 12466796412, 12466796413, 12466796404], "tags": {"amenity": "prep_school", "building": "apartments"}}, {"type": "way", "id": 1347763046, "center": {"lat": 30.6566847, "lon": 103.9982797}, "nodes": [12466871947, 12466871948, 12466871949, 12466871950, 12466871947], "tags": {"amenity": "kindergarten", "name": "中央花园幼儿园(沙堰西二街)"}}, {"type": "way", "id": 1347984810, "center": {"lat": 30.6553744, "lon": 104.0165799}, "nodes": [12468903415, 12468903416, 12468903417, 12468903418, 12468903419, 12468903420, 12468903415], "tags": {"amenity": "school", "name": "四川大学附属实验小学清水河分校"}}, {"type": "way", "id": 1348003583, "center": {"lat": 30.6399007, "lon": 104.0127635}, "nodes": [12469033234, 12469033235, 12469033236, 12469033237, 12469033234], "tags": {"amenity": "hospital", "healthcare": "hospital", "name": "四川肛肠医院"}}, {"type": "way", "id": 1348003592, "center": {"lat": 30.6422904, "lon": 104.0102095}, "nodes": [12469033276, 12469033277, 12469033278, 12469033279, 12469033276], "tags": {"amenity": "police", "building": "apartments"}}, {"type": "way", "id": 1348003593, "center": {"lat": 30.6423388, "lon": 104.0104927}, "nodes": [12469033280, 12469033281, 12469033282, 12469033283, 12469033280], "tags": {"amenity": "police", "building": "apartments"}}, {"type": "way", "id": 1348008359, "center": {"lat": 30.6425536, "lon": 104.0237542}, "nodes": [12469079929, 12469079930, 12469079931, 12469079932, 12469079929], "tags": {"amenity": "hospital", "healthcare": "hospital", "name": "成都康福肾脏病医院"}}, {"type": "way", "id": 1348217934, "center": {"lat": 30.6581052, "lon": 104.037828}, "nodes": [12471140152, 12471140153, 12471140154, 12471140155, 12471140156, 12471140157, 12471140158, 12471140159, 12471140160, 12471140161, 12471140162, 12471140152], "tags": {"amenity": "prep_school", "building": "yes", "name": "成都市青少年宫（西区）"}}, {"type": "way", "id": 1348257753, "center": {"lat": 30.6518086, "lon": 104.0319391}, "nodes": [12471386506, 12471386507, 12471386508, 12471386509, 12471386506], "tags": {"amenity": "kindergarten", "name": "成都市武侯区第二十七幼儿园"}}, {"type": "way", "id": 1348462641, "center": {"lat": 30.6466903, "lon": 104.0248167}, "nodes": [12473385161, 12473385162, 12473385163, 12473385164, 12473385165, 12473385166, 12473385161], "tags": {"amenity": "police", "building": "apartments", "name": "双楠派出所"}}, {"type": "way", "id": 1348468578, "center": {"lat": 30.6481358, "lon": 104.0372355}, "nodes": [12473444927, 12473444928, 12473444929, 12473444930, 12473444931, 12473444932, 12473444933, 12473444934, 12473444935, 12473444936, 12473444927], "tags": {"amenity": "prep_school", "building": "yes", "name": "成都教研职业技术培训中心"}}, {"type": "way", "id": 1348468603, "center": {"lat": 30.6463411, "lon": 104.0327958}, "nodes": [12473445071, 12473445072, 12473445073, 12473445074, 12473445075, 12473445076, 12473445077, 12473445078, 12473445079, 12473445080, 12473445071], "tags": {"amenity": "hospital", "healthcare": "hospital", "name": "成都平安医院"}}, {"type": "way", "id": 1348491889, "center": {"lat": 30.6486064, "lon": 104.0551075}, "nodes": [12473660336, 12473660337, 12473660338, 12473660339, 12473660340, 12473660341, 12473660342, 12473660343, 12473660344, 12473660345, 12473660346, 12473660347, 12473660336], "tags": {"amenity": "school", "name": "成都市锦里小学"}}, {"type": "way", "id": 1348499375, "center": {"lat": 30.6458091, "lon": 104.0515516}, "nodes": [12473731794, 12473731795, 12473731796, 12473731797, 12473731798, 12473731799, 12473731800, 12473731801, 12473731802, 12473731803, 12473731804, 12473731794], "tags": {"amenity": "school", "name": "成都西北中学"}}, {"type": "way", "id": 1348675969, "center": {"lat": 30.6435907, "lon": 104.0547315}, "nodes": [12475438517, 12475438518, 12475438519, 12475438520, 12475438517], "tags": {"amenity": "prep_school", "building": "apartments", "name": "新东方素质成长中心(浆洗街校区)"}}, {"type": "way", "id": 1348676016, "center": {"lat": 30.6477603, "lon": 104.0572849}, "nodes": [12475438740, 12475438741, 12475438742, 12475438743, 12475438744, 12475438745, 12475438746, 12475438747, 12475438740], "tags": {"amenity": "police", "building": "yes", "name": "成都市公安局武侯区分局浆洗街派出所"}}, {"type": "way", "id": 1348683824, "center": {"lat": 30.6428394, "lon": 104.0715373}, "nodes": [12475517005, 12475517006, 12475517007, 12475517008, 12475517009, 12475517010, 12475517011, 12475517012, 12475517013, 12475517014, 12475517005], "tags": {"amenity": "kindergarten", "name": "四川省直属机关实验婴儿园"}}, {"type": "way", "id": 1348689877, "center": {"lat": 30.6471306, "lon": 104.0743463}, "nodes": [12475568246, 12475568247, 12475568248, 12475568249, 12475568250, 12475568246], "tags": {"amenity": "college", "name": "成都市技师学院临江路校区(临江东路)"}}, {"type": "way", "id": 1348695274, "center": {"lat": 30.6419202, "lon": 104.0774729}, "nodes": [12475616749, 12475616750, 12475616751, 12475616752, 12475616753, 12475616754, 12475616755, 12475616756, 12475616757, 12475616758, 12475616759, 12475616749], "tags": {"amenity": "college", "name": "四川艺术职业学院"}}, {"type": "way", "id": 1348695277, "center": {"lat": 30.6452381, "lon": 104.0780295}, "nodes": [12475616773, 12475616774, 12475616775, 12475616776, 12475616773], "tags": {"amenity": "hospital", "healthcare": "hospital", "name": "成都市第七人民医院"}}, {"type": "way", "id": 1349242451, "center": {"lat": 30.6800095, "lon": 104.0880988}, "nodes": [12480744705, 12480744706, 12480744707, 12480744708, 12480744705], "tags": {"amenity": "school", "name": "马鞍小学"}}, {"type": "way", "id": 1355099843, "center": {"lat": 30.6773227, "lon": 104.0388315}, "nodes": [12540962451, 12540962452, 12540962453, 12540962454, 12540962455, 12540962456, 12540962457, 12540962458, 12540962459, 12540962451], "tags": {"amenity": "hospital", "healthcare": "hospital", "name": "成都骨伤医院"}}, {"type": "way", "id": 1355099924, "center": {"lat": 30.6608211, "lon": 104.0447365}, "nodes": [12540962860, 12540962861, 12540962862, 12540962863, 12540962864, 12540962865, 12540962866, 12540962867, 12540962868, 12540962869, 12540962870, 12540962871, 12540962872, 12540962873, 12540962874, 12540962875, 12540962876, 12540962877, 12540962878, 12540962879, 12540962860], "tags": {"amenity": "police", "building": "yes"}}, {"type": "way", "id": 1355152187, "center": {"lat": 30.6525937, "lon": 104.0589561}, "nodes": [12541585022, 12541585023, 12541585024, 12541585025, 12541585026, 12541585027, 12541585028, 12541585029, 12541585022], "tags": {"amenity": "hospital", "healthcare": "hospital", "name": "中山骨科医院"}}, {"type": "way", "id": 1355169160, "center": {"lat": 30.6767585, "lon": 104.0491396}, "nodes": [12541863071, 12541863072, 12541863073, 12541863074, 12541863075, 12541863076, 12541863077, 12541863071], "tags": {"amenity": "school", "name": "成都市石笋街小学(东区)"}}, {"type": "way", "id": 1355177889, "center": {"lat": 30.6730096, "lon": 104.051984}, "nodes": [12541931341, 12541931342, 12541931343, 12541931344, 12541931345, 12541931346, 12541931341], "tags": {"amenity": "kindergarten", "name": "四川省直属机关西马棚幼儿园"}}, {"type": "way", "id": 1355178027, "center": {"lat": 30.6793849, "lon": 104.0581117}, "nodes": [12541940408, 12541940409, 12541940410, 12541940411, 12541940408], "tags": {"amenity": "police", "building": "yes", "name": "成都市公安局青羊分局草市街派出所"}}, {"type": "way", "id": 1355402826, "center": {"lat": 30.6737333, "lon": 104.0600697}, "nodes": [12544008598, 12544008599, 12544008600, 12544008601, 12544008602, 12544008603, 12544008604, 12544008605, 12544008606, 12544008607, 12544008608, 12544008609, 12544008610, 12544008611, 12544008612, 12544008613, 12544008598], "tags": {"amenity": "prep_school", "building": "yes", "name": "成都市青羊区社区教育与青少年服务中心(青龙街校区)"}}, {"type": "way", "id": 1355408743, "center": {"lat": 30.6670161, "lon": 104.0583659}, "nodes": [12544079755, 12544079756, 12544079757, 12544079758, 12544079755], "tags": {"amenity": "police", "building": "yes", "name": "成都市公安局青羊区分局西御河派出所"}}, {"type": "way", "id": 1355408822, "center": {"lat": 30.6700463, "lon": 104.0567367}, "nodes": [12544080227, 12544080228, 12544080229, 12544080230, 12544080227], "tags": {"amenity": "hospital", "healthcare": "hospital", "name": "成都第一骨科医院(东门街院区)"}}, {"type": "way", "id": 1355663602, "center": {"lat": 30.6669438, "lon": 104.0687699}, "nodes": [12546402886, 12546402887, 12546402888, 12546402889, 12546402890, 12546402891, 12546402886], "tags": {"amenity": "prep_school", "building": "yes", "name": "成都市青少年宫"}}, {"type": "way", "id": 1355663603, "center": {"lat": 30.6671715, "lon": 104.0686444}, "nodes": [12546402892, 12546402893, 12546402894, 12546402895, 12546402892], "tags": {"amenity": "prep_school", "building": "yes"}}, {"type": "way", "id": 1355933885, "center": {"lat": 30.6726361, "lon": 104.0806028}, "nodes": [12548970936, 12548970937, 12548970938, 12548970939, 12548970940, 12548970941, 12548970936], "tags": {"amenity": "police", "building": "yes", "name": "成都市公安局青羊区分局经济犯罪侦查大队"}}, {"type": "way", "id": 1355933895, "center": {"lat": 30.6716646, "lon": 104.0840928}, "nodes": [12548970996, 12548970997, 12548970998, 12548970999, 12548971000, 12548971001, 12548971002, 12548970996], "tags": {"amenity": "school", "name": "成都市第十一中学(红星路校区)"}}, {"type": "way", "id": 1355933906, "center": {"lat": 30.6708129, "lon": 104.0849791}, "nodes": [12548971047, 12548971048, 12548971049, 12548971050, 12548971051, 12548971052, 12548971053, 12548971054, 12548971055, 12548971047], "tags": {"amenity": "hospital", "healthcare": "hospital", "name": "成都市中西医结合医院(北区)"}}, {"type": "way", "id": 1355933999, "center": {"lat": 30.6658291, "lon": 104.0902153}, "nodes": [12548971518, 12548971519, 12548971520, 12548971521, 12548971522, 12548971523, 12548971518], "tags": {"amenity": "prep_school", "building": "yes", "name": "成都市猛追湾游泳场游泳学校"}}, {"type": "way", "id": 1356107818, "center": {"lat": 30.6655894, "lon": 104.0790544}, "nodes": [12550779208, 12550779209, 12550779210, 12550779211, 12550779212, 12550779213, 12550779208], "tags": {"amenity": "school", "name": "成都市和平街小学"}}, {"type": "way", "id": 1356107867, "center": {"lat": 30.6687252, "lon": 104.0820526}, "nodes": [12550779441, 12550779442, 12550779443, 12550779444, 12550779441], "tags": {"amenity": "school", "name": "成都市第十一中学校(玉沙路校区)"}}, {"type": "way", "id": 1356107886, "center": {"lat": 30.6673016, "lon": 104.080719}, "nodes": [12550779543, 12550779544, 12550779545, 12550779546, 12550779547, 12550779548, 12550779549, 12550779550, 12550779551, 12550779552, 12550779543], "tags": {"amenity": "school"}}, {"type": "way", "id": 1356111404, "center": {"lat": 30.661836, "lon": 104.0862992}, "nodes": [12550811315, 12550811316, 12550811317, 12550811318, 12550811319, 12550811320, 12550811315], "tags": {"amenity": "kindergarten", "name": "成都市锦江区天涯石幼儿园"}}, {"type": "way", "id": 1356175182, "center": {"lat": 30.6538074, "lon": 104.0882608}, "nodes": [12551384585, 12551384586, 12551384587, 12551384588, 12551384589, 12551384590, 12551384591, 12551384592, 12551384593, 12551384594, 12551384595, 12551384596, 12551384597, 12551384598, 12551384599, 12551384600, 12551384601, 12551384602, 12551384585], "tags": {"amenity": "hospital", "healthcare": "hospital", "name": "四川电力医院"}}, {"type": "way", "id": 1356345307, "center": {"lat": 30.6540816, "lon": 104.0981333}, "nodes": [12553350592, 12553350646, 12553350647, 12553350648, 12553350657, 12553350649, 12553350593, 12553350594, 12553350595, 12553350592], "tags": {"amenity": "school", "name": "四川省成都市列五中学"}}, {"type": "way", "id": 1356349283, "center": {"lat": 30.6486783, "lon": 104.097796}, "nodes": [12553389860, 12553389861, 12553389862, 12553389863, 12553389860], "tags": {"amenity": "school", "name": "成都爱思瑟国际学校"}}, {"type": "way", "id": 1356359600, "center": {"lat": 30.6511942, "lon": 104.1000957}, "nodes": [12553478156, 12553478157, 12553478158, 12553478159, 12553478160, 12553478161, 12553478162, 12553478163, 12553478164, 12553478165, 12553478156], "tags": {"amenity": "hospital", "healthcare": "hospital", "name": "攀钢集团成都医院"}}, {"type": "way", "id": 1356359651, "center": {"lat": 30.650158, "lon": 104.1042564}, "nodes": [12553478391, 12553478392, 12553478393, 12553478394, 12553478395, 12553478396, 12553478397, 12553478398, 12553478399, 12553478400, 12553478391], "tags": {"amenity": "school", "name": "成都市双林小学(南校区)"}}, {"type": "way", "id": 1356359803, "center": {"lat": 30.654859, "lon": 104.1046237}, "nodes": [12553479162, 12553479163, 12553479164, 12553479165, 12553479162], "tags": {"amenity": "school", "name": "成都市双林小学"}}, {"type": "way", "id": 1356406601, "center": {"lat": 30.6331789, "lon": 104.0958056}, "nodes": [12553893340, 12553893341, 12553893342, 12553893343, 12553893344, 12553893345, 12553893346, 12553893347, 12553893348, 12553893349, 12553893350, 12553893351, 12553893340], "tags": {"amenity": "police", "building": "yes", "name": "锦江区公安分局"}}, {"type": "way", "id": 1356603602, "center": {"lat": 30.6453733, "lon": 104.1028822}, "nodes": [12555860401, 12555860402, 12555860403, 12555860404, 12555860405, 12555860406, 12555860407, 12555860408, 12555860401], "tags": {"amenity": "school", "name": "成都市锦江区教育科学研究院附小"}}, {"type": "way", "id": 1356603627, "center": {"lat": 30.6436161, "lon": 104.1015134}, "nodes": [12555860538, 12555860539, 12555860540, 12555860541, 12555860542, 12555860543, 12555860538], "tags": {"amenity": "police", "name": "牛市口派出所"}}, {"type": "way", "id": 1356611112, "center": {"lat": 30.6428072, "lon": 104.0960838}, "nodes": [12555886468, 12555886469, 12555886470, 12555886471, 12555886468], "tags": {"amenity": "police", "building": "yes"}}, {"type": "way", "id": 1356611113, "center": {"lat": 30.6426009, "lon": 104.096436}, "nodes": [12555886472, 12555886473, 12555886474, 12555886475, 12555886472], "tags": {"amenity": "police", "building": "yes", "name": "成都市公安局锦江分局经济犯罪侦查大队"}}, {"type": "way", "id": 1356611158, "center": {"lat": 30.6389443, "lon": 104.0945732}, "nodes": [12555932151, 12555932152, 12555932153, 12555932154, 12555932155, 12555932156, 12555932157, 12555932158, 12555932159, 12555932160, 12555932151], "tags": {"amenity": "school", "name": "盐道街小学-东区"}}, {"type": "way", "id": 1356625404, "center": {"lat": 30.6409862, "lon": 104.1087223}, "nodes": [12556052653, 12556052654, 12556052655, 12556052656, 12556052653], "tags": {"amenity": "police", "building": "yes", "name": "沙河派出所"}}, {"type": "way", "id": 1356625411, "center": {"lat": 30.6423268, "lon": 104.1083158}, "nodes": [12556052706, 12556052707, 12556052708, 12556052709, 12556052706], "tags": {"amenity": "kindergarten", "education": "kindergarten", "name": "成都市盐道街小学(汇泉校区)"}}, {"type": "way", "id": 1356625412, "center": {"lat": 30.6419297, "lon": 104.108536}, "nodes": [12556052710, 12556052711, 12556052712, 12556052713, 12556052714, 12556052715, 12556052710], "tags": {"amenity": "school", "education": "school", "name": "成都市盐道街小学(汇泉校区)"}}, {"type": "way", "id": 1356625423, "center": {"lat": 30.6428391, "lon": 104.1078485}, "nodes": [12556052793, 12556052794, 12556052795, 12556052796, 12556052797, 12556052793], "tags": {"amenity": "dancing_school", "building": "yes", "education": "dancing_school", "name": "艾薇芭蕾艺术中心(芭蕾之门)"}}, {"type": "way", "id": 1356635582, "center": {"lat": 30.6420336, "lon": 104.1186529}, "nodes": [12556167595, 12556167596, 12556167597, 12556167598, 12556167599, 12556167600, 12556167601, 12556167602, 12556167603, 12556167604, 12556167605, 12556167606, 12556167595], "tags": {"amenity": "school", "name": "成都市现代职业技术学校(双桂路校区)"}}, {"type": "way", "id": 1356635610, "center": {"lat": 30.6435693, "lon": 104.1201107}, "nodes": [12556167723, 12556167724, 12556167725, 12556167726, 12556167727, 12556167728, 12556167729, 12556167723], "tags": {"amenity": "prep_school", "building": "apartments", "name": "VETLAND成都校区"}}, {"type": "way", "id": 1356661751, "center": {"lat": 30.6557668, "lon": 104.1143399}, "nodes": [12556414562, 12556414563, 12556414564, 12556414565, 12556414562], "tags": {"amenity": "police", "building": "yes", "name": "成都市成华区交通运输管理所"}}, {"type": "way", "id": 1357703452, "center": {"lat": 30.6324569, "lon": 104.1157125}, "nodes": [12564823302, 12564823303, 12564823304, 12564823305, 12564823306, 12564823307, 12564823308, 12564823309, 12564823310, 12564823311, 12564823312, 12564823302], "tags": {"amenity": "kindergarten", "education": "kindergarten", "name": "英贝·思塔尔森"}}, {"type": "way", "id": 1357703456, "center": {"lat": 30.6334169, "lon": 104.116642}, "nodes": [12564823327, 12564823328, 12564823329, 12564823330, 12564823331, 12564823332, 12564823333, 12564823334, 12564823335, 12564823336, 12564823337, 12564823338, 12564823339, 12564823340, 12564823341, 12564823342, 12564823343, 12564823327], "tags": {"amenity": "college", "education": "college", "name": "四川省林业干部学校"}}, {"type": "way", "id": 1357713073, "center": {"lat": 30.6256915, "lon": 104.1091403}, "nodes": [12564905126, 12564905116, 12564905117, 12564905127, 12564905126], "tags": {"amenity": "school", "education": "school", "name": "马家沟小学"}}, {"type": "way", "id": 1357713100, "center": {"lat": 30.6268833, "lon": 104.1110892}, "nodes": [12564905260, 12564905261, 12564905262, 12564905263, 12564905264, 12564905265, 12564905266, 12564905267, 12564905268, 12564905269, 12564905270, 12564905260], "tags": {"amenity": "college", "education": "college", "name": "成都市射击射箭运动学校"}}, {"type": "way", "id": 1357729903, "center": {"lat": 30.6281786, "lon": 104.1202892}, "nodes": [12565101874, 12565101875, 12565101876, 12565101877, 12565101878, 12565101879, 12565101880, 12565101874], "tags": {"amenity": "school", "education": "school", "name": "成都市沙河堡小学"}}, {"type": "way", "id": 1357804770, "center": {"lat": 30.6201943, "lon": 104.1175329}, "nodes": [12565735054, 12565735055, 12565735056, 12565735057, 12565735058, 12565735059, 12565735060, 12565735061, 12565735054], "tags": {"amenity": "college", "education": "college", "name": "成都锦欣职业技能培训学校"}}, {"type": "way", "id": 1359250452, "center": {"lat": 30.6696015, "lon": 104.0071123}, "nodes": [12581433367, 12581433368, 12581433369, 12581433370, 12581433371, 12581433367], "tags": {"amenity": "kindergarten", "name": "童之梦幼儿园"}}, {"type": "way", "id": 1359256501, "center": {"lat": 30.662049, "lon": 104.0063749}, "nodes": [12581488491, 12581488492, 12581488493, 12581488494, 12581488495, 12581488496, 12581488497, 12581488498, 12581488499, 12581488500, 12581488491], "tags": {"amenity": "police", "building": "yes", "name": "光华派出所"}}, {"type": "way", "id": 1359340611, "center": {"lat": 30.6599938, "lon": 104.0316202}, "nodes": [12582323035, 12582323036, 12582323037, 12582323038, 12582323035], "tags": {"amenity": "police", "building": "yes", "name": "成都市森林公安局"}}, {"type": "way", "id": 1359340648, "center": {"lat": 30.6607645, "lon": 104.0332479}, "nodes": [12582323238, 12582323239, 12582323240, 12582323241, 12582323238], "tags": {"amenity": "prep_school", "building": "yes", "name": "成都市少年儿童业余体育学校"}}, {"type": "way", "id": 1359340649, "center": {"lat": 30.6612137, "lon": 104.0335016}, "nodes": [12582323242, 12582323243, 12582323244, 12582323245, 12582323242], "tags": {"amenity": "prep_school", "building": "yes"}}, {"type": "way", "id": 1359340650, "center": {"lat": 30.6615372, "lon": 104.0334764}, "nodes": [12582323246, 12582323247, 12582323248, 12582323249, 12582323250, 12582323251, 12582323246], "tags": {"amenity": "prep_school", "building": "yes"}}, {"type": "way", "id": 1359340651, "center": {"lat": 30.6610516, "lon": 104.033198}, "nodes": [12582323252, 12582323253, 12582323254, 12582323255, 12582323256, 11901654428, 11901654427, 12582323252], "tags": {"amenity": "prep_school", "name": "成都市少年儿童业余体育学校"}}, {"type": "way", "id": 1359346821, "center": {"lat": 30.6705623, "lon": 104.0293695}, "nodes": [12582379949, 12582379950, 12582379951, 12582379952, 12582379949], "tags": {"amenity": "university", "name": "四川水利职业技术学院(清江校区)"}}, {"type": "way", "id": 1359346850, "center": {"lat": 30.670584, "lon": 104.0281078}, "nodes": [12582380090, 12582380091, 12582380092, 12582380093, 12582380090], "tags": {"amenity": "university", "name": "四川电力职业技术学院(罗家碾校区)"}}, {"type": "way", "id": 1359522512, "center": {"lat": 30.670594, "lon": 104.036233}, "nodes": [12584425816, 5860604404, 12584425817, 12811615677, 12584425818, 12584425970, 12584425969, 12584425819, 12584425820, 12584425827, 12584425821, 12811615681, 12584425822, 12584425823, 12584425824, 12584425825, 12584425826, 12730609897, 12584425816], "tags": {"addr:housenumber": "3", "addr:street": "一环路西三段", "amenity": "university", "name": "四川开放大学", "name:en": "The Open University of Sichuan", "name:zh": "四川开放大学", "old_name": "四川广播电视大学", "operator": "四川省教育厅", "operator:type": "government"}}, {"type": "way", "id": 1359522550, "center": {"lat": 30.6724803, "lon": 104.0360516}, "nodes": [12584426003, 12584426004, 12584426005, 12584426006, 12584426007, 12584426008, 12584426003], "tags": {"amenity": "college", "building": "yes"}}, {"type": "way", "id": 1359522654, "center": {"lat": 30.6773197, "lon": 104.0325663}, "nodes": [12584426527, 12584426528, 12584426529, 12584426530, 12584426531, 12584426532, 12584426527], "tags": {"amenity": "kindergarten"}}, {"type": "way", "id": 1359558932, "center": {"lat": 30.6738084, "lon": 104.0333021}, "nodes": [12584776048, 12584776049, 12584776050, 12584776051, 12584776052, 12584776053, 12584776054, 12584776055, 12584776056, 12584776048], "tags": {"amenity": "school", "name": "成都市白果林小学校"}}, {"type": "way", "id": 1359575088, "center": {"lat": 30.6674472, "lon": 104.0253004}, "nodes": [12584922010, 12584922011, 12584922012, 12584922013, 12584922014, 12584922015, 12584922016, 12584922017, 12584922010], "tags": {"amenity": "school", "name": "成都市树德实验中学西区"}}, {"type": "way", "id": 1359575135, "center": {"lat": 30.6668734, "lon": 104.0237903}, "nodes": [12584922242, 12584922243, 12584922244, 12584922245, 12584922242], "tags": {"amenity": "school", "name": "成都市实验小学(青华分校)"}}, {"type": "way", "id": 1359600505, "center": {"lat": 30.6769706, "lon": 104.0238143}, "nodes": [12585158757, 12585158758, 12585158759, 12585158760, 12585158757], "tags": {"amenity": "police", "building": "apartments", "name": "府南派出所"}}, {"type": "way", "id": 1359845149, "center": {"lat": 30.6763022, "lon": 104.0071184}, "nodes": [12587543097, 12587543098, 12587543099, 12587543100, 12587543101, 12587543102, 12587543103, 12587543104, 12587543105, 12587543106, 12587543107, 12587543108, 12587543097], "tags": {"amenity": "prep_school", "building": "yes", "name": "成都市筑信职业技能培训学校"}}, {"type": "way", "id": 1360364094, "center": {"lat": 30.6783498, "lon": 104.0363141}, "nodes": [12593218722, 12593218723, 12593218724, 12593218725, 12593218726, 12593218727, 12593218728, 12593218729, 12593218730, 12593218731, 12593218732, 12593218733, 12593218722], "tags": {"amenity": "police", "building": "yes", "name": "抚琴派出所"}}, {"type": "way", "id": 1361615525, "center": {"lat": 30.6234232, "lon": 104.0122194}, "nodes": [12606288452, 12606288453, 12606288454, 12606288455, 12606288456, 12606288457, 12606288458, 12606288459, 12606288460, 12606288461, 12606288462, 12606288463, 12606288464, 12606288465, 12606288466, 12606288467, 12606288468, 12606288469, 12606288470, 12606288471, 12606288472, 12606288473, 12606288474, 12606288452], "tags": {"amenity": "university", "name": "西南民族大学（太平园校区）", "name:en": "Taipingyuan Campus, Southwest University for Nationalities", "name:zh": "西南民族大学（太平园校区）"}}, {"type": "way", "id": 1361683453, "center": {"lat": 30.6169173, "lon": 104.0176855}, "nodes": [12606858813, 12606858814, 12606858815, 12606858816, 12606858817, 12606858818, 12606858819, 12606858820, 12606858821, 12606858822, 12606858813], "tags": {"amenity": "school", "name": "成都市武侯区亚细亚学校"}}, {"type": "way", "id": 1361714553, "center": {"lat": 30.6325738, "lon": 104.0204501}, "nodes": [12607121801, 12607121802, 12607121803, 12607121804, 12607121801], "tags": {"amenity": "school", "name": "成都市武侯区特殊教育学校"}}, {"type": "way", "id": 1361714585, "center": {"lat": 30.634701, "lon": 104.0217045}, "nodes": [12607121953, 12607121954, 12607121955, 12607121956, 12607121957, 12607121958, 12607121959, 12607121960, 12607121961, 12607121953], "tags": {"amenity": "school", "name": "成都石室锦官中学"}}, {"type": "way", "id": 1361724727, "center": {"lat": 30.6387075, "lon": 104.0162612}, "nodes": [12607217483, 12607217484, 12607217485, 12607217486, 12607217483], "tags": {"amenity": "police", "building": "yes", "name": "红牌楼派出所"}}, {"type": "way", "id": 1361981234, "center": {"lat": 30.6375021, "lon": 104.0240474}, "nodes": [12610044484, 12610044485, 12610044486, 12610044487, 12610044488, 12610044591, 12610044592, 12610044590, 12610044489, 12610044490, 12610044491, 12610044492, 12610044484], "tags": {"amenity": "school", "name": "四川交通运输职业学校"}}, {"type": "way", "id": 1362261737, "center": {"lat": 30.6212326, "lon": 104.027333}, "nodes": [12612416535, 12612416536, 12612416537, 12612416538, 12612416539, 12612416540, 12612416535], "tags": {"amenity": "police", "building": "yes"}}, {"type": "way", "id": 1362298471, "center": {"lat": 30.6225052, "lon": 104.0397567}, "nodes": [12612814349, 12612814350, 12612814351, 12612814352, 12612814353, 12612814354, 12612814355, 12612814356, 12612814349], "tags": {"amenity": "police", "building": "yes", "name": "高新公安"}}, {"type": "way", "id": 1362305316, "center": {"lat": 30.627798, "lon": 104.0395133}, "nodes": [12612884219, 12612884220, 12612884221, 12612884222, 12612884223, 12612884224, 12612884225, 12612884226, 12612884219], "tags": {"amenity": "police", "building": "yes", "name": "成都市交警一分局"}}, {"type": "way", "id": 1362475790, "center": {"lat": 30.6065798, "lon": 104.0292401}, "nodes": [12614924901, 12614924902, 12614924903, 12614924904, 12614924901], "tags": {"amenity": "school", "name": "成都高新区庆安小学"}}, {"type": "way", "id": 1362582590, "center": {"lat": 30.6206715, "lon": 104.0444078}, "nodes": [12615651203, 12615651204, 12615651205, 12615651206, 12615651203], "tags": {"amenity": "school", "name": "玉林中学(紫荆校区)"}}, {"type": "way", "id": 1362606265, "center": {"lat": 30.614615, "lon": 104.0567182}, "nodes": [12615854868, 12615854869, 12615854870, 12615854871, 12615854872, 12615854868], "tags": {"amenity": "school", "name": "成都市棕北中学"}}, {"type": "way", "id": 1362623834, "center": {"lat": 30.6195303, "lon": 104.0732158}, "nodes": [12616013637, 12616013638, 12616013639, 12616013640, 12616013641, 12616013637], "tags": {"amenity": "school", "name": "锦官新城小学"}}, {"type": "way", "id": 1362838428, "center": {"lat": 30.6148997, "lon": 104.0733306}, "nodes": [12618141433, 12618141434, 12618141435, 12618141436, 12618141437, 12618141438, 12618141433], "tags": {"amenity": "school", "name": "成都市科华中路小学"}}, {"type": "way", "id": 1362838439, "center": {"lat": 30.6173366, "lon": 104.0732862}, "nodes": [12618141479, 12618141480, 12618141481, 12618141482, 12618141483, 12618141484, 12618141479], "tags": {"amenity": "police", "building": "yes", "name": "南站地区派出所"}}, {"type": "way", "id": 1362838464, "center": {"lat": 30.6194745, "lon": 104.0794628}, "nodes": [12618141645, 12618141646, 12618141647, 12618141648, 12618141649, 12618141650, 12618141645], "tags": {"amenity": "school", "name": "成都市望江楼小学"}}, {"type": "way", "id": 1362838468, "center": {"lat": 30.6194144, "lon": 104.078186}, "nodes": [12618141666, 12618141667, 12618141668, 12618141669, 12618141670, 12618141666], "tags": {"amenity": "kindergarten", "name": "成都市第三十七幼儿园"}}, {"type": "way", "id": 1362846542, "center": {"lat": 30.6182021, "lon": 104.0762912}, "nodes": [12618219021, 12618219022, 12618219023, 12618219024, 12618219025, 12618219026, 12618219021], "tags": {"amenity": "school", "name": "四川大学附属中学科华校区"}}, {"type": "way", "id": 1362868100, "center": {"lat": 30.5803991, "lon": 104.0458211}, "nodes": [12618407032, 12618407033, 12618407034, 12618407035, 12618407036, 12618407037, 12618407032], "tags": {"amenity": "kindergarten", "name": "宋庆龄幼儿园"}}, {"type": "way", "id": 1362868126, "center": {"lat": 30.580361, "lon": 104.0433545}, "nodes": [12618407139, 12618407140, 12618407141, 12618407142, 12618407143, 12618407144, 12618407145, 12618407146, 12618407139], "tags": {"amenity": "police", "building": "yes", "name": "石羊派出所"}}, {"type": "way", "id": 1363827996, "center": {"lat": 30.6000683, "lon": 104.0330428}, "nodes": [12628331297, 12628331298, 12628331299, 12628331300, 12628331297], "tags": {"amenity": "school", "name": "沃顿公学"}}, {"type": "way", "id": 1363842165, "center": {"lat": 30.5853317, "lon": 104.0307354}, "nodes": [12628470643, 12628470644, 12628470645, 12628470646, 12628470643], "tags": {"amenity": "kindergarten", "name": "成都高新区新南幼儿园"}}, {"type": "way", "id": 1363842273, "center": {"lat": 30.5863239, "lon": 104.0421015}, "nodes": [12628471341, 12628471342, 12628471343, 12628471344, 12628471345, 12628471346, 12628471347, 12628471348, 12628471341], "tags": {"amenity": "school", "name": "成都市石室天府中学附属小学"}}, {"type": "way", "id": 1364514705, "center": {"lat": 30.5746027, "lon": 104.1070298}, "nodes": [12636091898, 12636091899, 12636091900, 12636091901, 12636091902, 12636091903, 12636091904, 12636091905, 12636091898], "tags": {"amenity": "police", "building": "yes", "name": "高速公路一支队五大队"}}, {"type": "way", "id": 1365546975, "center": {"lat": 30.6148484, "lon": 103.9912211}, "nodes": [12645552591, 12645552595, 12645552596, 12645552597, 12645552592, 12645552591], "tags": {"amenity": "kindergarten", "name": "福锦路一段幼儿园"}}, {"type": "way", "id": 1366487689, "center": {"lat": 30.5989024, "lon": 104.0038472}, "nodes": [9678862398, 9678862399, 12655446684, 12655446685, 9678862397, 9678862398], "tags": {"amenity": "school"}}, {"type": "way", "id": 1374953369, "center": {"lat": 30.6652475, "lon": 104.0158218}, "nodes": [9122275780, 12581433782, 12581433770, 12730609808, 12581433772, 12581433773, 9122275780], "tags": {"amenity": "hospital", "emergency": "yes", "healthcare": "hospital", "healthcare:speciality": "general;internal;chiropractic;traditional_chinese_medicine;surgery", "name": "青羊区中医医院"}}, {"type": "way", "id": 1374953378, "center": {"lat": 30.6731995, "lon": 104.0254502}, "nodes": [12730609866, 12730609867, 12730609868, 12730609869, 12730609870, 12730609871, 12730609872, 12730609866], "tags": {"amenity": "kindergarten", "name": "成都市第五幼儿园（浣花分园）"}}, {"type": "way", "id": 1374953379, "center": {"lat": 30.673073, "lon": 104.0263059}, "nodes": [12730609873, 12730609874, 12730609875, 12730609876, 12730609893, 12730609877, 12730609873], "tags": {"amenity": "school", "name": "浣花小学"}}, {"type": "way", "id": 1376117463, "center": {"lat": 30.6738184, "lon": 104.0633893}, "nodes": [12741539207, 12741539226, 12741539221, 12741539206, 12741539212, 12741539213, 12741539214, 12741539215, 4474928509, 12741539207], "tags": {"amenity": "hospital", "healthcare": "hospital", "name": "成都市第三人民医院"}}, {"type": "way", "id": 1379115008, "center": {"lat": 30.673003, "lon": 104.0761223}, "nodes": [12770373168, 12770373169, 12770373170, 12770373171, 12770373172, 12770373173, 12770373174, 12770373175, 12770373168], "tags": {"amenity": "school", "education": "school", "full_name": "成都市双眼井小学", "name": "双眼井小学"}}, {"type": "way", "id": 1383761128, "center": {"lat": 30.6721451, "lon": 104.0358928}, "nodes": [12811615676, 12811615677, 12584425817, 12811615678, 12811615679, 12811615676], "tags": {"addr:city": "成都市", "addr:district": "青羊区", "addr:housenumber": "4", "addr:province": "四川省", "addr:street": "百寿路", "amenity": "university", "name": "成都师范学院（白果林校区）"}}, {"type": "way", "id": 1447076711, "center": {"lat": 30.638802, "lon": 104.0627497}, "nodes": [13277117523, 13277117518, 13277116146, 13277116145, 13277116147, 13277117532, 13277117524, 13277117548, 13277117525, 13277117550, 13277117526, 13277117519, 13277117523], "tags": {"amenity": "school", "education": "school", "name": "成都师范学院(人南校区)"}}, {"type": "way", "id": 1449291056, "center": {"lat": 30.6392872, "lon": 104.0592616}, "nodes": [13293807102, 13293807103, 13293807104, 13293807105, 13293807106, 13293807107, 13293807102], "tags": {"amenity": "hospital", "healthcare": "hospital", "name": "四川大学华西医院第六住院大楼"}}, {"type": "way", "id": 1467485130, "center": {"lat": 30.6650537, "lon": 104.0392762}, "nodes": [13459383670, 13459383671, 13459383672, 13459383673, 13459383674, 13459383675, 13459383676, 13459383677, 13459383678, 13459383679, 13459383680, 13459383681, 13459383682, 13459383670], "tags": {"addr:city": "成都市", "addr:district": "青羊区", "addr:housenumber": "17", "addr:province": "四川省", "addr:street": "一环路西二段", "amenity": "university", "education": "university", "name": "四川旅游学院（青羊校区）", "name:en": "Sichuan Tourism University (Qingyang Campus)", "name:zh": "四川旅游学院（青羊校区）"}}]}