{"version": 0.6, "generator": "Overpass API 0.7.62.10 2d4cfc48", "osm3s": {"timestamp_osm_base": "2026-02-25T14:53:46Z", "copyright": "The data included in this document is from www.openstreetmap.org. The data is made available under ODbL."}, "elements": [{"type": "node", "id": 2353239954, "lat": 22.5650996, "lon": 113.8936018, "tags": {"amenity": "hospital", "healthcare": "hospital"}}, {"type": "node", "id": 2556870274, "lat": 22.4841385, "lon": 113.8822827, "tags": {"amenity": "kindergarten"}}, {"type": "node", "id": 4382951534, "lat": 22.4974809, "lon": 113.9201962, "tags": {"amenity": "school", "education": "school", "name": "杨梅红国际少儿美术教育基地", "name:en": "Shenzhen American International School"}}, {"type": "node", "id": 4841769226, "lat": 22.4838672, "lon": 113.9085786, "tags": {"amenity": "school", "education": "school", "name:en": "QSI International School of Shekou"}}, {"type": "node", "id": 4898987111, "lat": 22.5477829, "lon": 113.9216299, "tags": {"amenity": "police", "name": "莲城社区警务室"}}, {"type": "node", "id": 4948656421, "lat": 22.5329588, "lon": 113.9384735, "tags": {"amenity": "police", "name": "高新中社区警务室", "name:zh": "高新中社区警务室", "name:zh-Hans": "高新中社区警务室", "name:zh-Hant": "高新中社區警務室"}}, {"type": "node", "id": 5190079851, "lat": 22.531632, "lon": 113.9025514, "tags": {"amenity": "police", "name": "广州铁路公安局深圳西站派出所"}}, {"type": "node", "id": 5356262819, "lat": 22.5358871, "lon": 113.9635367, "tags": {"amenity": "police", "name": "白石洲社区警务室", "operator": "沙河派出所"}}, {"type": "node", "id": 5356535184, "lat": 22.5346571, "lon": 113.9616313, "tags": {"amenity": "clinic", "healthcare": "clinic", "name": "白石洲社区健康中心"}}, {"type": "node", "id": 5715279445, "lat": 22.5719213, "lon": 113.8913748, "tags": {"amenity": "police", "name": "宝民派出所"}}, {"type": "node", "id": 6226614488, "lat": 22.4953474, "lon": 113.919776, "tags": {"amenity": "police", "name:en": "ZhaoShang Police Station"}}, {"type": "node", "id": 6246069786, "lat": 22.4930722, "lon": 113.9286337, "tags": {"amenity": "kindergarten", "education": "kindergarten", "name": "湾夏幼儿园", "name:en": "Wanxia Kindergarten"}}, {"type": "node", "id": 6307399000, "lat": 22.5393446, "lon": 113.9625036, "tags": {"amenity": "clinic", "healthcare": "clinic", "name": "仁安雅门诊部"}}, {"type": "node", "id": 6327328521, "lat": 22.5030837, "lon": 113.9190626, "tags": {"amenity": "police", "name": "招商派出所四海社区警务室", "name:zh": "招商派出所四海社区警务室"}}, {"type": "node", "id": 8391043069, "lat": 22.4910383, "lon": 113.9296948, "tags": {"amenity": "kindergarten", "education": "kindergarten", "name": "栖游记幼儿园"}}, {"type": "node", "id": 9382239292, "lat": 22.5345615, "lon": 113.8994513, "tags": {"addr:city": "深圳市", "addr:district": "南山区", "addr:housename": "前海深港基金小镇", "addr:housenumber": "128", "addr:province": "广东省", "addr:street": "桂湾五路", "addr:unit": "A区11栋", "amenity": "college", "name": "深圳改革开放干部学院", "name:en": "Shenzhen Reform and Opening Up Executive Leadership Academy", "name:zh": "深圳改革开放干部学院", "website": "http://www.szroela.org.cn/"}}, {"type": "node", "id": 12169307529, "lat": 22.5545782, "lon": 113.8826527, "tags": {"addr:district": "宝安中心区", "amenity": "clinic", "healthcare": "clinic", "name": "壹方城社区健康服务中心", "name:zh": "宝安区中医院（集团）壹方城社区健康服务中心", "operator": "深圳市宝安区中医院（集团）", "operator:type": "public", "short_name": "壹方城社康"}}, {"type": "node", "id": 12169307530, "lat": 22.555268, "lon": 113.8890982, "tags": {"amenity": "clinic", "healthcare": "clinic", "name": "壹号公馆社区健康服务中心", "name:zh": "壹号公馆社区健康服务中心", "operator": "深圳市宝安区中医院（集团）", "operator:type": "public", "short_name": "壹号公馆社康"}}, {"type": "node", "id": 12169307531, "lat": 22.5525859, "lon": 113.8945749, "tags": {"amenity": "clinic", "healthcare": "clinic", "healthcare:speciality": "general;traditional_chinese_medicine;vaccination", "name": "凯旋社区健康服务中心", "name:zh": "宝安区中医院（集团）凯旋社区健康服务中心", "operator": "深圳市宝安区中医院（集团）", "operator:type": "public", "short_name": "凯旋社康"}}, {"type": "node", "id": 12169307532, "lat": 22.5621582, "lon": 113.8849153, "tags": {"amenity": "clinic", "healthcare": "clinic", "name": "海旺社区健康服务中心", "name:zh": "海旺社区健康服务中心", "operator": "宝安区中医院（集团）", "operator:type": "public", "short_name": "海旺社康"}}, {"type": "node", "id": 12171654657, "lat": 22.493314, "lon": 113.9082191, "tags": {"amenity": "clinic", "healthcare": "clinic", "name": "沿山社区健康服务中心", "operator": "蛇口人民医院", "operator:type": "public"}}, {"type": "node", "id": 12483844817, "lat": 22.576878, "lon": 113.9125754, "tags": {"addr:city": "深圳市", "addr:district": "宝安区", "addr:province": "广东省", "addr:street": "大宝路", "amenity": "kindergarten", "name": "恒爱佳华书苑幼儿园"}}, {"type": "node", "id": 13028504923, "lat": 22.5494899, "lon": 113.8860237, "tags": {"amenity": "kindergarten", "name": "美凯思国际幼儿园"}}, {"type": "node", "id": 13227199189, "lat": 22.5603791, "lon": 113.8827708, "tags": {"amenity": "police", "name": "海旺警务室"}}, {"type": "node", "id": 13229670816, "lat": 22.5543213, "lon": 113.8824889, "tags": {"amenity": "kindergarten", "name": "温莎双语幼儿园", "name:en": "Windsor Bilingual Kindergarten"}}, {"type": "node", "id": 13230389534, "lat": 22.5760612, "lon": 113.90679, "tags": {"amenity": "police", "name": "灵芝社区警务室"}}, {"type": "node", "id": 13230389536, "lat": 22.57806, "lon": 113.9067443, "tags": {"amenity": "clinic", "healthcare": "clinic", "name": "大浪社区健康服务中心", "name:zh": "宝安区人民医院大浪社区健康服务中心", "operator": "深圳市宝安区人民医院"}}, {"type": "node", "id": 13230389537, "lat": 22.5778494, "lon": 113.9070324, "tags": {"amenity": "clinic", "healthcare": "clinic", "name": "宝安区人民医院院前急救大浪分站"}}, {"type": "node", "id": 13230389557, "lat": 22.5763093, "lon": 113.8988167, "tags": {"amenity": "clinic", "healthcare": "clinic", "healthcare:speciality": "general", "name": "中洲社区健康服务中心", "operator": "深圳市宝安区人民医院", "operator:type": "public"}}, {"type": "node", "id": 13232107359, "lat": 22.5655569, "lon": 113.9027434, "tags": {"amenity": "police", "name": "新安湖社区警务室"}}, {"type": "node", "id": 13232107387, "lat": 22.5654005, "lon": 113.9028715, "tags": {"amenity": "kindergarten", "name": "兴华幼儿园(集团)新安湖分园", "operator": "深圳市宝安区兴华幼儿园(集团)", "operator:type": "public"}}, {"type": "node", "id": 13232190443, "lat": 22.5689996, "lon": 113.8819603, "tags": {"amenity": "clinic", "healthcare": "clinic", "healthcare:speciality": "general", "name": "海华社区健康服务中心", "name:zh": "宝安区人民医院海华社区健康服务中心", "operator": "深圳市宝安区人民医院", "operator:type": "public"}}, {"type": "node", "id": 13238381372, "lat": 22.5498736, "lon": 113.8816174, "tags": {"amenity": "kindergarten", "name": "莱斯利幼儿园", "name:en": "Leslie Kindergarten", "name:zh": "莱斯利幼儿园"}}, {"type": "node", "id": 13251474126, "lat": 22.5719432, "lon": 113.8845642, "tags": {"amenity": "clinic", "healthcare": "clinic", "healthcare:speciality": "general", "name": "翻身社区健康服务站", "operator": "深圳市宝安区中医院", "operator:type": "public"}}, {"type": "node", "id": 13253281240, "lat": 22.5618904, "lon": 113.8969088, "tags": {"addr:city": "深圳市", "addr:country": "CN", "addr:district": "宝安区", "addr:housenumber": "8", "addr:neighborhood": "海乐社区", "addr:postcode": "518101", "addr:province": "广东省", "addr:street": "安乐一街", "addr:subdistrict": "新安街道", "amenity": "kindergarten", "name": "安乐幼儿园", "name:en": "Anle Kindergarten", "name:zh": "安乐幼儿园", "name:zh-Hans": "安乐幼儿园", "name:zh-Hant": "安樂幼兒園"}}, {"type": "node", "id": 13256975110, "lat": 22.4921829, "lon": 113.9223629, "tags": {"amenity": "clinic", "healthcare": "clinic", "name": "大铲社区健康服务中心"}}, {"type": "node", "id": 13260980537, "lat": 22.5388271, "lon": 113.9011569, "tags": {"amenity": "clinic", "healthcare": "clinic", "name": "龙海家园社区健康服务中心"}}, {"type": "node", "id": 13264879148, "lat": 22.5613234, "lon": 113.8896117, "tags": {"amenity": "clinic", "healthcare": "clinic", "healthcare:speciality": "general", "name": "安乐社区健康服务站", "operator": "深圳市宝安区人民医院", "operator:type": "public"}}, {"type": "node", "id": 13266822501, "lat": 22.5697092, "lon": 113.9023698, "tags": {"amenity": "police", "name": "深圳市公安局宝安分局刑事侦察大队"}}, {"type": "node", "id": 13266822502, "lat": 22.5698216, "lon": 113.9021756, "tags": {"amenity": "police", "name": "深圳市公安局宝安分局特警中队"}}, {"type": "node", "id": 13282927550, "lat": 22.5720659, "lon": 113.9077567, "tags": {"amenity": "kindergarten", "education": "kindergarten", "name": "兴华幼儿园(集团)紫云分园"}}, {"type": "node", "id": 13315900575, "lat": 22.5766846, "lon": 113.8986836, "tags": {"amenity": "kindergarten", "education": "kindergarten", "name": "新城幼儿园(集团)中洲分园"}}, {"type": "node", "id": 13351418453, "lat": 22.5749241, "lon": 113.9062518, "tags": {"amenity": "kindergarten", "education": "kindergarten", "name": "兴华幼儿园(集团)勤诚达幼儿园", "name:zh": "宝安区兴华幼儿园（集团）勤诚达幼儿园"}}, {"type": "node", "id": 13382630630, "lat": 22.5553414, "lon": 113.8981404, "tags": {"amenity": "clinic", "healthcare": "clinic", "healthcare:speciality": "general", "name": "海岸悦府社区健康服务站", "operator": "深圳市宝安区人民医院", "operator:type": "public"}}, {"type": "node", "id": 13384556537, "lat": 22.5581243, "lon": 113.9154549, "tags": {"amenity": "clinic", "healthcare": "clinic", "healthcare:speciality": "general", "name": "南联社区健康服务中心", "operator": "深圳市南山区医疗集团总部", "operator:type": "public"}}, {"type": "way", "id": 152943434, "center": {"lat": 22.507331, "lon": 113.8921859}, "nodes": [1657097365, 5806332394, 5806331811, 2540889638, 2540889540, 1657097361, 5807246968, 1657097365], "tags": {"addr:city": "深圳市", "addr:district": "南山区", "addr:housenumber": "0353号", "addr:postcode": "518054", "addr:province": "广东省", "addr:street": "前海路", "amenity": "school", "education": "school", "grades": "7-9", "loc_name": "深大附中", "name": "深圳大学附属中学初中部", "name:en": "The Affiliated High School Of Shenzhen University Junior Section", "name:zh": "深圳大学附属中学初中部", "name:zh-Hans": "深圳大学附属中学初中部", "name:zh-Hant": "深圳大學附屬中學初中部", "operator": "深圳市教育局;深圳大学", "short_name": "深大附中初中部", "website": "http://www.sdsyfz.edu.cn/", "wikidata": "Q15934162", "wikipedia": "zh:深圳大学附属中学"}}, {"type": "way", "id": 220071402, "center": {"lat": 22.5258712, "lon": 113.9282208}, "nodes": [5179216282, 2291907914, 2291907922, 2291907917, 2291907878, 2291907908, 2291907910, 5179216281, 5179216289, 5179216288, 5179216290, 5179216287, 5179216286, 7836833851, 5179216285, 7836833850, 5179216284, 5179216283, 5179216282], "tags": {"addr:city": "深圳市", "addr:district": "南山区", "addr:housenumber": "11", "addr:postcode": "518052", "addr:province": "广东省", "addr:street": "书山路", "amenity": "school", "education": "school", "grades": "1-6", "name": "学府第一小学", "name:en": "Xuefu First Primary School", "name:zh": "学府第一小学", "official_name": "南山区第二外国语学校(集团)学府第一小学", "official_name:en": "Nanshan Second Foreign Languages School (Group) Xuefu First Primary School", "official_name:zh": "南山区第二外国语学校(集团)学府第一小学", "old_name": "学府小学;学府小学海文部", "old_name:en": "Haiwen Department of Xuefu Primary School", "operator": "南山区第二外国语学校(集团)", "operator:type": "public", "phone": "+86 755 2649 7749", "short_name": "学府一小", "website": "https://xfxx.szns.edu.cn/"}}, {"type": "way", "id": 231796343, "center": {"lat": 22.5354243, "lon": 113.9338492}, "nodes": [2401265072, 2401265073, 2401265064, 2401265081, 2401265083, 2401265067, 2401265071, 2401265085, 2401265090, 2401265080, 2401265068, 2401265089, 2401265078, 2401265088, 2401265072], "tags": {"amenity": "hospital", "building": "yes", "healthcare": "hospital", "name": "校医院", "name:en": "Hospital of Shenzhen University", "name:zh": "校医院", "name:zh-Hans": "校医院", "name:zh-Hant": "校醫院"}}, {"type": "way", "id": 240804219, "center": {"lat": 22.491283, "lon": 113.9441762}, "nodes": [2484960906, 2484960814, 2484960809, 2484960870, 2484960906], "tags": {"amenity": "police", "name": "深圳灣警署 Shenzhen Bay Police Station", "name:en": "Shenzhen Bay Police Station", "name:zh": "深圳灣警署", "name:zh-Hans": "深圳湾警署", "name:zh-Hant": "深圳灣警署", "operator": "香港警務處 Hong Kong Police Force", "operator:en": "Hong Kong Police Force", "operator:short": "HKPF", "operator:wikidata": "Q25859", "operator:zh": "香港警務處", "operator:zh-Hans": "香港警务处", "operator:zh-Hant": "香港警務處"}}, {"type": "way", "id": 247365592, "center": {"lat": 22.5320101, "lon": 113.924256}, "nodes": [2542653127, 2542647772, 2542653130, 2542653125, 13176726409, 2406874766, 2406874756, 2542653127], "tags": {"amenity": "school", "education": "school", "name": "深圳（南山）中加学校 ／ 深圳南山国际学校", "name:en": "Shenzhen (Nanshan) Concord College of Sino-Canada (CCSC) / International School of Nanshan Shenzhen", "name:zh": "深圳（南山）中加学校 ／ 深圳南山国际学校", "name:zh-Hans": "深圳（南山）中加学校 ／ 深圳南山国际学校", "name:zh-Hant": "深圳（南山）中加學校 ／ 深圳南山國際學校"}}, {"type": "way", "id": 255871517, "center": {"lat": 22.5088552, "lon": 113.9304976}, "nodes": [2615866710, 12511969214, 12511969209, 5179707842, 5248282799, 5248282800, 5248282798, 5248283024, 5248283020, 5248283022, 9153574240, 5248283021, 5248283019, 5248283015, 5268168649, 5248283016, 9153574239, 5248283014, 2615866710], "tags": {"addr:city": "深圳市", "addr:country": "CN", "addr:district": "南山区", "addr:housenumber": "3002", "addr:province": "广东省", "addr:street": "东滨路", "amenity": "school", "education": "school", "name": "北京师范大学南山附属学校", "name:en": "Beijing Normal University Nanshan Affiliated School", "name:zh": "北京师范大学南山附属学校"}}, {"type": "way", "id": 255872358, "center": {"lat": 22.5141019, "lon": 113.9299147}, "nodes": [9153563500, 9153563501, 9153563502, 9153563503, 9153563504, 9153563506, 9153563500], "tags": {"addr:city": "深圳市", "addr:district": "南山区", "addr:housenumber": "19", "addr:postcode": "518054", "addr:province": "广东省", "addr:street": "登良路", "amenity": "school", "area": "yes", "education": "school", "name": "北京师范大学南山附属学校小学部", "name:en": "Nanshan Primary School Attached Beijing Normal University", "name:zh": "北京师范大学南山附属学校小学部"}}, {"type": "way", "id": 256934724, "center": {"lat": 22.4963982, "lon": 113.9159135}, "nodes": [2625560869, 5223826203, 5223826202, 5223826201, 5223826200, 4850258235, 2625560870, 2625560871, 5223826261, 12500542653, 2625560872, 2625560869], "tags": {"amenity": "school", "education": "school", "name": "育才中学", "name:en": "Yucai Middle School", "name:zh": "育才中学", "operator": "深圳市蛇口育才教育集团"}}, {"type": "way", "id": 257065319, "center": {"lat": 22.4999758, "lon": 113.9238535}, "nodes": [2626821337, 4382954478, 2626821341, 4850258332, 2626821343, 2626821347, 12617836645, 12617836646, 2626821337], "tags": {"addr:city": "深圳市", "addr:district": "南山区", "addr:housenumber": "71", "addr:postcode": "518067", "addr:province": "广东省", "addr:street": "爱榕路", "amenity": "school", "education": "school", "grades": "7-9", "isced:level": "2", "name": "育才第二中学", "name:en": "Yucai No.2 Middle School", "name:zh": "育才第二中学", "official_name": "深圳市蛇口育才教育集团第二中学", "operator": "深圳市蛇口育才教育集团", "operator:type": "public", "school": "secondary", "short_name": "育才二中"}}, {"type": "way", "id": 317225437, "center": {"lat": 22.5468961, "lon": 113.9217602}, "nodes": [2958627110, 3234677029, 3234677030, 3234677031, 3234677032, 2958627110], "tags": {"addr:city": "深圳市", "addr:country": "CN", "addr:district": "南山区", "addr:housenumber": "9", "addr:neighbourhood": "莲城社区", "addr:postcode": "518052", "addr:province": "广东省", "addr:street": "义学路", "addr:subdistrict": "南头街道", "amenity": "school", "education": "school", "grades": "7-9", "name": "深圳市南山实验教育集团麒麟中学", "name:en": "Shenzhen Nanshan Experimental Education Group Qilin Middle School", "name:zh": "深圳市南山实验教育集团麒麟中学", "name:zh-Hans": "深圳市南山实验教育集团麒麟中学", "name:zh-Hant": "深圳市南山實驗教育集團麒麟中學", "operator": "南山实验教育集团", "operator:type": "public", "short_name": "麒麟中学", "website": "https://nssy.szns.edu.cn/"}}, {"type": "way", "id": 328921316, "center": {"lat": 22.4979229, "lon": 113.9324918}, "nodes": [3357426802, 3357426820, 3357426815, 3357426813, 1728216468, 12511744467, 1728216487, 3357426822, 3357426802], "tags": {"addr:housename": "Yu cai 3rd primary school", "addr:housenumber": "1", "addr:postcode": "518067", "addr:street": "工业七路", "amenity": "school", "barrier": "fence", "education": "school", "name": "育才第四小学", "name:en": "Yucai No.4 Primary School", "name:zh": "育才第四小学", "phone": "+86 755 2683 2759", "source": "knowledge"}}, {"type": "way", "id": 329670029, "center": {"lat": 22.5322345, "lon": 113.9639972}, "nodes": [5358178323, 5358178322, 8328222760, 3365892888, 3365892889, 3365892890, 5799495122, 3365892891, 5358178323], "tags": {"amenity": "school", "education": "school", "name": "华侨城中学高中部", "name:en": "Shenzhen OCT Middle School Senior Section", "name:zh": "华侨城中学高中部"}}, {"type": "way", "id": 360733678, "center": {"lat": 22.4941774, "lon": 113.9150958}, "nodes": [3652904293, 5223826262, 3652904294, 13242864905, 5223826263, 3652904295, 3652904296, 3652904297, 3652904298, 6784538385, 3652904299, 3652904300, 3652904293], "tags": {"amenity": "school", "education": "school", "name": "育才第一小学", "name:en": "Yucai No.1 Primary School", "name:zh": "育才第一小学", "operator": "深圳市蛇口育才教育集团"}}, {"type": "way", "id": 360832720, "center": {"lat": 22.4842329, "lon": 113.927252}, "nodes": [3652906729, 3652906728, 3653917107, 12414934132, 12414934133, 3652906735, 3652906734, 3652906733, 3652906732, 3652906731, 3652906730, 3652906729], "tags": {"addr:city": "深圳市", "addr:district": "南山区", "addr:postcode": "518035", "addr:province": "广东省", "amenity": "school", "education": "school", "name": "南山外国语学校滨海中学", "name:en": "Nanshan Foreign Language School, Binhai Middle School", "name:zh": "南山外国语学校滨海中学", "operator": "南山外国语学校（集团）", "operator:type": "public", "website": "https://nswgy.szns.edu.cn/"}}, {"type": "way", "id": 362738155, "center": {"lat": 22.5732433, "lon": 113.9314956}, "nodes": [10770488080, 5140240768, 10770488079, 10775340193, 5140240776, 3669977924, 5140240807, 3669977925, 10775347260, 3669977926, 10775347258, 11196333089, 11212745050, 5578723746, 11212745051, 3669977928, 10775348528, 11937611564, 10775347286, 10775348527, 10775347285, 9263331622, 11937804105, 10770488085, 10784019114, 10770488083, 10775340191, 10784019115, 10775340190, 9263331619, 10770488080], "tags": {"addr:city": "深圳市", "addr:district": "南山区", "addr:housenumber": "3", "addr:postcode": "518055", "addr:province": "广东省", "addr:street": "创科路", "alt_name": "西丽中心区地区04-07地块", "amenity": "school", "building": "no", "capacity": "3000", "check_date": "2023-11-25", "education": "school", "fee": "yes", "grades": "10-12", "image": "https://upload.wikimedia.org/wikipedia/commons/2/2c/%E6%B7%B1%E5%9C%B3%E5%B8%82%E7%AC%AC%E4%BA%8C%E9%AB%98%E7%BA%A7%E4%B8%AD%E5%AD%A6_SS2S_%282023-09-23%29.webp", "name": "深圳市第二高级中学", "name:en": "Shenzhen Second Senior High School", "name:zh": "深圳市第二高级中学", "name:zh-Hans": "深圳市第二高级中学", "name:zh-Hant": "深圳市第二高級中學", "note": "用地性质：教育设施用地 用地面积：103354m² 备注：60班高中", "old_name": "深圳市第四高级中学", "opening_hours": "Mo-Fr 06:30-23:00; Sa 06:30-16:25; Su 19:00-23:00", "phone": "+86 755 8613 1000", "religion": "no", "short_name": "深圳二高", "source": "深圳市规划与自然资源局", "start_date": "2007-09-01", "website": "https://www.sz2g.com/", "wheelchair": "yes", "wikidata": "Q15936248", "wikimedia_commons": "File:深圳市第二高级中学 SS2S (2023-09-23).webp", "wikipedia": "zh:深圳市第二高級中學"}}, {"type": "way", "id": 376363161, "center": {"lat": 22.4987909, "lon": 113.9379617}, "nodes": [3798005605, 6831684888, 3798005581, 3798005647, 5192382264, 3798005586, 3798005644, 3798005646, 3798005582, 6831684890, 3798005592, 6831684889, 3798005612, 3798005638, 3798005596, 3798005649, 3798005591, 3798005619, 6831684891, 3798006467, 6831684887, 3798005623, 3798005605], "tags": {"addr:city": "深圳市", "addr:district": "南山区", "addr:housenumber": "6", "addr:postcode": "518057", "addr:province": "广东省", "addr:street": "岸湾七街", "amenity": "school", "education": "school", "grades": "1-9", "isced:level": "1-2", "name": "深圳湾学校", "name:en": "Shenzhen Bay School", "name:zh": "深圳湾学校", "operator": "深圳市基石教育基金会", "operator:type": "public", "phone": "+86 755 2165 0990", "website": "https://www.jseducationfoundation.com/"}}, {"type": "way", "id": 376514992, "center": {"lat": 22.5166652, "lon": 113.9182426}, "nodes": [3799248861, 3799248872, 3799248879, 3799247443, 3799247432, 3799248875, 3799247434, 11015083732, 3799248861], "tags": {"addr:city": "深圳市", "addr:district": "南山区", "addr:housenumber": "38", "addr:postcode": "518054", "addr:province": "广东省", "addr:street": "南光路", "amenity": "school", "education": "school", "grades": "1-6", "name": "南海小学", "name:en": "Nanhai Primary School", "name:zh": "南海小学"}}, {"type": "way", "id": 376686346, "center": {"lat": 22.5270814, "lon": 113.9614512}, "nodes": [3800821228, 5611356601, 3800821229, 9426005779, 9426005780, 5611356602, 3800821230, 9426005778, 3800821231, 3800821232, 5611356598, 3800821228], "tags": {"addr:city": "深圳市", "addr:district": "南山区", "addr:housenumber": "5", "addr:postcode": "518053", "addr:province": "广东省", "addr:street": "深湾一路", "amenity": "school", "education": "school", "grades": "1-6", "name": "南山实验深湾小学", "name:en": "Shenwai Primary School", "name:zh": "南山实验深湾小学", "old_name": "海滨实验小学深圳湾部", "old_name:en": "Shenzhen Bay Department of Haibin Experimental Primary School", "old_name:zh": "海滨实验小学深圳湾部", "operator": "深圳市南山实验教育集团", "operator:type": "public"}}, {"type": "way", "id": 376686348, "center": {"lat": 22.5272545, "lon": 113.9598704}, "nodes": [3800821234, 3800821235, 3851446128, 3800821237, 5611356583, 3800821234], "tags": {"addr:city": "深圳市", "addr:district": "南山区", "addr:housenumber": "29", "addr:postcode": "518053", "addr:province": "广东省", "addr:street": "白石三道", "amenity": "school", "education": "school", "grades": "0-12", "name": "深圳外国语学校国际部", "name:en": "Shen Wai International School", "name:zh": "深圳外国语学校国际部", "operator": "深圳外国语学校集团", "operator:type": "public", "short_name:en": "SWIS"}}, {"type": "way", "id": 415703355, "center": {"lat": 22.5805781, "lon": 113.9422063}, "nodes": [4166891534, 4166891535, 4166891536, 4166891537, 4166891534], "tags": {"amenity": "school", "education": "school", "name": "深圳市南山区文理实验学校（集团）科创学校", "short_name": "西丽二中"}}, {"type": "way", "id": 456147335, "center": {"lat": 22.5640069, "lon": 113.9085323}, "nodes": [4524259443, 4524259444, 4524259445, 13286867505, 13286867506, 4524259443], "tags": {"addr:city": "深圳市", "addr:district": "宝安区", "addr:housenumber": "50", "addr:province": "广东省", "addr:street": "前进一路", "amenity": "school", "education": "school", "grades": "1-9", "name": "宝安中学外国语学校(集团)", "name:en": "Bao'an Middle School Foreign Language School (Group)", "name:zh": "宝安中学外国语学校(集团)", "old_name": "龙井学校", "operator": "深圳市宝安区教育局", "operator:type": "public"}}, {"type": "way", "id": 456822245, "center": {"lat": 22.5001168, "lon": 113.9253923}, "nodes": [4530564601, 4530564602, 4530564603, 4530564604, 4530564606, 4530564607, 7275620089, 4530564608, 4530564601], "tags": {"addr:city": "深圳市", "addr:district": "南山区", "addr:housenumber": "94", "addr:postcode": "518067", "addr:province": "广东省", "addr:street": "荔园路", "amenity": "school", "education": "school", "grades": "1-6", "isced:level": "1", "name": "育才第二小学", "name:en": "Yucai No.2 Primary School", "name:zh": "育才第二小学", "official_name": "深圳市蛇口育才教育集团第二小学", "operator": "深圳市蛇口育才教育集团", "operator:type": "public", "school": "primary", "short_name": "育才二小"}}, {"type": "way", "id": 456825806, "center": {"lat": 22.5290841, "lon": 113.9201998}, "nodes": [4530589479, 5131285253, 4530589480, 2453791914, 4530589487, 4530589481, 4530589482, 4530595925, 11061514138, 4530589483, 5131285259, 4530589484, 4530589485, 11061514129, 4530589486, 11061514128, 4530589479], "tags": {"addr:city": "深圳市", "addr:district": "南山区", "addr:housenumber": "105", "addr:postcode": "518052", "addr:province": "广东省", "addr:street": "学府路", "amenity": "school", "education": "school", "grades": "1-6", "name": "海滨实验小学", "name:en": "Haibin Experimental Primary School", "name:zh": "海滨实验小学", "old_name": "海滨小学;海滨实验小学愉康部", "old_name:en": "Haibin Primary School;Yukang Department of Haibin Experimental Primary School", "old_name:zh": "海滨小学;海滨实验小学愉康部", "operator": "海滨实验小学", "operator:type": "public"}}, {"type": "way", "id": 456825812, "center": {"lat": 22.5337132, "lon": 113.9178378}, "nodes": [2403189574, 2539588695, 9072779781, 9072779810, 6837885873, 4530595933, 4530595934, 5901300181, 7314744184, 7205297298, 7314744181, 4530595935, 13161326292, 13161360235, 13161360234, 5901300802, 2290893754, 10913973290, 10913973289, 2539588713, 2403189574], "tags": {"addr:city": "深圳市", "addr:district": "南山区", "addr:housenumber": "89", "addr:postcode": "518052", "addr:province": "广东省", "addr:street": "桃园路", "alt_name": "深圳市第六人民医院", "alt_name:en": "The Sixth People's Hospital of Shenzhen", "alt_name:zh": "深圳市第六人民医院", "amenity": "hospital", "email": "sznsyy@126.com", "emergency": "yes", "healthcare": "hospital", "healthcare:speciality": "neurology;cardiology;pulmonology;haematology;nephrology;gastroenterology;endocrinology;neurosurgery;hepatology;urology;orthopaedics;thoracic_surgery;cardiac_surgery;osyrics;surgery;infectious_diseases;psychiatry;emergency;general;radiology;nuclear", "loc_name": "南山医院", "loc_name:en": "Nanshan Hospital", "loc_name:zh": "南山医院", "name": "南山区人民医院", "name:en": "Shenzhen Nanshan District People's Hospital", "name:zh": "深圳市南山区人民医院", "official_name": "深圳市南山区人民医院", "official_name:en": "Shenzhen Nanshan District People's Hospital", "official_name:zh": "深圳市南山区人民医院", "operator": "华中科技大学", "operator:type": "public", "phone": "+86 0755 2655 3111", "start_date": "1946", "website": "http://www.sznsyy.net", "wikidata": "Q30270392"}}, {"type": "way", "id": 473300413, "center": {"lat": 22.5182895, "lon": 113.9302089}, "nodes": [4674373178, 4674373179, 2433717791, 2433717793, 4674373180, 4674373181, 4674373182, 4674373183, 4674373178], "tags": {"addr:city": "深圳市", "addr:district": "南山区", "addr:housenumber": "113", "addr:postcode": "518054", "addr:province": "广东省", "addr:street": "海德一道", "amenity": "school", "education": "school", "grades": "7-9", "name": "学府中学", "name:en": "Xuefu Middle School", "name:zh": "学府中学", "official_name": "南山区第二外国语学校(集团)学府中学", "official_name:en": "Nanshan Second Foreign Languages School (Group) Xuefu Middle School", "official_name:zh": "南山区第二外国语学校(集团)学府中学", "operator": "南山区第二外国语学校(集团)", "operator:type": "public", "phone": "+86 755 2648 4180", "website": "https://xfzx.szns.edu.cn/"}}, {"type": "way", "id": 489345506, "center": {"lat": 22.5465454, "lon": 113.9472027}, "nodes": [4815894598, 4815894599, 12658831138, 5177210601, 5177210606, 4815894600, 5177210605, 5177210604, 11974672581, 4815894601, 12112202155, 5177210603, 12112202156, 5177210602, 4815894598], "tags": {"addr:city": "深圳市", "addr:country": "CN", "addr:district": "南山区", "addr:housenumber": "36", "addr:postcode": "518057", "addr:province": "广东省", "addr:street": "科发路", "addr:subdistrict": "粤海街道", "amenity": "school", "education": "school", "name": "南山外国语学校(集团)大冲学校", "name:en": "Shenzhen Nanshan Foreign Language School Dachong Campus", "name:zh": "南山外国语学校(集团)大冲学校", "name:zh-Hans": "南山外国语学校(集团)大冲学校", "name:zh-Hant": "深圳市南山外國語學校大冲學校", "operator": "南山外国语学校（集团）", "operator:type": "public", "website": "https://nswgy.szns.edu.cn/"}}, {"type": "way", "id": 492870872, "center": {"lat": 22.5473493, "lon": 113.8913411}, "nodes": [4848378874, 7283721766, 4848378875, 7283721767, 4848378868, 8486356005, 8486356006, 4848378869, 5176352047, 5176352046, 4848378870, 4848378871, 4848378872, 4848378873, 5176352045, 4848378874], "tags": {"addr:city": "深圳市", "addr:district": "宝安区", "addr:housenumber": "1333", "addr:postcode": "518110", "addr:province": "广东省", "addr:street": "新湖路", "amenity": "hospital", "emergency": "yes", "healthcare": "hospital", "healthcare:speciality": "general;anaesthetics;cardiology;cardiac_surgery;dental_oral_maxillo_facial_surgery;dermatology;dermatovenereology;diagnostic_radiology;emergency;endocrinology;gastroenterology;gynaecology;haematology;hepatology;nuclear;ophthalmology;orthopaedics;otolaryng", "name": "南方医科大学深圳医院", "name:en": "Shenzhen Hospital of Southern Medical University", "name:zh": "南方医科大学深圳医院", "operator": "南方医科大学，深圳市卫生健康委员会", "operator:type": "public", "phone": "+86 0755 23329999", "short_name": "南医大深圳医院"}}, {"type": "way", "id": 493086232, "center": {"lat": 22.5001136, "lon": 113.9194273}, "nodes": [4850176002, 4850176010, 4850176011, 4850176012, 4850176013, 4850176014, 4850176015, 4850176016, 4850176017, 4850176018, 4850176019, 4850176020, 4850176421, 4850176422, 4850176423, 4850176424, 4850176425, 4850176426, 4850176445, 4850176446, 4850176427, 4850176428, 4850176429, 4850176430, 4850176431, 4850176432, 4850176433, 4850176434, 4850176435, 4850176436, 4850176447, 4850176437, 4850176438, 4850176439, 4850176440, 4850176441, 4850176442, 4850176443, 4850176444, 4850175995, 4850176002], "tags": {"addr:city": "深圳市", "addr:district": "南山区", "addr:housenumber": "51", "addr:province": "广东省", "addr:street": "公园路", "amenity": "school", "building": "yes", "building:levels": "5", "education": "school", "name": "深圳科爱赛国际学校", "name:en": "QSI International School of Shenzhen", "name:zh": "深圳科爱赛国际学校", "operator": "科爱赛国际学校", "operator:type": "private"}}, {"type": "way", "id": 497373348, "center": {"lat": 22.5418556, "lon": 113.9006117}, "nodes": [4889417342, 5369769561, 5369769560, 5369769559, 5369769558, 5369769557, 5369769554, 4889417347, 5369769555, 4889417342], "tags": {"addr:city": "深圳市", "addr:district": "南山区", "addr:housenumber": "5388", "addr:postcode": "518052", "addr:province": "广东省", "addr:street": "怡海大道", "amenity": "school", "education": "school", "grades": "1-6", "name": "前海港湾小学", "name:en": "Qianhai Harbour School", "name:zh": "前海港湾小学", "official_name": "南山区前海创新教育集团前海港湾小学", "operator": "南山区第二外国语学校（集团）前海创新教育集团", "operator:type": "public", "website": "https://gwxx.szns.edu.cn/"}}, {"type": "way", "id": 498494538, "center": {"lat": 22.5448931, "lon": 113.9196654}, "nodes": [4898987100, 11798905710, 11798905709, 4898987101, 4898987102, 11798905712, 11798905714, 11798905716, 11798905718, 11798905721, 11798905722, 11798905736, 11798905735, 11798905734, 11798905726, 11798905728, 11798905730, 11798905729, 11798905727, 11798905725, 11798905732, 11798905733, 11798905731, 11798905724, 11798905723, 11798905720, 11798905719, 11798905717, 11798905715, 11798905713, 11798905711, 4898987103, 4898987100], "tags": {"addr:city": "深圳市", "addr:district": "南山区", "addr:housenumber": "10288", "addr:postcode": "518052", "addr:province": "广东省", "addr:street": "深南大道", "alt_name": "南山公安分局", "amenity": "police", "building": "yes", "name": "深圳市公安局南山分局", "name:en": "Shenzhen Municipal Public Security Bureau Nanshan Branch", "name:zh": "深圳市公安局南山分局"}}, {"type": "way", "id": 498494546, "center": {"lat": 22.5485374, "lon": 113.9250201}, "nodes": [4898987845, 4898987846, 4898987847, 4898987848, 8312143685, 4898987845], "tags": {"addr:city": "深圳市", "addr:country": "CN", "addr:district": "南山区", "addr:housenumber": "68", "addr:postcode": "518052", "addr:province": "广东省", "addr:street": "泉园路", "addr:subdistrict": "南山区", "amenity": "school", "education": "school", "grades": "1-6", "name": "南山实验麒麟小学", "name:en": "Nanshan Experimental Qilin Primary School", "name:zh": "南山实验麒麟小学", "name:zh-Hans": "南山实验麒麟小学", "name:zh-Hant": "南山實驗麒麟小學", "official_name": "南山实验教育集团麒麟中学", "operator": "南山实验教育集团", "operator:type": "public", "short_name": "麒麟小学", "website": "https://nssy.szns.edu.cn/"}}, {"type": "way", "id": 513231921, "center": {"lat": 22.5233515, "lon": 113.9347631}, "nodes": [5017494196, 5017494197, 5017494198, 5017494199, 9590016376, 5017494200, 5017494202, 5017494204, 5017494205, 5017494196], "tags": {"addr:city": "深圳市", "addr:district": "南山区", "addr:housenumber": "2", "addr:province": "广东省", "addr:street": "海德四道", "alt_name": "南山区第二外国语学校", "amenity": "school", "education": "school", "grades": "1-9", "name": "南山区第二外国语学校（集团）海德学校", "name:en": "Hyde School of Nanshan Second Foreign Language School (Group)", "name:zh": "南山区第二外国语学校(集团)海德学校", "phone": "+86 755 8612 6010", "short_name": "南山二外;南山二外海德学校"}}, {"type": "way", "id": 513231929, "center": {"lat": 22.5265054, "lon": 113.9467755}, "nodes": [5017496962, 11792896468, 5611356305, 5611356304, 2409704613, 2409704660, 5611356458, 5017496950, 5017496951, 5017496952, 5017496953, 5017496955, 5017496957, 11792896467, 5017496962], "tags": {"addr:city": "深圳市", "addr:district": "南山区", "addr:housenumber": "5", "addr:postcode": "518057", "addr:province": "广东省", "addr:street": "高新南环路", "amenity": "school", "education": "school", "name": "南山外国语学校(集团)高新中学", "name:en": "Nanshan Language School, Gaoxin Middle School", "name:zh": "南山外国语学校(集团)高新中学", "operator": "南山外国语学校（集团）", "operator:type": "public", "phone": "+86 755 2698 6992", "website": "https://nswgy.szns.edu.cn/"}}, {"type": "way", "id": 513231930, "center": {"lat": 22.5260574, "lon": 113.9458035}, "nodes": [5017496961, 5017496962, 5017496963, 5017496964, 5611356512, 5017496961], "tags": {"amenity": "kindergarten", "education": "kindergarten", "name": "本涛实验幼儿园"}}, {"type": "way", "id": 513231931, "center": {"lat": 22.526536, "lon": 113.9441372}, "nodes": [5017496965, 11786678917, 11786678918, 11786678919, 5017496966, 5611356522, 5017496969, 5017496970, 5017496971, 5017496972, 5017496973, 5017496974, 5017496975, 5017496976, 5611356521, 5017496965], "tags": {"addr:city": "深圳市", "addr:district": "南山区", "addr:housenumber": "11", "addr:postcode": "518057", "addr:province": "广东省", "addr:street": "高新南环路", "amenity": "school", "education": "school", "name": "南山外国语学校(集团)科苑小学", "name:en": "Nanshan Language School, Keyuan Primary School", "name:zh": "南山外国语学校(集团)科苑小学", "operator": "南山外国语学校（集团）", "operator:type": "public", "phone": "+86 755 2674 5088", "website": "https://nswgy.szns.edu.cn/"}}, {"type": "way", "id": 513275433, "center": {"lat": 22.5456163, "lon": 113.9687698}, "nodes": [5017804299, 13113467819, 13113467818, 10895379379, 5017804301, 5017804300, 5017804299], "tags": {"amenity": "school", "education": "school", "name": "沙河小学"}}, {"type": "way", "id": 513502376, "center": {"lat": 22.4976599, "lon": 113.9203041}, "nodes": [5019363642, 5019363643, 5019363644, 5019363645, 5019363646, 5019363647, 5019363648, 5019363649, 5019363650, 5019363642], "tags": {"amenity": "school", "education": "school", "name": "深美国际学校", "name:en": "Shenzhen American International School", "name:zh": "深美国际学校"}}, {"type": "way", "id": 513502377, "center": {"lat": 22.4995707, "lon": 113.9168588}, "nodes": [12638124166, 5019363656, 5019363681, 12636059040, 5019363680, 7275702372, 5019363651, 7275702384, 5019363652, 12638124166], "tags": {"addr:city": "深圳市", "addr:country": "CN", "addr:district": "南山区", "addr:housenumber": "36", "addr:postcode": "518067", "addr:province": "广东省", "addr:street": "工业七路", "addr:subdistrict": "蛇口街道", "alt_name": "中南大学湘雅二医院深圳医院", "amenity": "hospital", "emergency": "yes", "healthcare": "hospital", "name": "前海蛇口自贸区医院", "name:en": "Qianhai Shekou Free Trade Zone Hospital", "name:zh": "前海蛇口自贸区医院", "name:zh-Hans": "前海蛇口自贸区医院", "name:zh-Hant": "前海蛇口自貿區醫院", "official_name": "深圳市前海蛇口自贸区医院", "old_name": "蛇口人民医院;深圳市南山区蛇口人民医院", "old_name:en": "Shenzhen Shekou People's Hospital", "old_name:zh": "蛇口人民医院;深圳市南山区蛇口人民医院", "operator:type": "public", "website": "https://www.skhosp.cn/", "wikidata": "Q86729011", "wikipedia": "zh:蛇口人民医院"}}, {"type": "way", "id": 520359291, "center": {"lat": 22.5490763, "lon": 113.8942483}, "nodes": [5071894232, 9658924631, 12485803509, 5567304492, 12485803531, 5071894247, 12485803517, 5071894248, 5071894233, 5071894234, 5071894235, 5071894236, 5071894237, 12479861758, 5071894238, 13275697182, 12480115277, 5071894239, 5071894240, 12480115278, 12480115279, 12480115280, 5071894241, 2471008246, 13275697181, 12479861759, 2471008262, 13275697179, 5433542184, 13275697184, 5612904243, 13275697183, 5071894232], "tags": {"addr:city": "深圳市", "addr:district": "宝安中心区", "addr:housenumber": "N8区", "addr:postcode": "518101", "addr:province": "广东省", "addr:street": "湖滨西路", "amenity": "school", "description": "宝安区实验学校坐落在宝安中心区，是宝安区第一所九年一贯制公办学校、宝安区实验学校（集团）龙头学校、2005年宝安区政府重点投资项目之一、广东省一级学校等。", "education": "school", "grades": "1-9", "name": "宝安区实验学校", "name:en": "Bao'an Experimental School of Shenzhen", "name:zh": "深圳市宝安区实验学校", "official_name": "深圳市宝安区实验学校", "operator": "深圳市宝安区实验学校（集团）", "operator:type": "public", "short_name": "宝实"}}, {"type": "way", "id": 520359321, "center": {"lat": 22.557859, "lon": 113.8860918}, "nodes": [5071894780, 5071894781, 5071894782, 5071894783, 5071894784, 5071894785, 5071894786, 5071894787, 5071894788, 5071894789, 5071894790, 5071894791, 5071894795, 5071894792, 5071894793, 5071894780], "tags": {"addr:city": "深圳市", "addr:district": "宝安中心区", "addr:housenumber": "N5区", "addr:postcode": "518102", "addr:street": "海旺路", "amenity": "school", "education": "school", "grades": "1-9", "name": "宝安区实验学校(集团)海旺学校", "name:en": "Shenzhen Bao'an Experimental School (Group) Haiwang School", "name:zh": "深圳市宝安区实验学校（集团）海旺学校", "official_name": "深圳市宝安区实验学校（集团）海旺学校", "operator": "深圳市宝安区实验学校（集团）", "operator:type": "public", "short_name": "海旺学校"}}, {"type": "way", "id": 520359323, "center": {"lat": 22.5597703, "lon": 113.8835149}, "nodes": [5071894796, 5071894803, 5071894797, 5071894798, 13255397390, 13255397389, 5071894799, 7252839005, 5071894800, 5071894796], "tags": {"addr:city": "深圳市", "addr:district": "宝安区", "addr:housenumber": "2002", "addr:postcode": "518101", "addr:province": "广东省", "addr:street": "创辉路", "amenity": "school", "education": "school", "grades": "1-6", "name": "宝安区滨海小学", "name:en": "Bao'an Binhai Primary School", "name:zh": "宝安区滨海小学", "official_name": "深圳市宝安区滨海小学", "operator": "深圳市宝安区滨海小学", "operator:type": "public"}}, {"type": "way", "id": 529252027, "center": {"lat": 22.5461118, "lon": 113.9123242}, "nodes": [5141679422, 5243482457, 5243482459, 5141679424, 13206335484, 5141679425, 5243482460, 5141679426, 5141679427, 5141679428, 5141679429, 5243482452, 5243482412, 5243482413, 5141679431, 5141679432, 5141679422], "tags": {"addr:city": "深圳市", "addr:district": "南山区", "addr:housenumber": "12034", "addr:postcode": "518052", "addr:province": "广东省", "addr:street": "深南大道", "amenity": "school", "education": "school", "grades": "10-12", "name": "南头中学", "name:en": "Nantou Middle School", "name:zh": "南头中学", "operator": "南山区第二外国语学校（集团）", "operator:type": "public"}}, {"type": "way", "id": 533679875, "center": {"lat": 22.5491308, "lon": 113.951853}, "nodes": [5177211103, 5177211104, 5177211105, 5177211106, 5177211107, 7314280458, 5177211108, 7314280457, 11484304468, 5177211109, 7314280456, 5177211111, 7314280450, 5177211113, 5177211114, 5177211115, 7314280455, 7314280454, 5177211118, 5177211120, 5177211103], "tags": {"addr:city": "深圳市", "addr:country": "CN", "addr:district": "南山区", "addr:housenumber": "66", "addr:neighbourhood": "铜鼓社区", "addr:postcode": "518057", "addr:province": "广东省", "addr:street": "大冲六路", "addr:subdistrict": "粤海街道", "amenity": "school", "education": "school", "name": "南山外国语学校(集团)科华学校", "name:en": "Nanshan Language School, Kehua School", "name:zh": "南山外国语学校(集团)科华学校", "name:zh-Hans": "南山外国语学校(集团)科华学校", "name:zh-Hant": "南山外國語學校科華學校", "operator": "南山外国语学校（集团）", "operator:type": "public"}}, {"type": "way", "id": 533894272, "center": {"lat": 22.5512961, "lon": 113.9473934}, "nodes": [5178935609, 5178935610, 7314309454, 5178935611, 5178935612, 5178935613, 5178935614, 5178935615, 5178935616, 8736598137, 5178935609], "tags": {"addr:city": "深圳市", "addr:district": "南山区", "addr:housenumber": "2", "addr:postcode": "518057", "addr:province": "广东省", "addr:street": "文华路", "amenity": "school", "education": "school", "name": "南山外国语学校(集团)文华学校", "name:en": "Nanshan Language School, Wenhua School", "name:zh": "南山外国语学校(集团)文华学校", "operator": "南山外国语学校（集团）", "operator:type": "public", "phone": "+86 755 2663 0839", "website": "https://nswgy.szns.edu.cn/"}}, {"type": "way", "id": 533912106, "center": {"lat": 22.559812, "lon": 113.9427457}, "nodes": [5179091660, 5179091661, 5179091662, 5179091663, 5179091664, 5179091665, 5179091660], "tags": {"addr:city": "深圳市", "addr:district": "南山区", "addr:housenumber": "12", "addr:street": "朗山路", "alt_name": "深圳市孙逸仙心血管医院; 国家心血管疾病临床医学研究中心•深圳", "alt_name:en": "Shenzhen Sun Yat-sen Cardiovascular Hospital; National Clinical Research Center for Cardiovascular Diseases, Shenzhen", "alt_name:zh": "深圳市孙逸仙心血管医院; 国家心血管疾病临床医学研究中心•深圳", "amenity": "hospital", "healthcare": "hospital", "healthcare:speciality": "cardiology; cardiothoracic_surgery", "name": "阜外医院深圳医院", "name:en": "Fuwai Shenzhen Hospital", "name:zh": "阜外医院深圳医院", "official_name": "中国医学科学院阜外医院深圳医院", "official_name:en": "Fuwai Shenzhen Hospital, Chinese Academy of Medical Science", "official_name:zh": "中国医学科学院阜外医院深圳医院", "phone": "+86 755 82180028", "start_date": "1992-11", "website": "https://www.fuwaisz.cn/"}}, {"type": "way", "id": 533912126, "center": {"lat": 22.5629634, "lon": 113.9460116}, "nodes": [5179092237, 11810018370, 5179092238, 5179092239, 5179092240, 5179092237], "tags": {"amenity": "school", "education": "school", "name": "松坪学校中学部", "name:en": "Middle School Department of Songping School", "name:zh": "松坪学校中学部"}}, {"type": "way", "id": 533912127, "center": {"lat": 22.5629007, "lon": 113.9495405}, "nodes": [5179092241, 5179092257, 5179092242, 5179092352, 5179092245, 13105132858, 5179092247, 5179092241], "tags": {"amenity": "school", "education": "school", "name": "松坪学校小学部", "name:en": "Primary School Department of Songping School", "name:zh": "松坪学校小学部"}}, {"type": "way", "id": 533912129, "center": {"lat": 22.562278, "lon": 113.9487073}, "nodes": [5179092255, 5179092256, 5179092257, 5179092242, 5179092258, 5179092255], "tags": {"amenity": "kindergarten", "name": "南山区红太阳幼儿园"}}, {"type": "way", "id": 533912132, "center": {"lat": 22.560487, "lon": 113.9490285}, "nodes": [5179092261, 5179092262, 5179092263, 5179092271, 5179092272, 5179092273, 5179092274, 5179092275, 5179092261], "tags": {"amenity": "kindergarten", "name": "松坪山第一幼儿园"}}, {"type": "way", "id": 533912144, "center": {"lat": 22.5627814, "lon": 113.941504}, "nodes": [5179092353, 11810018356, 5179092354, 5179092355, 5179092356, 5179092353], "tags": {"amenity": "school", "education": "school", "name": "南山区松坪第二小学", "name:en": "Nanshan No.2 Songping Primary School", "name:zh": "南山区松坪第二小学"}}, {"type": "way", "id": 533923372, "center": {"lat": 22.5397668, "lon": 113.9162169}, "nodes": [5179188042, 5179188043, 5179188044, 5179188045, 5179188046, 5179188047, 5179188048, 5179188049, 5179188050, 5179188051, 5179188052, 5179188053, 5179188055, 5179188042], "tags": {"amenity": "school", "education": "school", "isced:level": "1-2", "name": "荔香学校", "name:en": "Lixiang School", "name:zh": "荔香学校"}}, {"type": "way", "id": 533923377, "center": {"lat": 22.5374652, "lon": 113.9216028}, "nodes": [5179188074, 5179188075, 5179188077, 5179188079, 5179188080, 5179188081, 5179188082, 5179188084, 5179188085, 5179188086, 5179188087, 6270515643, 5179188088, 6270515642, 5179188089, 5179188074], "tags": {"addr:city": "深圳市", "addr:district": "南山区", "addr:housenumber": "143", "addr:postcode": "518052", "addr:province": "广东省", "addr:street": "南光路", "alt_name": "南山实验学校", "amenity": "school", "education": "school", "grades": "1-6", "name": "南山实验南头小学", "name:en": "Nanshan Experimental Education Group, Nantou Primary School", "name:zh": "南山实验南头小学", "official_name": "南山实验教育集团南头小学", "operator": "南山实验教育集团", "operator:type": "public", "short_name": "南头小学", "website": "https://nssy.szns.edu.cn/"}}, {"type": "way", "id": 533923379, "center": {"lat": 22.541991, "lon": 113.9062471}, "nodes": [2290886438, 5179188096, 5179188104, 5179188097, 5179188098, 8848929522, 5179188099, 8848929521, 5179188100, 5179188118, 5179188101, 5179188102, 5179188103, 5179188119, 8848929520, 2290886438], "tags": {"addr:city": "深圳市", "addr:district": "南山区", "addr:housenumber": "3002", "addr:postcode": "518052", "addr:province": "广东省", "addr:street": "月亮湾大道", "amenity": "school", "education": "school", "grades": "1-9", "name": "南山二外同泽学校", "name:en": "Tongze School", "name:zh": "南山二外同泽学校", "official_name": "深圳市南山区第二外国语学校（集团）同泽学校", "official_name:en": "Tongze School of Nanshan Second Foreign Languages School (Group)", "official_name:zh": "深圳市南山区第二外国语学校（集团）同泽学校", "old_name": "北大附中深圳南山分校;深圳市南山为明学校", "old_name:en": "The Affiliated High School of Peking University, Shenzhen Nanshan Branch;Shenzhen Nanshan Weiming School", "old_name:zh": "北大附中深圳南山分校;深圳市南山为明学校", "operator": "南山区第二外国语学校（集团）", "operator:type": "public"}}, {"type": "way", "id": 533923385, "center": {"lat": 22.5377076, "lon": 113.9066463}, "nodes": [5179188125, 9610230455, 5179188126, 5179188128, 5179188127, 5179188125], "tags": {"amenity": "school", "education": "school", "grades": "1-6", "name": "前海小学", "name:en": "Qianhai Primary School", "name:zh": "前海小学", "operator": "南山区教育局", "operator:type": "public", "website": "https://qhxx.szns.edu.cn/"}}, {"type": "way", "id": 533926466, "center": {"lat": 22.5188046, "lon": 113.9246102}, "nodes": [5179216270, 5179216271, 5179216272, 5179216273, 5179216274, 5179216275, 5179216276, 5179216277, 5179216278, 5179216279, 5179216280, 5179216270], "tags": {"addr:city": "深圳市", "addr:district": "南山区", "addr:housenumber": "9", "addr:postcode": "518054", "addr:province": "广东省", "addr:street": "文心二路", "amenity": "school", "education": "school", "grades": "1-6", "name": "学府第二小学", "name:en": "Xuefu Second Primary School", "name:zh": "学府第二小学", "official_name": "南山区第二外国语学校(集团)学府第二小学", "official_name:en": "Nanshan Second Foreign Languages School (Group) Xuefu Second Primary School", "official_name:zh": "南山区第二外国语学校(集团)学府第二小学", "old_name": "学府小学;学府小学海珠部", "old_name:en": "Haizhu Department of Xuefu Primary School", "operator": "南山区第二外国语学校(集团)", "operator:type": "public", "phone": "+86 755 2642 2340", "short_name": "学府二小", "website": "https://xfex.szns.edu.cn/"}}, {"type": "way", "id": 539914034, "center": {"lat": 22.4957519, "lon": 113.921732}, "nodes": [5223826306, 5223826307, 5223826308, 5223826309, 5223826310, 5223826311, 5223826312, 5223826313, 5223826314, 5223826315, 5223826306], "tags": {"amenity": "police", "building": "yes", "name": "蛇口派出所", "name:en": "Shekou Police Office", "name:zh": "蛇口派出所"}}, {"type": "way", "id": 542876244, "center": {"lat": 22.4993014, "lon": 113.9307348}, "nodes": [5248281764, 5248281765, 5248281771, 5248281766, 5248281770, 5248281769, 5248281767, 5248282795, 5248281768, 5248281764], "tags": {"addr:city": "深圳市", "addr:district": "南山区", "addr:housenumber": "2", "addr:postcode": "518067", "addr:province": "广东省", "addr:street": "海月路", "amenity": "school", "education": "school", "email": "jyweiyx@szns.gov.cn", "fee": "no", "grades": "7-9", "name": "育才第三中学", "name:en": "Yucai No.3 Middle School", "name:zh": "育才第三中学", "operator": "蛇口育才教育集团", "operator:type": "public", "phone": "+86 755 2688 7413", "religion": "none", "short_name": "育才三中", "website": "https://ycsz.szns.edu.cn/"}}, {"type": "way", "id": 543153054, "center": {"lat": 22.5506237, "lon": 113.8946308}, "nodes": [5250731080, 5250731081, 5250731082, 5250731083, 5250731084, 5250731085, 5250731080], "tags": {"amenity": "kindergarten", "education": "kindergarten", "name": "新城幼儿园(集团)凯旋城幼儿园", "name:zh": "新城幼儿园（集团）凯旋城幼儿园", "official_name": "宝安区新城幼儿园（集团）凯旋城幼儿园", "operator": "宝安区新城幼儿园（集团）", "operator:type": "public"}}, {"type": "way", "id": 543176197, "center": {"lat": 22.4877457, "lon": 113.9145787}, "nodes": [5250978915, 6928688601, 5250978916, 5250978917, 6834038270, 5250978918, 5250978915], "tags": {"addr:city": "深圳市", "addr:district": "南山区", "addr:housenumber": "153", "addr:postcode": "518067", "addr:province": "广东省", "addr:street": "海昌路", "amenity": "school", "education": "school", "grades": "7-9", "name": "育才太子湾学校中学部", "name:zh": "育才太子湾学校中学部", "operator": "蛇口育才教育集团", "operator:type": "public", "website": "https://tzw.szns.edu.cn/"}}, {"type": "way", "id": 553085839, "center": {"lat": 22.5663539, "lon": 113.9785911}, "nodes": [13111341416, 13111341418, 13111341417, 13111341397, 13111341396, 13111341395, 5339279928, 5339279929, 2553922792, 13111341324, 13111341416], "tags": {"addr:city": "深圳市", "addr:country": "CN", "addr:district": "南山区", "addr:housenumber": "38", "addr:province": "广东省", "addr:street": "龙珠六路", "amenity": "school", "education": "school", "name": "深圳市龙珠中学", "name:en": "Longzhu Middle School", "name:zh": "龙珠中学", "operator": "深圳市蛇口育才教育集团"}}, {"type": "way", "id": 555076530, "center": {"lat": 22.5405193, "lon": 113.9609272}, "nodes": [5356142048, 5358135845, 5356402698, 5358359511, 5358359510, 5358135844, 5362487466, 5356142042, 5356142043, 5356142044, 5356142045, 5358178326, 5356142046, 13177474338, 13177474341, 5358385776, 5356142047, 5356142048], "tags": {"addr:city": "深圳市", "addr:country": "CN", "addr:district": "南山区", "addr:housenumber": "33", "addr:neighbourhood": "白石洲西社区", "addr:postcode": "518052", "addr:province": "广东省", "addr:street": "石洲中路", "addr:subdistrict": "沙河街道", "amenity": "school", "education": "school", "grades": "1-9", "name": "南山实验白石洲学校", "name:en": "Nanshan Experimental Baishizhou School", "name:zh": "南山实验白石洲学校", "name:zh-Hans": "南山实验白石洲学校", "name:zh-Hant": "南山實驗白石洲學校", "official_name": "南山实验教育集团白石洲学校", "old_name": "南山中英文学校", "operator": "南山实验教育集团", "operator:type": "public", "short_name": "白石洲学校", "website": "https://nssy.szns.edu.cn/"}}, {"type": "way", "id": 555086128, "center": {"lat": 22.5386519, "lon": 113.9607263}, "nodes": [5356263021, 5358385755, 5362487485, 5356263022, 5358385757, 5358385764, 5362487477, 5358385767, 5362487479, 5356263023, 5356263025, 5358385759, 5356263021], "tags": {"addr:city": "深圳市", "addr:country": "CN", "addr:district": "南山区", "addr:housenumber": "12", "addr:neighbourhood": "白石洲西社区", "addr:postcode": "518052", "addr:province": "广东省", "addr:street": "石洲北路", "addr:subdistrict": "沙河街道", "amenity": "police", "name": "沙河派出所", "name:en": "Shahe Police Station", "name:zh": "沙河派出所", "name:zh-Hans": "沙河派出所", "name:zh-Hant": "沙河派出所", "operator": "深圳市南山公安分局"}}, {"type": "way", "id": 559306368, "center": {"lat": 22.5741466, "lon": 113.9138937}, "nodes": [5394800719, 5394800720, 12483533635, 5394802121, 5394802122, 12480225288, 12480225286, 5394802123, 5394802124, 12483533665, 12480225283, 12480225287, 5394802125, 5394802126, 5394802127, 12483533664, 5394800719], "tags": {"addr:city": "深圳市", "addr:district": "宝安区", "addr:housenumber": "7", "addr:province": "广东省", "addr:street": "洪浪南路", "alt_name:en": "Bao'an Middle School (Group) Senior Section", "amenity": "school", "architect": "华阳国际设计集团", "education": "school", "grades": "9-12", "name": "宝安中学(集团)高中部", "name:en": "Bao'an Middle School (Group) Senior Section", "name:zh": "宝安中学（集团）高中部", "official_name": "深圳市宝安中学（集团）高中部", "operator": "宝安中学（集团）", "operator:type": "public"}}, {"type": "way", "id": 559306371, "center": {"lat": 22.5721457, "lon": 113.9126908}, "nodes": [5394802145, 5394802146, 5394802147, 9908986211, 5394802148, 5394802149, 5394802150, 5394802151, 5394802152, 5394802153, 12480246620, 12480246618, 5394802154, 5394802145], "tags": {"addr:city": "深圳市", "addr:district": "宝安区", "addr:housenumber": "5", "addr:province": "广东省", "addr:street": "洪浪南路", "alt_name:en": "Bao'an Middle School (Group) Junior Section", "amenity": "school", "education": "school", "grades": "7-9", "name": "宝安中学(集团)初中部", "name:en": "Bao'an Middle School (Group) Junior Section", "name:zh": "宝安中学（集团）初中部", "official_name": "深圳市宝安中学（集团）初中部", "operator": "宝安中学（集团）", "operator:type": "public"}}, {"type": "way", "id": 559306373, "center": {"lat": 22.5753316, "lon": 113.9113873}, "nodes": [5394802165, 5394802166, 5394802167, 5394802168, 5394802171, 5394802165], "tags": {"addr:city": "深圳市", "addr:district": "宝安区", "addr:housenumber": "40", "addr:street": "洪浪北路", "amenity": "school", "education": "school", "grades": "1-6", "name": "宝安中学外国语学校(集团)新蕾小学", "name:en": "Bao'an Middle School Foreign Language School (Group) Xinlei Primary School", "name:zh": "宝安中学外国语学校(集团)新蕾小学", "operator": "宝安中学外国语学校（集团）", "operator:type": "public"}}, {"type": "way", "id": 565480548, "center": {"lat": 22.5579742, "lon": 113.9201705}, "nodes": [5445931914, 5445931915, 5445931916, 5445931917, 5445931918, 5445931919, 13102907647, 5445931920, 5445931910, 5445931911, 5445931912, 5445931913, 5445931914], "tags": {"amenity": "school", "education": "school", "name": "深圳艺术学校(南山校区)"}}, {"type": "way", "id": 579823005, "center": {"lat": 22.4928509, "lon": 113.9322109}, "nodes": [5552196465, 6917077601, 6917077636, 6917077600, 6917077648, 5552196467, 5552196465], "tags": {"addr:city": "深圳市", "addr:district": "南山区", "addr:housenumber": "8-1", "addr:postcode": "518067", "addr:province": "广东省", "addr:street": "蓝天路", "amenity": "school", "education": "school", "grades": "1-6", "name": "海岸小学", "name:en": "Coastal Primary School", "name:zh": "海岸小学", "official_name": "南山区第二外国语学校（集团）海岸小学", "official_name:en": "Nanshan Second Foreign Languages School (Group) Coastal Primary School", "official_name:zh": "南山区第二外国语学校（集团）海岸小学", "operator": "南山区第二外国语学校（集团）", "operator:type": "public", "phone": "+86 755 2353 6080", "website": "https://haxx.szns.edu.cn/"}}, {"type": "way", "id": 581971320, "center": {"lat": 22.5643578, "lon": 113.9649576}, "nodes": [5567121362, 5567121363, 5567121364, 5567121365, 5567121366, 5567121367, 5567121368, 5567121369, 5567121397, 5567121370, 5567121371, 5567121396, 5567121372, 5567121395, 5567121373, 5567121374, 5567121375, 5567121394, 5567121376, 5567121377, 5567121378, 5567121379, 5567121380, 5567121381, 5567121382, 5567121383, 5567121393, 5567121384, 5567121392, 5567121385, 5567121391, 5567121386, 5567121387, 5567121388, 5567121389, 5567121390, 5567121362], "tags": {"amenity": "police", "government": "transportation", "loc_name": "西丽车管所", "name": "深圳市交警局车辆管理所", "name:en": "Shenzhen Traffic Police Bureau Vehicle Management Office", "name:zh": "深圳市交警局车辆管理所"}}, {"type": "way", "id": 581971465, "center": {"lat": 22.567849, "lon": 113.9716432}, "nodes": [5567121786, 5567121787, 5567121788, 5567121789, 5567121790, 5567121791, 5567121786], "tags": {"addr:city": "深圳市", "addr:district": "南山区", "addr:housenumber": "66号", "addr:province": "广东省", "addr:street": "龙珠大道", "amenity": "college", "name": "国家工商行政管理总局行政学院", "name:en": "School of Administration of the State Administration for Industry and Commerce", "name:zh": "国家工商行政管理总局行政学院", "operator": "国家工商行政管理总局"}}, {"type": "way", "id": 585129337, "center": {"lat": 22.5600169, "lon": 113.9213908}, "nodes": [5445931861, 5445931862, 5445931863, 5445931864, 5445931865, 5445931850, 5445931868, 5445931867, 5445931866, 5445931851, 5445931895, 5445931852, 5445931853, 5445931854, 5445931855, 5445931856, 5445931857, 5445931858, 5592195921, 5445931860, 5447286491, 5445931861], "tags": {"amenity": "school", "education": "school", "name": "深圳市博伦职业技术学校", "name:en": "Shenzhen Bolun Vocational and Technical School", "name:zh": "深圳市博伦职业技术学校", "short_name": "博伦职校"}}, {"type": "way", "id": 585481095, "center": {"lat": 22.5648718, "lon": 113.9094193}, "nodes": [5594915683, 5594915684, 8587029155, 5594915685, 8587029156, 5594915686, 5594915687, 5594915683], "tags": {"addr:city": "深圳市", "addr:district": "宝安区", "addr:housenumber": "118号", "addr:province": "广东省", "addr:street": "龙井二路", "alt_name": "宝安区人民医院;深圳市第八人民医院;南方医科大学深圳宝安医院", "alt_name:en": "Bao’an District People's Hospital;The Eighth People's Hospital of Shenzhen;Southern Medical University Shenzhen Bao'an Hospital", "alt_name:zh": "宝安区人民医院;深圳市第八人民医院;南方医科大学深圳宝安医院", "amenity": "hospital", "emergency": "yes", "healthcare": "hospital", "name": "宝安区人民医院", "name:en": "Bao’an People's Hospital", "name:zh": "宝安区人民医院", "official_name": "深圳市宝安人民医院（集团）一院", "operator": "宝安区卫生健康局"}}, {"type": "way", "id": 585481133, "center": {"lat": 22.5688317, "lon": 113.9060944}, "nodes": [5594916109, 5594916110, 13266439077, 13266439078, 5594916111, 5594916112, 5594916113, 5594916114, 5594916109], "tags": {"amenity": "school", "education": "school", "grades": "1-6", "name": "宝民小学"}}, {"type": "way", "id": 598020620, "center": {"lat": 22.5670294, "lon": 113.8798577}, "nodes": [5692559521, 5692559522, 5692559523, 5692559524, 5692559525, 5692559527, 5692559529, 5692559530, 5692559528, 5692559526, 5692559521], "tags": {"addr:city": "深圳市", "addr:district": "宝安区", "addr:housenumber": "2", "addr:province": "广东省", "addr:street": "罗田路", "alt_name": "深圳市公安局宝安分局出入境服务大厅", "amenity": "police", "building": "yes", "name": "深圳市公安局宝安分局办证大厅", "operator": "深圳市公安局宝安分局"}}, {"type": "way", "id": 598020627, "center": {"lat": 22.5672466, "lon": 113.8795808}, "nodes": [5692559554, 5692559555, 5692559556, 5692559559, 5692559557, 5692559558, 5692559535, 5692559536, 5692559554], "tags": {"amenity": "police"}}, {"type": "way", "id": 598176224, "center": {"lat": 22.4918346, "lon": 113.8872517}, "nodes": [5693598595, 5693598596, 5693598597, 5226677739, 5807247168, 5693598598, 5693598599, 5693598600, 5693598595], "tags": {"amenity": "school", "education": "school", "name": "月亮湾小学", "name:en": "Yueliangwan Elementary School", "name:zh": "月亮湾小学", "name:zh-Hans": "月亮湾小学", "name:zh-Hant": "月亮灣小學", "official_name": "深圳市南山区月亮湾小学"}}, {"type": "way", "id": 609577972, "center": {"lat": 22.5424769, "lon": 113.9809927}, "nodes": [1916783612, 1916783616, 6941771556, 6941771540, 6941771557, 5773763142, 5773763143, 6941771539, 5773763144, 5773763145, 5773763146, 5773763148, 5773763149, 5773763150, 1916783591, 1916783595, 1916783608, 1916783614, 1916783612], "tags": {"addr:city": "深圳市", "addr:district": "南山区", "addr:housenumber": "6号", "addr:postcode": "518053", "addr:province": "广东省", "addr:street": "侨城东街", "amenity": "university", "education": "university", "faculty": "tourism", "internet_access": "yes", "name": "暨南大学(深圳校区)", "name:en": "Jinan University (Shenzhen Campus)", "name:zh": "暨南大学(深圳校区)", "name:zh-Hans": "暨南大学(深圳校区)", "operator": "暨南大学", "operator:type": "university", "website": "https://sz.jnu.edu.cn/"}}, {"type": "way", "id": 610188488, "center": {"lat": 22.5388569, "lon": 113.9749291}, "nodes": [5778992466, 5778992461, 5778992462, 5778992463, 5778992464, 5778992465, 5778992471, 5778992467, 5778992468, 5778992470, 5778992469, 5778992472, 5778992466], "tags": {"amenity": "police", "building": "yes", "name": "深圳市公安局南山公交保安大队"}}, {"type": "way", "id": 613720087, "center": {"lat": 22.5121434, "lon": 113.8998339}, "nodes": [2290881693, 5806332370, 5806332371, 5806332372, 2290881627, 2290881716, 2290881705, 2290881658, 2290881693], "tags": {"addr:city": "深圳市", "addr:district": "南山区", "addr:housenumber": "270", "addr:postcode": "518052", "addr:province": "广东省", "addr:street": "前海路", "amenity": "school", "education": "school", "grades": "1-6", "name": "南山实验荔林小学", "name:en": "Nanshan Experimental Education Group, Lilin Primary School", "name:zh": "南山实验荔林小学", "official_name": "南山实验教育集团荔林小学", "operator": "南山实验教育集团", "operator:type": "public", "short_name": "荔林小学", "website": "https://nssy.szns.edu.cn/"}}, {"type": "way", "id": 613847984, "center": {"lat": 22.4981934, "lon": 113.8831799}, "nodes": [5807246969, 5807246970, 5807246971, 5807246972, 10711284296, 13390387288, 13390387289, 5807246969], "tags": {"addr:city": "深圳市", "addr:district": "南山区", "addr:housenumber": "0019", "addr:postcode": "518054", "addr:province": "广东省", "addr:street": "前海路", "amenity": "school", "education": "school", "grades": "10-12", "name": "深圳大学附属中学高中部", "name:en": "The Affiliated High School Of Shenzhen University School Senior Section", "name:zh": "深圳大学附属中学高中部", "name:zh-Hans": "深圳大学附属中学高中部", "name:zh-Hant": "深圳大學附屬中學高中部", "operator": "深圳市教育局,深圳大学", "website": "http://www.sdsyfz.edu.cn/"}}, {"type": "way", "id": 613848005, "center": {"lat": 22.5160975, "lon": 113.9000755}, "nodes": [12358226812, 5807247176, 5807247175, 13232047817, 12358226812], "tags": {"addr:city": "深圳市", "addr:country": "CN", "addr:district": "南山区", "addr:postcode": "518054", "addr:province": "广东省", "addr:street": "荔海二路", "addr:subdistrict": "前海合作区", "amenity": "school", "education": "school", "grades": "7-9", "name": "南山实验南海中学", "name:en": "Nanshan Experimental Education Group, Nanhai Middle School", "name:zh": "南山实验南海中学", "official_name": "南山实验教育集团南海中学", "official_name:zh": "南山实验教育集团南海中学", "operator": "南山实验教育集团", "operator:type": "public", "short_name": "南海中学", "website": "https://nssy.szns.edu.cn/"}}, {"type": "way", "id": 620827402, "center": {"lat": 22.50106, "lon": 113.9150845}, "nodes": [5865250251, 12636059053, 12636059054, 5865250252, 5865250253, 12636059055, 5865250254, 5865250255, 5865250256, 5865250257, 5865250251], "tags": {"addr:city": "深圳市", "addr:district": "南山区", "addr:housenumber": "30号", "addr:province": "广东省", "addr:street": "沿山路", "amenity": "school", "education": "school", "grades": "1-6", "isced:level": "1", "name": "育才第三小学", "name:en": "Yucai No.3 Primary School", "name:zh": "育才第三小学", "official_name": "深圳市蛇口育才教育集团第三小学", "operator": "深圳市蛇口育才教育集团", "school": "primary", "short_name": "育才三小"}}, {"type": "way", "id": 620827410, "center": {"lat": 22.4916688, "lon": 113.9070437}, "nodes": [1214399278, 3832605953, 3832605956, 5865250299, 5865250300, 12950040151, 5865250301, 12171674394, 12171674392, 5865250302, 5865250303, 12950040149, 5865250304, 1214399278], "tags": {"addr:city": "深圳市", "addr:district": "南山区", "addr:housenumber": "9号", "addr:province": "广东省", "addr:street": "沿山路", "alt_name": "招银大学", "amenity": "college", "name": "招商银行总行培训中心", "name:en": "China Merchants Bank Training Center", "name:zh": "招商银行总行培训中心", "operator": "招商银行"}}, {"type": "way", "id": 620827417, "center": {"lat": 22.4846237, "lon": 113.9070698}, "nodes": [5865250360, 5865250361, 5865250362, 5865250363, 5865250364, 5865250360], "tags": {"addr:city": "深圳市", "addr:district": "南山区", "addr:housenumber": "1013号", "addr:province": "广东省", "addr:street": "南海大道", "amenity": "school", "education": "school", "name": "蛇口国际学校小学部", "name:en": "Shekou International School Primary Section", "name:zh": "蛇口国际学校小学部", "name:zh-Hans": "蛇口国际学校小学部", "name:zh-Hant": "蛇口國際學校小學部", "operator": "Shekou International School"}}, {"type": "way", "id": 683866408, "center": {"lat": 22.5526725, "lon": 113.919113}, "nodes": [6405974373, 6405974374, 6405974375, 6405974376, 6405974377, 6405974378, 6405974373], "tags": {"addr:city": "深圳市", "addr:country": "CN", "addr:housenumber": "3867", "addr:neighbourhood": "addr:neighbourhood=马家龙社区", "addr:postcode": "518052", "addr:province": "广东省", "addr:street": "南山大道", "addr:subdistrict": "南头街道", "amenity": "police", "name": "南头派出所", "name:en": "Nantou Police Station", "name:zh": "南头派出所", "name:zh-Hans": "南头派出所", "name:zh-Hant": "南頭派出所"}}, {"type": "way", "id": 684699813, "center": {"lat": 22.4815773, "lon": 113.9046609}, "nodes": [6415475907, 9582323843, 6415475910, 6415475911, 11957748662, 11957748663, 9582323823, 9582323824, 9582323825, 9582323826, 9582323827, 9582323828, 6415475920, 6415475907], "tags": {"amenity": "school", "education": "school", "grades": "1-9", "name": "育才山海学校", "name:en": "Yucai Shanhai School", "name:zh": "育才山海学校", "official_name": "深圳市蛇口育才教育集团山海学校", "operator": "深圳市蛇口育才教育集团", "operator:type": "public"}}, {"type": "way", "id": 691127871, "center": {"lat": 22.5724438, "lon": 113.9262918}, "nodes": [6481741332, 6484822013, 6484822014, 6481741398, 6481741319, 6481741320, 6481741321, 6481741322, 6481741323, 6484822012, 6484822011, 6484822010, 6484822009, 6481741324, 6481741325, 6481741326, 6484822008, 6484822007, 6481741327, 6484822016, 6481741328, 6481741329, 6484822006, 6481741330, 6484822015, 6481741331, 6481741332], "tags": {"amenity": "school", "education": "school", "name": "科爱赛国际学校"}}, {"type": "way", "id": 713575425, "center": {"lat": 22.5475871, "lon": 113.8854262}, "nodes": [6709186915, 13227512061, 6709186917, 13028504859, 13028504860, 6709186919, 6709186920, 6709186921, 6709186922, 6709186923, 6709186916, 6709186924, 6709186915], "tags": {"amenity": "school", "education": "school", "grades": "1-9", "name": "宝安中学(集团)海天学校", "operator": "宝安中学（集团）", "operator:type": "public"}}, {"type": "way", "id": 727612683, "center": {"lat": 22.514116, "lon": 113.9283295}, "nodes": [12513785851, 6818559405, 12513785853, 6818559406, 12513785852, 12513785851], "tags": {"addr:city": "深圳市", "addr:district": "南山区", "addr:housenumber": "2250", "addr:postcode": "518054", "addr:province": "广东省", "addr:street": "后海大道", "amenity": "kindergarten", "education": "kindergarten", "name": "育德幼儿园", "phone": "+86 755 2647 4521", "preschool": "yes"}}, {"type": "way", "id": 729188500, "center": {"lat": 22.5019306, "lon": 113.9380134}, "nodes": [6831684902, 6831684903, 13047588176, 6831684904, 6831684905, 6831684906, 6831731285, 6831684907, 6831731286, 6831684913, 6831684914, 8606729516, 8606729515, 11895710341, 11895710340, 11895710343, 11895710342, 6831684915, 6831684916, 13047588177, 6831684917, 6831684902], "tags": {"addr:city": "深圳市", "addr:district": "南山区", "addr:housenumber": "8", "addr:postcode": "518057", "addr:province": "广东省", "addr:street": "岸湾七街", "alt_name": "南山外国语学校高中部", "amenity": "school", "education": "school", "fee": "yes", "grades": "10-12", "isced:level": "3", "name": "南山外国语学校(集团)高级中学", "name:en": "Nanshan Foreign Language School (Group) Senior High School", "name:zh": "南山外国语学校(集团)高级中学", "operator": "南山外国语学校（集团）", "operator:type": "public", "phone": "+86 755 2698 9356", "short_name": "南外高中;南外高中部", "website": "https://nswgy.szns.edu.cn/"}}, {"type": "way", "id": 729188501, "center": {"lat": 22.4957947, "lon": 113.9382197}, "nodes": [3387197911, 3387197912, 6831684920, 6831684921, 6831684922, 6831684923, 6831684924, 3387197911], "tags": {"addr:city": "深圳市", "addr:district": "南山区", "addr:housenumber": "6", "addr:postcode": "518057", "addr:province": "广东省", "addr:street": "岸湾七街", "amenity": "school", "education": "school", "grades": "1-6", "name": "深圳湾学校小学部", "name:en": "Shenzhen Bay School Primary School", "name:zh": "深圳湾学校小学部", "operator": "深圳市基石教育基金会", "operator:type": "public", "phone": "+86 755 2165 0990", "website": "https://www.jseducationfoundation.com/"}}, {"type": "way", "id": 731168040, "center": {"lat": 22.5591718, "lon": 113.9812603}, "nodes": [13111669086, 13111669093, 13111669094, 6848484282, 6848484268, 6848484269, 13111669095, 6848484270, 6848484271, 6848484272, 6848484273, 6848484274, 6848484275, 6848484276, 6848484277, 13111669092, 13111669091, 6848484278, 13111669090, 13111669088, 13111669089, 13111669087, 13111669086], "tags": {"addr:city": "深圳市", "addr:country": "CN", "addr:district": "南山区", "addr:housenumber": "6", "addr:postcode": "518055", "addr:province": "广东省", "addr:street": "龙珠八路", "amenity": "school", "education": "school", "name": "深圳大学城桃苑实验学校", "name:en": "Shenzhen University Town Taoyuan Experimental School", "name:zh": "深圳大学城桃苑实验学校"}}, {"type": "way", "id": 737700501, "center": {"lat": 22.4914518, "lon": 113.9267636}, "nodes": [6906994024, 6906994023, 6906994005, 6906994022, 6906994003, 6906994021, 6906994004, 6906994020, 6906994019, 6906994018, 6906994017, 6906994016, 6906994015, 6906994014, 6906994013, 6906994012, 6906994011, 6906994010, 6906994009, 6906994007, 6906994006, 6906994008, 6906994024], "tags": {"amenity": "school", "education": "school", "grades": "1-9", "name": "蛇口学校", "name:en": "Shekou School", "name:zh": "蛇口学校", "official_name": "深圳市南山区蛇口学校"}}, {"type": "way", "id": 740015209, "center": {"lat": 22.4903913, "lon": 113.9254137}, "nodes": [6928687080, 6928687081, 6928695089, 6928695090, 6928695091, 6928687082, 6928687083, 6928687084, 6928695085, 6928695144, 6928695086, 6928695087, 6928695088, 6928687080], "tags": {"addr:city": "深圳市", "addr:district": "南山区", "addr:housenumber": "1号", "addr:postcode": "518052", "addr:province": "广东省", "addr:street": "湾厦路", "alt_name": "南山妇幼保健院", "amenity": "hospital", "email": "nsqfy@szns.gov.cn", "emergency": "no", "healthcare": "hospital", "name": "南山区妇幼保健院", "name:en": "Nanshan Maternity and Children’s Hospital", "name:zh": "南山区妇幼保健院", "official_name": "深圳市南山区妇幼保健院", "operator": "南山区卫生健康局", "operator:type": "government", "phone": "+85 755 87850088"}}, {"type": "way", "id": 743785552, "center": {"lat": 22.5523953, "lon": 113.8837071}, "nodes": [6961382203, 6961382204, 6961382206, 6961382207, 6961382202, 6961382201, 6961382205, 6961382203], "tags": {"addr:city": "深圳市", "addr:district": "宝安中心区", "addr:housenumber": "20", "addr:street": "海秀路", "amenity": "kindergarten", "education": "kindergarten", "name": "宝安区新城幼儿园", "name:zh": "宝安区新城幼儿园（集团）", "operator": "宝安区教育局", "operator:type": "government", "phone": "+86 0755 2349 3220"}}, {"type": "way", "id": 763288833, "center": {"lat": 22.5609189, "lon": 113.8833644}, "nodes": [7132474068, 7132473938, 7132473939, 7132474050, 7132474051, 7132474052, 7132474025, 7132474069, 5800470154, 7132474068], "tags": {"amenity": "kindergarten", "name": "天悦幼儿园"}}, {"type": "way", "id": 770690223, "center": {"lat": 22.5663809, "lon": 113.9187489}, "nodes": [7193564481, 7193564482, 7193564483, 7193564484, 10992091008, 10992091009, 7193612285, 7193612286, 7193564481], "tags": {"amenity": "school", "education": "school", "name": "同乐实验学校"}}, {"type": "way", "id": 770697250, "center": {"lat": 22.5624907, "lon": 113.9156028}, "nodes": [7193704445, 7193704446, 7193704447, 13266857923, 7193704449, 7193704445], "tags": {"amenity": "school", "education": "school", "name": "深圳市博纳学校"}}, {"type": "way", "id": 771755308, "center": {"lat": 22.5626716, "lon": 113.9101136}, "nodes": [7204712596, 7204712597, 9908986231, 13310964470, 13310964471, 8827142527, 7204712600, 13310964472, 13310964474, 13310964475, 13310964473, 13310964476, 7204712596], "tags": {"amenity": "school", "education": "school", "name": "宝安中学外国语学校(集团)宝城小学", "official_name": "深圳市宝城小学", "operator": "宝安中学外国语学校(集团)", "operator:type": "public"}}, {"type": "way", "id": 783215182, "center": {"lat": 22.5515063, "lon": 113.9500035}, "nodes": [7314280832, 7314280833, 7314280606, 5177211036, 5177211035, 7314280834, 7314280840, 7314280835, 7314280836, 7314280837, 7314280838, 7314280839, 7314280832], "tags": {"amenity": "kindergarten", "name": "爱德幼儿园"}}, {"type": "way", "id": 783219909, "center": {"lat": 22.4848184, "lon": 113.9286721}, "nodes": [7314309476, 7314309477, 7314309478, 7314309479, 7314309480, 7314309481, 7314309482, 7314309476], "tags": {"addr:city": "深圳市", "addr:district": "南山区", "addr:postcode": "518035", "addr:province": "广东省", "amenity": "school", "education": "school", "name": "南山外国语学校滨海小学", "name:en": "Nanshan Foreign Language School, Binhai Primary School", "name:zh": "南山外国语学校滨海小学", "operator": "南山外国语学校（集团）", "operator:type": "public", "website": "https://nswgy.szns.edu.cn/"}}, {"type": "way", "id": 783219911, "center": {"lat": 22.4840558, "lon": 113.9281886}, "nodes": [7314339585, 7314339586, 7314339587, 7314339588, 7314339589, 7314339590, 7314339585], "tags": {"amenity": "kindergarten", "education": "kindergarten", "name": "半岛第三幼儿园"}}, {"type": "way", "id": 783261431, "center": {"lat": 22.5218461, "lon": 113.9070172}, "nodes": [7314759532, 7314759533, 7314759534, 7314759535, 7314759532], "tags": {"amenity": "kindergarten", "name": "明泉第二幼儿园"}}, {"type": "way", "id": 783261432, "center": {"lat": 22.5250206, "lon": 113.9078631}, "nodes": [7314759540, 12343347222, 7314759541, 7314759542, 7314759543, 7314759614, 7314759506, 7314759613, 7314759507, 7314759508, 7314759509, 7314759612, 7314759510, 7314759540], "tags": {"addr:city": "深圳市", "addr:district": "南山区", "addr:housenumber": "261", "addr:postcode": "518052", "addr:province": "广东省", "addr:street": "桂庙路", "amenity": "school", "education": "school", "grades": "1-6", "name": "南山实验鼎太小学", "name:en": "Nanshan Experimental Educaiton Group, Dingtai Primary School", "name:zh": "南山实验鼎太小学", "official_name": "南山实验教育集团鼎太小学", "operator": "南山实验教育集团", "operator:type": "public", "short_name": "鼎太小学", "website": "https://nssy.szns.edu.cn/"}}, {"type": "way", "id": 783261439, "center": {"lat": 22.5332193, "lon": 113.9061163}, "nodes": [7314759634, 7314759633, 7314759629, 7314759630, 7314759631, 7314759632, 13228859759, 7314759634], "tags": {"addr:city": "深圳市", "addr:country": "CN", "addr:district": "南山区", "addr:housenumber": "1", "addr:postcode": "518052", "addr:province": "广东省", "addr:street": "桃李路", "addr:subdistrict": "南头街道", "amenity": "school", "education": "school", "grades": "1-9", "name": "南山区第二外国语学校（集团）前海学校", "name:en": "Nanshan District No.2 Foreign Language School (Group) Qianhai Campus", "name:zh": "南山区第二外国语学校（集团）前海学校", "name:zh-Hans": "南山区第二外国语学校（集团）前海学校", "name:zh-Hant": "南山區第二外國語學校（集團）前海學校", "old_name": "前海中学;前海二小;前海第二小学", "operator": "南山区教育局", "operator:type": "public", "website": "https://nsqhxx.szns.edu.cn/"}}, {"type": "way", "id": 783261459, "center": {"lat": 22.5387816, "lon": 113.9056074}, "nodes": [7314759824, 7314759825, 7314759826, 8848929553, 8848929554, 7314759829, 7314759830, 7314759824], "tags": {"amenity": "kindergarten", "education": "kindergarten", "name": "中佳星海幼儿园"}}, {"type": "way", "id": 783261460, "center": {"lat": 22.5386929, "lon": 113.9064924}, "nodes": [8848929551, 7314759832, 7314759833, 7314759834, 8848929552, 8848929551], "tags": {"amenity": "kindergarten", "education": "kindergarten", "name": "星海为明幼儿园"}}, {"type": "way", "id": 783261461, "center": {"lat": 22.5285763, "lon": 113.8991534}, "nodes": [7314759836, 11165000963, 11165000962, 11165000958, 11165000955, 12161406834, 12621119441, 12160187937, 12160187938, 12160187939, 7314759837, 7314759838, 7314759839, 7314759840, 7314759841, 7314759842, 7314759843, 12160187943, 12160187942, 12160187940, 12160187934, 12160187933, 12160187932, 12505087178, 12505087179, 12505087180, 7314759836], "tags": {"addr:city": "深圳市", "addr:district": "南山区", "addr:province": "广东省", "addr:street": "滨海大道", "amenity": "school", "education": "school", "name": "南山实验前海港湾学校", "name:en": "Nanshan Experimental Education Group, Qianhai Gangwan School", "name:zh": "南山实验前海港湾学校", "official_name": "南山实验教育集团前海港湾学校", "operator": "南山实验教育集团", "operator:type": "public", "short_name": "前海港湾学校;港湾学校", "website": "https://nssy.szns.edu.cn/"}}, {"type": "way", "id": 783261464, "center": {"lat": 22.5574967, "lon": 113.9161446}, "nodes": [7314759853, 7314759854, 7314759859, 7314759857, 7314759858, 7314759855, 7314759856, 7314759853], "tags": {"addr:city": "深圳市", "addr:district": "南山区", "addr:province": "广东省", "addr:street": "南农路", "amenity": "school", "education": "school", "grades": "1-9", "name": "南山实验园丁学校", "name:en": "Nanshan Experimental Education Group, Yuanding School", "name:zh": "南山实验园丁学校", "official_name": "南山实验教育集团园丁学校", "operator": "南山实验教育集团", "operator:type": "public", "short_name": "园丁学校", "website": "https://nssy.szns.edu.cn/"}}, {"type": "way", "id": 900829318, "center": {"lat": 22.5735339, "lon": 113.9445136}, "nodes": [8368010836, 8368010837, 8368010838, 8368010839, 8368010840, 8368010836], "tags": {"addr:city": "深圳市", "addr:district": "南山区", "addr:housenumber": "11", "addr:province": "广东省", "addr:street": "西丽南路", "amenity": "school", "education": "school", "name": "文理实验学校（集团）文理二小", "old_name": "西丽第二小学;西丽二小", "operator": "文理实验学校（集团）", "operator:type": "public"}}, {"type": "way", "id": 902350387, "center": {"lat": 22.4881328, "lon": 113.9158968}, "nodes": [8381354175, 8381354176, 8381354177, 8381354178, 8381354179, 8381354180, 8381354169, 8381354170, 8381354171, 8381354172, 8381354173, 8381354174, 8381354175], "tags": {"addr:city": "深圳市", "addr:district": "南山区", "addr:housenumber": "153", "addr:postcode": "518067", "addr:province": "广东省", "addr:street": "海昌路", "amenity": "school", "education": "school", "grades": "1-6", "name": "育才太子湾学校小学部", "name:zh": "育才太子湾学校小学部", "old_name": "海湾小学", "operator": "蛇口育才教育集团", "operator:type": "public", "website": "https://tzw.szns.edu.cn/"}}, {"type": "way", "id": 912682126, "center": {"lat": 22.5690261, "lon": 113.9582221}, "nodes": [8478304193, 8478304194, 11687895184, 8478304196, 8478304198, 11687895185, 11687895187, 11687895186, 8478304199, 11687895190, 8478304193], "tags": {"amenity": "school", "education": "school", "name": "珠光小学"}}, {"type": "way", "id": 913448499, "center": {"lat": 22.5604368, "lon": 113.9770077}, "nodes": [13111322145, 13111322156, 13111321795, 8485340607, 13111322157, 13111322147, 8485340606, 13111322146, 13111322149, 13111322150, 8485340610, 13111322158, 13111322151, 13111322152, 13111322153, 13111322148, 13111322145], "tags": {"amenity": "school", "education": "school", "name": "卓雅小学"}}, {"type": "way", "id": 913448501, "center": {"lat": 22.5601165, "lon": 113.9723673}, "nodes": [8485370917, 8485370918, 8485370919, 8485370920, 8485370917], "tags": {"amenity": "school", "education": "school", "name": "桃源小学"}}, {"type": "way", "id": 913779760, "center": {"lat": 22.5548705, "lon": 113.9627708}, "nodes": [8488370915, 8488370916, 8488370917, 11308823996, 8488370918, 8488370919, 8488370915], "tags": {"addr:city": "深圳市", "addr:country": "CN", "addr:housenumber": "68", "addr:neighbourhood": "文昌街社区", "addr:postcode": "518053", "addr:province": "广东省", "addr:street": "侨北三街", "addr:subdistrict": "沙河街道", "amenity": "school", "education": "school", "name": "香山里小学", "name:en": "Xiangshanli Primary School", "name:zh": "香山里小学", "name:zh-Hans": "香山里小学", "name:zh-Hant": "香山里小學"}}, {"type": "way", "id": 914215478, "center": {"lat": 22.5420891, "lon": 113.9720214}, "nodes": [8492099607, 8492106017, 8492099614, 8492099613, 8492099612, 8492099611, 8492099610, 8492099609, 8492099608, 8492106018, 8492106019, 8492099607], "tags": {"amenity": "kindergarten", "education": "kindergarten", "name": "世界花园幼儿园"}}, {"type": "way", "id": 942307430, "center": {"lat": 22.5112103, "lon": 113.9224845}, "nodes": [8725853649, 8725853650, 8725853651, 8725853652, 8725853653, 8725853658, 8725870838, 8725853654, 8725853655, 8725853649], "tags": {"amenity": "school", "education": "school", "grades": "1-6", "name": "南油小学", "name:en": "Nanyou Primary School", "name:zh": "南油小学"}}, {"type": "way", "id": 943577645, "center": {"lat": 22.5491218, "lon": 113.943803}, "nodes": [8736598090, 8736598091, 8736598101, 8736598102, 8736598088, 13105148191, 13105148192, 13105148193, 13105148194, 13105148195, 13105148196, 13105148197, 13105148198, 8736598090], "tags": {"amenity": "kindergarten", "name": "科苑幼儿园"}}, {"type": "way", "id": 1022008524, "center": {"lat": 22.5248652, "lon": 113.961866}, "nodes": [9426053032, 9426053051, 9426053033, 9426053058, 9426053034, 9426053035, 9426053036, 9426053057, 9426053037, 9426053056, 9426053038, 9426053039, 9426053055, 9426053040, 9426053041, 9426053054, 9426053042, 9426053052, 9426053043, 9426053044, 9426053053, 9426053045, 9426053046, 9426053047, 9426053048, 9426053049, 9426053050, 9426053032], "tags": {"amenity": "kindergarten", "name": "海滨红树西岸幼儿园"}}, {"type": "way", "id": 1022038212, "center": {"lat": 22.5328661, "lon": 113.9615283}, "nodes": [9426206839, 9426206840, 9426206841, 3800805240, 9426206707, 9426206839], "tags": {"amenity": "kindergarten", "education": "kindergarten", "name": "培基国际幼儿园"}}, {"type": "way", "id": 1023578651, "center": {"lat": 22.5294849, "lon": 113.9427699}, "nodes": [9439212125, 6897212432, 9439212204, 9439212126, 9439212203, 9439212125], "tags": {"amenity": "kindergarten", "education": "kindergarten", "name": "科技第三幼儿园"}}, {"type": "way", "id": 1037951940, "center": {"lat": 22.5315117, "lon": 113.9345467}, "nodes": [2397939500, 9560235353, 9560235354, 2397939528, 9560235355, 2397939523, 9560235356, 2397939497, 2397939510, 7243684786, 1129407915, 11399357212, 1129407916, 1129407918, 1129407922, 1129407924, 1129407925, 2386479181, 1129407926, 1129407927, 2386479166, 1169608720, 2397939515, 2397939527, 2397939606, 2397939604, 2397939531, 2397939521, 9560235347, 2397939500], "tags": {"amenity": "university", "education": "university", "name": "深圳大学(沧海校区)", "website": "https://www.szu.edu.cn/", "wikidata": "Q1945756", "wikipedia": "zh:深圳大学"}}, {"type": "way", "id": 1044408523, "center": {"lat": 22.5426521, "lon": 113.9077807}, "nodes": [9610230457, 9610230458, 9610230459, 9610230460, 9610230461, 9610230462, 9610230457], "tags": {"amenity": "kindergarten", "education": "kindergarten", "name": "世纪星振业星海幼儿园"}}, {"type": "way", "id": 1050513121, "center": {"lat": 22.4847977, "lon": 113.8957735}, "nodes": [9653733805, 9653733804, 12460630711, 9653733803, 9653733802, 9653733805], "tags": {"amenity": "kindergarten", "education": "kindergarten", "max_age": "6", "min_age": "3", "name": "龙瑞佳园幼儿园"}}, {"type": "way", "id": 1069143481, "center": {"lat": 22.4994776, "lon": 113.9366514}, "nodes": [9813802278, 9813802279, 9813802280, 9813802281, 9813802282, 9813802283, 9813802278], "tags": {"amenity": "kindergarten", "education": "kindergarten", "name": "南山区蓓蕾幼儿园深圳湾分部", "operator": "南山区蓓蕾幼儿园"}}, {"type": "way", "id": 1076347522, "center": {"lat": 22.5636814, "lon": 113.890924}, "nodes": [9870358068, 9870358069, 9870358070, 9870358071, 13255391324, 13255391325, 13255391326, 9870358068], "tags": {"addr:city": "深圳市", "addr:district": "宝安区", "addr:housenumber": "334", "addr:province": "广东省", "addr:street": "翻身路", "amenity": "school", "education": "school", "grades": "1-6", "name": "宝安区实验学校(集团)安乐小学", "name:en": "Shenzhen Bao'an Experimental School (Group) Anle Primary School", "name:zh": "宝安区实验学校(集团)安乐小学", "operator": "深圳市宝安区实验学校（集团）", "operator:type": "public"}}, {"type": "way", "id": 1081434130, "center": {"lat": 22.5666058, "lon": 113.8976651}, "nodes": [9911823545, 13266177319, 13266177316, 13266177318, 13266177317, 9911823549, 9911823550, 9911823551, 9911823552, 9911823545], "tags": {"addr:city": "深圳市", "addr:district": "宝安区", "addr:housenumber": "5", "addr:province": "广东省", "addr:street": "兴华二路", "amenity": "school", "education": "school", "grades": "7-9", "name": "新安中学(集团)初中部", "name:en": "Xin'an Middle School (Group) Junior Section", "name:zh": "新安中学(集团)初中部", "official_name": "深圳市新安中学（集团）初中部", "operator": "深圳市新安中学（集团）", "operator:type": "public"}}, {"type": "way", "id": 1081434131, "center": {"lat": 22.575229, "lon": 113.9067972}, "nodes": [9911823553, 9911823554, 12490664147, 9911823555, 9911823556, 9911823560, 9911823557, 9911823558, 9911823559, 9911823553], "tags": {"amenity": "school", "education": "school", "grades": "1-6", "name": "灵芝小学"}}, {"type": "way", "id": 1084438072, "center": {"lat": 22.5695456, "lon": 113.8844552}, "nodes": [9937398376, 9937398377, 9937398378, 12979287228, 9937398379, 9937398376], "tags": {"addr:city": "深圳市", "addr:country": "CN", "addr:district": "宝安区", "addr:housenumber": "530", "addr:neighborhood": "翻身社区", "addr:postcode": "518101", "addr:province": "广东省", "addr:street": "翻身路", "addr:subdistrict": "新安街道", "amenity": "school", "education": "school", "name": "宝安小学(集团)翻身小学", "name:en": "Bao’an Primary School (Group) — Fanshen Primary School", "name:zh": "宝安小学(集团)翻身小学", "name:zh-Hans": "宝安小学(集团)翻身小学", "name:zh-Hant": "寶安小學(集團)翻身小學", "official_name": "深圳市宝安区宝安小学（集团）翻身小学", "operator": "宝安区教育局", "operator:type": "government"}}, {"type": "way", "id": 1084438074, "center": {"lat": 22.5749386, "lon": 113.8923142}, "nodes": [9937398387, 9937398388, 9937398389, 9937398390, 9937398387], "tags": {"amenity": "school", "education": "school", "name": "建安小学"}}, {"type": "way", "id": 1084438075, "center": {"lat": 22.574824, "lon": 113.8942531}, "nodes": [9937398391, 9937398392, 9937398393, 9937398394, 9937398395, 9937398396, 13045904161, 9937398397, 9937398398, 9937398399, 9937398400, 9937398391], "tags": {"amenity": "hospital", "healthcare": "hospital", "name": "宝安中医院"}}, {"type": "way", "id": 1084438077, "center": {"lat": 22.5778783, "lon": 113.901839}, "nodes": [13253528888, 11196049353, 9937398407, 11196049352, 9937398408, 9937398409, 13253528888], "tags": {"addr:city": "深圳市", "addr:country": "CN", "addr:district": "宝安区", "addr:housenumber": "148", "addr:neighborhood": "大浪社区", "addr:postcode": "518102", "addr:province": "广东省", "addr:street": "公园路", "addr:subdistrict": "新安街道", "amenity": "school", "education": "school", "name": "孝德学校", "name:en": "Xiaode School", "name:zh": "孝德学校", "name:zh-Hans": "孝德学校", "name:zh-Hant": "孝德學校", "operator": "深圳市宝安区教育局", "operator:type": "public"}}, {"type": "way", "id": 1125377846, "center": {"lat": 22.5266862, "lon": 113.9258495}, "nodes": [10291168288, 10291168289, 10291168290, 10291168291, 10291168292, 10291168288], "tags": {"amenity": "kindergarten", "education": "kindergarten", "name": "深圳市南山区教育幼儿园"}}, {"type": "way", "id": 1157112329, "center": {"lat": 22.5777481, "lon": 113.9513597}, "nodes": [13111264377, 10760495232, 10760495233, 10760495234, 10760495235, 10760495236, 10760495237, 10751234939, 10751234938, 10760495238, 10760495239, 10760495240, 10760495241, 10760495227, 10760495228, 12525246605, 10760495229, 10760495230, 10760495231, 13111264377], "tags": {"addr:city": "深圳市", "addr:country": "CN", "addr:district": "南山区", "addr:housenumber": "2", "addr:province": "广东省", "addr:street": "珠光南路", "addr:subdistrict": "桃源街道", "amenity": "school", "education": "school", "name": "南山文理实验学校", "name:en": "Shenzhen Nanshan Arts & Sciences Experimental School", "name:zh": "南山文理实验学校"}}, {"type": "way", "id": 1164498413, "center": {"lat": 22.530452, "lon": 113.9172555}, "nodes": [10830132629, 10830132630, 10830132631, 10830132632, 10830132633, 10830132629], "tags": {"amenity": "kindergarten", "education": "kindergarten", "name": "大新幼儿园"}}, {"type": "way", "id": 1168867358, "center": {"lat": 22.4845993, "lon": 113.8900688}, "nodes": [10869744751, 10869744752, 10869744753, 10869744754, 10869744755, 10869744756, 10869744757, 10869744758, 10869744759, 10869744760, 10869744761, 10869744762, 10869744763, 10869744764, 10869744751], "tags": {"addr:city": "深圳市", "addr:district": "南山区", "addr:housenumber": "3", "addr:postcode": "518068", "addr:province": "广东省", "addr:street": "少帝路", "amenity": "school", "education": "school", "grades": "1-9", "name": "赤湾学校", "operator": "南山区第二外国语学校（集团）", "operator:type": "public"}}, {"type": "way", "id": 1169321764, "center": {"lat": 22.5297936, "lon": 113.9698884}, "nodes": [10873404633, 10873404634, 10873404635, 10873404636, 10873404633], "tags": {"amenity": "kindergarten", "name": "瑞河耶纳幼儿园", "operator": "深圳市南山外国语学校（集团）", "operator:type": "public"}}, {"type": "way", "id": 1171028917, "center": {"lat": 22.5481545, "lon": 113.9170814}, "nodes": [10882303081, 10882303082, 10882303083, 10882303084, 10882303085, 10882303086, 10882303100, 10882303087, 10882303088, 10882303089, 10882303090, 2290893759, 2290893757, 10882303091, 10882303081], "tags": {"addr:city": "深圳市", "addr:district": "南山区", "addr:housenumber": "3065", "addr:postcode": "518052", "addr:province": "广东省", "addr:street": "南山大道", "amenity": "school", "education": "school", "grades": "1-9", "name": "南头城学校", "name:en": "Nantoucheng School", "name:zh": "南头城学校", "official_name": "深圳市南山区南头城学校", "old_name": "新安县凤岗书院;新安县凤岗小学堂;宝安县立第一高等小学;宝安县莲城小学;宝安县九街小学;深圳市南山区南头城小学", "operator": "南头城学校", "operator:type": "public", "website": "https://ntcxx.szns.edu.cn/"}}, {"type": "way", "id": 1171028918, "center": {"lat": 22.5478623, "lon": 113.9180465}, "nodes": [10882303087, 10882303092, 2290893751, 10882303095, 10882303094, 10882303099, 2290893758, 10882303093, 10882303088, 10882303087], "tags": {"amenity": "kindergarten", "education": "kindergarten", "name": "南头城幼儿园", "name:en": "Nantoucheng Kindergarten", "name:zh": "南头城幼儿园"}}, {"type": "way", "id": 1171884979, "center": {"lat": 22.5016941, "lon": 113.8886323}, "nodes": [10888619743, 10888619744, 10888619745, 10888619746, 10888619747, 10888619748, 10888619749, 10888619750, 10888619743], "tags": {"amenity": "school", "education": "school", "name": "荔湾小学"}}, {"type": "way", "id": 1185209526, "center": {"lat": 22.5541718, "lon": 113.970464}, "nodes": [11009661522, 2533160984, 2533160988, 11009661540, 2533160990, 11009661523, 11009661524, 11009661522], "tags": {"addr:city": "深圳市", "addr:district": "南山区", "addr:housenumber": "6", "addr:postcode": "518053", "addr:province": "广东省", "addr:street": "香山西街", "amenity": "school", "education": "school", "grades": "1-9", "name": "南山第二实验学校", "name:en": "Nanshan Second Experimental School", "name:zh": "南山第二实验学校", "official_name": "深圳市南山外国语学校（集团）第二实验学校", "official_name:en": "深圳市南山外国语学校（集团）第二实验学校", "official_name:zh": "Shenzhen Nanshan Foreign Language School Second Experimental School", "old_name": "中央教科所南山附属学校", "operator": "深圳市南山外国语学校（集团）", "operator:type": "public"}}, {"type": "way", "id": 1185860515, "center": {"lat": 22.5232219, "lon": 113.9277157}, "nodes": [11015083713, 11015083712, 11015083714, 2539491490, 2539491516, 11015083713], "tags": {"addr:city": "深圳市", "addr:district": "南山区", "addr:housenumber": "200", "addr:province": "广东省", "addr:street": "海德三道", "amenity": "kindergarten", "education": "kindergarten", "name": "城市印象幼儿园"}}, {"type": "way", "id": 1191341158, "center": {"lat": 22.542294, "lon": 113.8993393}, "nodes": [13288723364, 13288723363, 13288723365, 11061134284, 11061134285, 11061134286, 11061134287, 11061134288, 13288723364], "tags": {"alt_name": "桂湾四单元九年一贯制学校", "amenity": "school", "education": "school", "grades": "1-9", "name": "前海桂湾学校", "name:en": "Qianhai Guiwan School", "name:zh": "前海桂湾学校", "official_name": "南山区前海创新教育集团桂湾学校", "operator": "南山区第二外国语学校（集团）前海创新教育集团", "operator:type": "public"}}, {"type": "way", "id": 1191386472, "center": {"lat": 22.5281036, "lon": 113.9207483}, "nodes": [11061469177, 11061469178, 11061469179, 11061469180, 11061469177], "tags": {"amenity": "kindergarten", "education": "kindergarten", "name": "瑞丰幼儿园"}}, {"type": "way", "id": 1196383221, "center": {"lat": 22.527774, "lon": 113.9308179}, "nodes": [11101744825, 11101744826, 11101744827, 6901200313, 6901200314, 6901200315, 11101744825], "tags": {"addr:city": "深圳市", "addr:district": "南山区", "addr:housenumber": "95", "addr:province": "广东省", "addr:street": "学府路", "amenity": "police", "name": "粤海派出所", "name:zh": "粤海派出所", "operator": "深圳市公安局"}}, {"type": "way", "id": 1204664999, "center": {"lat": 22.5306915, "lon": 113.8986667}, "nodes": [8656316405, 12161406837, 12161406838, 12161406836, 12161406835, 11165000978, 11165000964, 11165000965, 11165000977, 11165000966, 11165000979, 11165000967, 11165000968, 11165000976, 11165000969, 11165000975, 11165000970, 11165000974, 11165000971, 11165000973, 11165000972, 8656316405], "tags": {"amenity": "kindergarten", "education": "kindergarten", "name": "前海时代第一幼儿园"}}, {"type": "way", "id": 1210707559, "center": {"lat": 22.5428133, "lon": 113.9026833}, "nodes": [11217347816, 11217347817, 11217347818, 11217347819, 11217347820, 11217347821, 11217347822, 11217347823, 11217347824, 11217347825, 11217347826, 11217347827, 11217347828, 11217347816], "tags": {"addr:city": "深圳市", "addr:district": "南山区", "addr:housenumber": "375", "addr:province": "广东省", "addr:street": "月湾街", "alt_name": "深圳南山国王学校", "alt_name:en": "The King's School Shenzhen International", "amenity": "school", "education": "school", "grades": "1-12", "name": "深圳市前海国王国际学校", "name:en": "The King's School Shenzhen", "name:zh": "深圳市前海国王国际学校", "operator": "英国坎特伯雷国王学校", "operator:type": "private", "short_name:en": "KSS;KSSI"}}, {"type": "way", "id": 1210711299, "center": {"lat": 22.5086864, "lon": 113.894189}, "nodes": [3832798253, 11217424601, 11217424609, 11217424602, 11217424613, 11217424603, 11217424604, 11217424612, 11217424605, 11217424606, 11217424611, 11217424615, 11217424610, 11217424599, 3832798251, 11217424600, 3832798253], "tags": {"addr:city": "深圳市", "addr:district": "南山区", "addr:housenumber": "2", "addr:province": "广东省", "addr:street": "月丰路", "amenity": "kindergarten", "name": "深圳国王幼儿园", "name:en": "The King’s School Shenzhen International (Pre-Prep School)", "name:zh": "深圳国王幼儿园", "operator": "英国坎特伯雷国王学校", "operator:type": "private"}}, {"type": "way", "id": 1213221633, "center": {"lat": 22.5584598, "lon": 113.8852985}, "nodes": [11240480717, 11240480716, 11240480715, 11240480714, 11240480717], "tags": {"amenity": "kindergarten", "name": "新安海星幼儿园"}}, {"type": "way", "id": 1243957762, "center": {"lat": 22.5074701, "lon": 113.8829265}, "nodes": [11563330078, 11563330079, 11563330080, 11563330081, 11563330082, 11563330083, 11563330084, 11563330078], "tags": {"amenity": "school", "education": "school", "grades": "0-12", "name": "荟同学校", "name:en": "Huitong School", "name:zh": "荟同学校", "website": "http://huitongschool.cn/"}}, {"type": "way", "id": 1258728389, "center": {"lat": 22.5449495, "lon": 113.9319853}, "nodes": [11701273257, 11701273258, 11701273259, 11701273260, 11701273234, 11701273236, 11701273257], "tags": {"addr:city": "深圳市", "addr:country": "CN", "addr:district": "南山区", "addr:neighbourhood": "麻岭社区", "addr:postcode": "518057", "addr:province": "广东省", "addr:street": "科技中一路", "addr:subdistrict": "粤海街道", "amenity": "kindergarten", "name": "帝景幼儿园", "name:en": "Dijing Kindergarten", "name:zh": "帝景幼儿园", "name:zh-Hans": "帝景幼儿园", "name:zh-Hant": "帝景幼兒園"}}, {"type": "way", "id": 1269262173, "center": {"lat": 22.5465344, "lon": 113.953151}, "nodes": [5177211078, 5177211084, 11789244525, 9470754981, 5177211076, 5177211077, 9470754982, 5177211078], "tags": {"addr:city": "深圳市", "addr:country": "CN", "addr:district": "南山区", "addr:housenumber": "68", "addr:neighbourhood": "大冲社区", "addr:postcode": "518054", "addr:province": "广东省", "addr:street": "大冲三路", "addr:subdistrict": "粤海街道", "amenity": "kindergarten", "name": "润玺幼儿园", "name:en": "Park View Mansion Kindergarten", "name:zh": "润玺幼儿园", "name:zh-Hans": "润玺幼儿园", "name:zh-Hant": "潤玺幼兒園", "official_name": "深圳市南山区润玺幼儿园"}}, {"type": "way", "id": 1270598327, "center": {"lat": 22.5439127, "lon": 113.9172392}, "nodes": [11799348516, 6483273492, 6483273493, 6483273494, 11799348517, 11799348518, 11799348516], "tags": {"amenity": "hospital", "emergency": "no", "healthcare": "hospital", "name": "和美妇儿科医院"}}, {"type": "way", "id": 1271875974, "center": {"lat": 22.5791056, "lon": 113.8904617}, "nodes": [13252234428, 13252234304, 13252234427, 13252234426, 13252234425, 9524464749, 11810722917, 11810722918, 11810722919, 13252234755, 11810722916, 13252234754, 13252234428], "tags": {"addr:city": "深圳市", "addr:country": "CN", "addr:district": "宝安区", "addr:housenumber": "297", "addr:neighborhood": "文汇社区", "addr:postcode": "518133", "addr:province": "广东省", "addr:street": "前进一路", "amenity": "school", "education": "school", "name": "宝安区文汇学校", "name:en": "Shenzhen Bao'an District Wenhui School", "name:zh": "宝安区文汇学校", "name:zh-Hans": "文汇学校", "name:zh-Hant": "文匯學校"}}, {"type": "way", "id": 1276361916, "center": {"lat": 22.5452428, "lon": 113.9379622}, "nodes": [11849931210, 11849931211, 7501209765, 7501209745, 11849931212, 11849931210], "tags": {"addr:city": "深圳市", "addr:country": "CN", "addr:district": "南山区", "addr:housenumber": "3", "addr:province": "广东省", "addr:street": "翠溪路", "addr:subdistrict": "粤海街道", "amenity": "kindergarten", "name": "科技第一幼儿园", "name:en": "Keji First Kindergarten", "name:zh": "科技第一幼儿园", "name:zh-Hans": "科技第一幼儿园", "name:zh-Hant": "科技第一幼兒園", "official_name": "南山外国语学校(集团)科技第一幼儿园", "operator": "南山外国语学校(集团)"}}, {"type": "way", "id": 1286672376, "center": {"lat": 22.5473097, "lon": 113.9295725}, "nodes": [11933769381, 11933769382, 11933769383, 11933769384, 11933769385, 11933769386, 11933769387, 11933769388, 11933769389, 11933769390, 11933769391, 11933769392, 11933769393, 11933769394, 11933769381], "tags": {"addr:city": "深圳市", "addr:country": "CN", "addr:district": "南山区", "addr:housenumber": "4040", "addr:neighbourhood": "麻岭社区", "addr:postcode": "518057", "addr:province": "广东省", "addr:street": "南海大道", "addr:subdistrict": "粤海街道", "amenity": "kindergarten", "building": "kindergarten", "layer": "1", "name": "豪方幼儿园", "name:en": "Haofang Kindergarten", "name:zh": "豪方幼儿园", "name:zh-Hans": "豪方幼儿园", "name:zh-Hant": "豪方幼兒園", "preschool": "yes"}}, {"type": "way", "id": 1291650409, "center": {"lat": 22.5482727, "lon": 113.9441779}, "nodes": [11974672667, 11974672668, 11974672669, 11974672670, 11974672671, 11974672672, 11974672673, 11974672674, 11974672667], "tags": {"amenity": "driving_school", "name": "宝华驾校"}}, {"type": "way", "id": 1315037063, "center": {"lat": 22.491908, "lon": 113.9076065}, "nodes": [3832605956, 5865250299, 5865250300, 12950040151, 5865250301, 12171654670, 12950040150, 12171654677, 12171654678, 3832605956], "tags": {"amenity": "kindergarten", "education": "kindergarten", "name": "深圳市南山区兰溪谷幼儿园"}}, {"type": "way", "id": 1317093361, "center": {"lat": 22.4820802, "lon": 113.8847919}, "nodes": [12189689898, 12189689899, 12189689900, 12189689901, 12189689902, 12189689903, 12189689904, 12189689898], "tags": {"addr:city": "深圳市", "addr:district": "南山区", "addr:housenumber": "55", "addr:postcode": "518000", "addr:province": "广东省", "addr:street": "赤湾五路", "amenity": "school", "education": "school", "grades": "1-9", "name": "深圳市南山中英文学校", "operator": "北京泛亚未来教育研究中心", "operator:type": "private", "website": "https://nancic.szns.edu.cn/"}}, {"type": "way", "id": 1327466583, "center": {"lat": 22.5201184, "lon": 113.8816558}, "nodes": [13188506874, 8711385190, 8711385189, 12281167235, 12281167240, 12281167241, 12281167242, 12281167243, 6833921854, 6833921853, 8711385170, 13188506875, 13188506874], "tags": {"addr:city": "深圳市", "addr:country": "CN", "addr:district": "南山区", "addr:housenumber": "1", "addr:neighbourhood": "前湾片区", "addr:postcode": "518066", "addr:province": "广东省", "addr:street": "科创六街", "addr:subdistrict": "前海合作区", "amenity": "school", "education": "school", "name": "深圳前海哈罗港人子弟学校", "name:en": "Shenzhen Qianhai Harrow Hong Kong Children’s School", "name:zh": "深圳前海哈罗港人子弟学校", "name:zh-Hans": "深圳前海哈罗港人子弟学校", "name:zh-Hant": "深圳前海哈羅港人子弟學校", "school:international": "yes"}}, {"type": "way", "id": 1331526546, "center": {"lat": 22.5126911, "lon": 113.9115722}, "nodes": [12319948937, 13235864827, 12319948938, 13235864825, 12319948939, 12319948945, 12319948940, 12319948941, 12319948944, 12319948942, 12319948943, 12319948937], "tags": {"addr:city": "深圳市", "addr:country": "CN", "addr:district": "南山区", "addr:housenumber": "48", "addr:postcode": "518056", "addr:province": "广东省", "addr:street": "荔英路", "addr:subdistrict": "南山街道", "amenity": "school", "education": "school", "grades": "1-6", "name": "深圳大学附属教育集团外国语小学", "name:en": "Shenzhen University Affiliated Foreign Language Primary School", "name:zh": "深圳大学附属教育集团外国语小学", "name:zh-Hans": "深圳大学附属教育集团外国语小学", "name:zh-Hant": "深圳大學附屬教育集團外國語小學", "operator": "深圳大学附属教育集团", "operator:type": "public"}}, {"type": "way", "id": 1331974878, "center": {"lat": 22.5390994, "lon": 113.9108941}, "nodes": [5369959774, 12323911214, 12323911215, 12323911216, 13277134932, 13277134933, 12323911217, 5369959773, 2290886447, 5369959774], "tags": {"amenity": "school", "education": "school", "name": "大新小学"}}, {"type": "way", "id": 1331977068, "center": {"lat": 22.5266557, "lon": 113.9078498}, "nodes": [1169600529, 1169591926, 12323932285, 12657786410, 12323932286, 13121369867, 1169608860, 1169600529], "tags": {"amenity": "school", "education": "school", "name": "第二外国语学校阳光小学", "name:zh": "第二外国语学校阳光小学"}}, {"type": "way", "id": 1331979326, "center": {"lat": 22.5072465, "lon": 113.9281811}, "nodes": [2290904066, 12323856497, 12323856498, 12323856499, 12501254969, 2290904066], "tags": {"amenity": "school", "education": "school", "grades": "1-6", "name": "后海小学", "name:en": "Houhai Primary School", "name:zh": "后海小学", "operator": "深圳大学师范学院", "operator:type": "public"}}, {"type": "way", "id": 1334179495, "center": {"lat": 22.5246112, "lon": 113.9123775}, "nodes": [13172886249, 12343347240, 13172886250, 13172886251, 13172886249], "tags": {"addr:city": "深圳市", "addr:country": "CN", "addr:district": "南山区", "addr:housenumber": "90", "addr:neighbourhood": "北头社区", "addr:postcode": "518056", "addr:province": "广东省", "addr:street": "北头东街", "addr:subdistrict": "南山街道", "amenity": "kindergarten", "name": "南山幼儿园（北头东街）", "name:en": "Nanshan Kindergarten (Beitou East Street)", "name:zh": "南山幼儿园（北头东街）", "name:zh-Hans": "南山幼儿园（北头东街）", "name:zh-Hant": "南山幼兒園（北頭東街）"}}, {"type": "way", "id": 1335901515, "center": {"lat": 22.5176716, "lon": 113.8872856}, "nodes": [12357647387, 13188520238, 12357647385, 12357647386, 12357647387], "tags": {"addr:city": "深圳市", "addr:country": "CN", "addr:district": "南山区", "addr:housenumber": "3099", "addr:neighbourhood": "前湾片区", "addr:postcode": "518066", "addr:province": "广东省", "addr:street": "梦海大道", "addr:subdistrict": "前海合作区", "amenity": "hospital", "healthcare": "hospital", "name": "深圳前海泰康医院", "name:en": "Shenzhen Qianhai Taikang Hospital", "name:zh": "深圳前海泰康医院", "name:zh-Hans": "深圳前海泰康医院", "name:zh-Hant": "深圳前海泰康醫院"}}, {"type": "way", "id": 1335967125, "center": {"lat": 22.5145252, "lon": 113.9040321}, "nodes": [12358246612, 12358246613, 12358246614, 12358246617, 12358246615, 12358246618, 2290872660, 2290872645, 2290872644, 2290872673, 12358246616, 12358246612], "tags": {"addr:city": "深圳市", "addr:country": "CN", "addr:district": "南山区", "addr:housenumber": "4425", "addr:postcode": "518054", "addr:province": "广东省", "addr:street": "东滨路", "addr:subdistrict": "南山街道", "amenity": "school", "education": "school", "name": "中共深圳市南山区委党校", "name:en": "Communist Party School of Nanshan District, Shenzhen", "name:zh": "中共深圳市南山区委党校", "name:zh-Hans": "中共深圳市南山区委党校", "name:zh-Hant": "中共深圳市南山區委黨校"}}, {"type": "way", "id": 1342042430, "center": {"lat": 22.4829427, "lon": 113.9267271}, "nodes": [12414934133, 3652906736, 7314339591, 3653917104, 12414934132, 12414934133], "tags": {"amenity": "kindergarten", "area": "yes", "education": "kindergarten", "name": "半岛第二幼儿园"}}, {"type": "way", "id": 1342042431, "center": {"lat": 22.4814814, "lon": 113.9265925}, "nodes": [12414934134, 12414934135, 12414934136, 12414934137, 12414934134], "tags": {"amenity": "kindergarten", "area": "yes", "education": "kindergarten", "name": "半岛第一幼儿园"}}, {"type": "way", "id": 1349166317, "center": {"lat": 22.5581879, "lon": 113.8878347}, "nodes": [5071894769, 12480038042, 12480038070, 12480038043, 5071894768, 12480038050, 13282511242, 13282511240, 5071894769], "tags": {"addr:city": "深圳市", "addr:district": "宝安中心区", "addr:housenumber": "82", "addr:province": "广东省", "addr:street": "金桂街", "amenity": "kindergarten", "education": "kindergarten", "name": "新安海贝幼儿园", "official_name": "深圳市宝安区新安海贝幼儿园", "operator": "深圳市宝安区教育局", "operator:type": "public"}}, {"type": "way", "id": 1349467468, "center": {"lat": 22.5736967, "lon": 113.9158529}, "nodes": [12483600454, 12483600455, 12483600456, 12483600457, 12483600454], "tags": {"amenity": "police", "building": "yes"}}, {"type": "way", "id": 1349495679, "center": {"lat": 22.5781482, "lon": 113.900566}, "nodes": [12483859484, 12483859485, 12483859486, 12483859487, 12483859484], "tags": {"amenity": "school", "education": "school", "name": "冠华育才学校"}}, {"type": "way", "id": 1350941210, "center": {"lat": 22.521669, "lon": 113.9119861}, "nodes": [12498376525, 12498376526, 12498376527, 12498376528, 12498376529, 12498376530, 12498376531, 12498376525], "tags": {"amenity": "clinic", "building": "yes", "healthcare": "clinic", "name": "南园社区健康服务中心"}}, {"type": "way", "id": 1350941216, "center": {"lat": 22.5207297, "lon": 113.9091773}, "nodes": [6127565992, 12343347282, 7602210423, 6127565995, 6127565994, 6127565993, 12498376565, 6127565992], "tags": {"amenity": "kindergarten", "name": "恩和园国际托育中心"}}, {"type": "way", "id": 1351151183, "center": {"lat": 22.5132944, "lon": 113.9110479}, "nodes": [12500319502, 12500319503, 12500319510, 12500319504, 12500319509, 12500319505, 12500319506, 12500319507, 12500319508, 2290881714, 12500319502], "tags": {"amenity": "kindergarten", "name": "城市山林幼儿园"}}, {"type": "way", "id": 1351253314, "center": {"lat": 22.5024563, "lon": 113.9374479}, "nodes": [6831731286, 12501203396, 12501203397, 12501213603, 12501203398, 12501203399, 12501203400, 12501213601, 12501213602, 6831731285, 6831684907, 6831731286], "tags": {"amenity": "kindergarten", "education": "kindergarten", "name": "南山区教育幼儿园深圳湾分部", "operator": "南山区教育幼儿园", "operator:type": "public"}}, {"type": "way", "id": 1352001667, "center": {"lat": 22.5010187, "lon": 113.9311776}, "nodes": [12508739438, 12508739441, 12508739442, 12508739443, 12508739453, 12508739444, 12508739445, 12508739446, 12508739447, 12508739448, 12508739449, 12508739450, 12508739451, 12508739452, 12508739439, 12508739440, 12508739437, 12508739462, 12508739461, 12508739460, 12508739459, 12508739458, 12508739457, 12508739456, 12508739455, 12508739454, 12508739470, 12508739469, 12508739468, 12508739467, 12508739466, 12508739465, 12508739464, 12508739463, 12508739438], "tags": {"amenity": "kindergarten", "building": "kindergarten", "education": "kindergarten", "name": "海月华庭幼儿园"}}, {"type": "way", "id": 1352001702, "center": {"lat": 22.5074604, "lon": 113.9319543}, "nodes": [12508740220, 12508740219, 12508740218, 12508740217, 12508740216, 12508740215, 12508740214, 12508740213, 12508740212, 12508740211, 12508740210, 12508740209, 12508740208, 12508740207, 12508740220], "tags": {"amenity": "kindergarten", "building": "kindergarten", "education": "kindergarten", "name": "海月花园幼儿园"}}, {"type": "way", "id": 1352282054, "center": {"lat": 22.4950541, "lon": 113.9310291}, "nodes": [12511881526, 12511881525, 12511881524, 12511881630, 3798005627, 12511881528, 12511881527, 12511881526], "tags": {"amenity": "kindergarten", "education": "kindergarten", "name": "湾厦海境界幼儿园"}}, {"type": "way", "id": 1352291444, "center": {"lat": 22.5112484, "lon": 113.929569}, "nodes": [12511969224, 12511969225, 12511969226, 12511969227, 12511969228, 12511969229, 12511969230, 12511969224], "tags": {"amenity": "kindergarten", "education": "kindergarten", "name": "北京师范大学蔚蓝海岸南区幼儿园", "operator": "北京师范大学"}}, {"type": "way", "id": 1352291467, "center": {"lat": 22.5142583, "lon": 113.9323496}, "nodes": [12511969507, 12511969508, 12511969517, 12511969509, 12511969510, 12511969511, 12511969512, 12511969513, 12511969519, 12511969514, 12511969518, 12511969515, 12511969516, 12511969507], "tags": {"amenity": "kindergarten", "education": "kindergarten", "name": "蔚蓝海岸东区幼儿园"}}, {"type": "way", "id": 1352462242, "center": {"lat": 22.4909251, "lon": 113.9325373}, "nodes": [12513613709, 6917077594, 12513613717, 1169594067, 6917077593, 6917077664, 12513613718, 12513613719, 12513613720, 12513613709], "tags": {"amenity": "kindergarten", "education": "kindergarten", "name": "澳城花园幼儿园"}}, {"type": "way", "id": 1352480825, "center": {"lat": 22.5159703, "lon": 113.930597}, "nodes": [12513786162, 12513786163, 12513786164, 12513786165, 12513786166, 12513786167, 12513786168, 12513786169, 12513786171, 12513786172, 12513786175, 12513786174, 12513786173, 12513786170, 12513786162], "tags": {"amenity": "kindergarten", "building": "yes", "education": "kindergarten", "name": "北师大浪琴屿幼儿园"}}, {"type": "way", "id": 1361696438, "center": {"lat": 22.5054722, "lon": 113.9231548}, "nodes": [5019363196, 12606977501, 12606977516, 12606977502, 12606977503, 12606977504, 12606977505, 5019363196], "tags": {"amenity": "kindergarten", "education": "kindergarten", "name": "育才第四幼儿园", "name:en": "Yucai No.4 Kindergarten", "name:zh": "育才第四幼儿园", "official_name": "深圳市南山区育才第四幼儿园", "operator": "深圳市蛇口育才教育集团", "operator:type": "public", "short_name": "育才四幼"}}, {"type": "way", "id": 1363144012, "center": {"lat": 22.5021242, "lon": 113.9253063}, "nodes": [12621171164, 12621171165, 12621171166, 12621171174, 12621171175, 12621171176, 12621171177, 12621171178, 12621171179, 12621171167, 12621171173, 12621171172, 12621171171, 12621171168, 12621171169, 12621171170, 12621171164], "tags": {"amenity": "kindergarten", "education": "kindergarten", "name": "育才第三幼儿园", "name:en": "Yucai No.3 Kindergarten", "name:zh": "育才第三幼儿园", "official_name": "深圳市南山区育才第三幼儿园", "operator": "深圳市蛇口育才教育集团", "operator:type": "public", "short_name": "育才三幼"}}, {"type": "way", "id": 1364175361, "center": {"lat": 22.5060975, "lon": 113.9247109}, "nodes": [12632200551, 12632200552, 12632200553, 12632200554, 12632200558, 12632200555, 12632200556, 12632200559, 12632200557, 12632200551], "tags": {"amenity": "kindergarten", "education": "kindergarten", "name": "桂园幼儿园"}}, {"type": "way", "id": 1364511440, "center": {"lat": 22.5067685, "lon": 113.916667}, "nodes": [7275702507, 7275702506, 7275702505, 7275702504, 12636059169, 7275702520, 12636059136, 12636059185, 12636059137, 7275702507], "tags": {"amenity": "school", "education": "school", "grades": "0-12", "name": "深圳贝赛思国际学校", "name:en": "Basis International School Shenzhen", "name:zh": "深圳贝赛思国际学校", "name:zh-Hans": "深圳贝赛思国际学校", "name:zh-Hant": "深圳贝賽思國際學校", "operator": "中国 ∙ 贝赛思国际学校", "operator:type": "private"}}, {"type": "way", "id": 1364511444, "center": {"lat": 22.5073534, "lon": 113.9155421}, "nodes": [12636059136, 12636059172, 12636059173, 12636059171, 7275702520, 12636059136], "tags": {"addr:city": "深圳市", "addr:country": "CN", "addr:district": "南山区", "addr:housenumber": "10", "addr:postcode": "518067", "addr:province": "广东省", "addr:street": "兴工路", "addr:subdistrict": "招商街道", "amenity": "police", "name": "南山派出所", "name:en": "Nanshan Police Station", "name:zh": "南山派出所", "name:zh-Hans": "南山派出所", "name:zh-Hant": "南山派出所"}}, {"type": "way", "id": 1364696390, "center": {"lat": 22.5005539, "lon": 113.9168535}, "nodes": [12638124162, 12638124163, 12638124164, 12638124165, 9567437826, 12638124166, 12638124162], "tags": {"amenity": "kindergarten", "education": "kindergarten", "name": "花园城三期幼儿园"}}, {"type": "way", "id": 1366729021, "center": {"lat": 22.5265759, "lon": 113.9069603}, "nodes": [12657786410, 1169602486, 1169616732, 1169606361, 1169594197, 12323932285, 12657786410], "tags": {"amenity": "kindergarten", "name": "育才阳光幼儿园"}}, {"type": "way", "id": 1366758295, "center": {"lat": 22.4982093, "lon": 113.9257052}, "nodes": [7275607884, 12658067476, 12658067477, 12658067478, 7275607882, 7275607883, 7275607884], "tags": {"amenity": "kindergarten", "education": "kindergarten", "name": "中津雍景湾幼儿园"}}, {"type": "way", "id": 1366815969, "center": {"lat": 22.5644235, "lon": 113.9727094}, "nodes": [12658538561, 12658538562, 2550435265, 12658538563, 12658538567, 12658538564, 12658538565, 12658538566, 12658538561], "tags": {"amenity": "school", "education": "school", "name": "桃源中学"}}, {"type": "way", "id": 1366864873, "center": {"lat": 22.5475036, "lon": 113.9475164}, "nodes": [4815894599, 11789312046, 12658831137, 12658831138, 4815894599], "tags": {"addr:city": "深圳市", "addr:country": "CN", "addr:district": "南山区", "addr:housenumber": "168", "addr:province": "广东省", "addr:street": "铜鼓路", "addr:subdistrict": "粤海街道", "amenity": "kindergarten", "name": "大冲都市花园幼儿园", "name:en": "Dachong Urban Garden Kindergarten", "name:zh": "大冲都市花园幼儿园", "name:zh-Hans": "大冲都市花园幼儿园", "name:zh-Hant": "大衝都市花園幼兒園"}}, {"type": "way", "id": 1371966962, "center": {"lat": 22.4972517, "lon": 113.9254847}, "nodes": [12704015651, 12704015652, 12704015653, 12704015654, 12704015651], "tags": {"amenity": "school", "education": "school", "name": "东湾小学"}}, {"type": "way", "id": 1372266583, "center": {"lat": 22.5731209, "lon": 113.8941363}, "nodes": [12706591951, 12706591952, 12706591953, 12706591954, 12706591951], "tags": {"amenity": "school", "education": "school", "name": "裕安学校"}}, {"type": "way", "id": 1412412923, "center": {"lat": 22.5128847, "lon": 113.9058997}, "nodes": [12979221475, 12979221476, 12979221477, 12979221478, 12979221479, 12979221480, 12979221481, 12979221475], "tags": {"amenity": "school", "education": "school", "name": "丽林维育学校"}}, {"type": "way", "id": 1412416438, "center": {"lat": 22.5698089, "lon": 113.8851461}, "nodes": [9937398379, 12979287226, 12979287227, 12979287228, 9937398379], "tags": {"addr:city": "深圳市", "addr:country": "CN", "addr:district": "宝安区", "addr:housenumber": "25", "addr:neighborhood": "翻身社区", "addr:postcode": "518101", "addr:province": "广东省", "addr:street": "自由路南一巷", "addr:subdistrict": "新安街道", "amenity": "school", "education": "school", "name": "宝安区翻身实验学校（东校区）", "name:en": "Bao’an District Fanshen Experimental School (East Campus)", "name:zh": "宝安区翻身实验学校（东校区）", "name:zh-Hans": "宝安区翻身实验学校（东校区）", "name:zh-Hant": "寶安區翻身實驗學校（東校區）"}}, {"type": "way", "id": 1412426690, "center": {"lat": 22.5714885, "lon": 113.8806398}, "nodes": [13238214034, 13238214035, 13238214032, 13238214033, 13238214034], "tags": {"addr:city": "深圳市", "addr:country": "CN", "addr:district": "宝安区", "addr:housenumber": "57", "addr:neighborhood": "海华社区", "addr:postcode": "518101", "addr:province": "广东省", "addr:street": "海汇路", "addr:subdistrict": "新安街道", "amenity": "school", "education": "school", "name": "东山书院", "name:en": "Dongshan College", "name:zh": "东山书院", "name:zh-Hans": "东山书院", "name:zh-Hant": "東山書院"}}, {"type": "way", "id": 1412426693, "center": {"lat": 22.5797163, "lon": 113.8948779}, "nodes": [12979290371, 12979290372, 13267009101, 13266916299, 12979290373, 12979290375, 12979290374, 12979290371], "tags": {"amenity": "school", "education": "school", "name": "振华学校"}}, {"type": "way", "id": 1412426694, "center": {"lat": 22.5797942, "lon": 113.8944609}, "nodes": [13266916299, 13266916300, 12979290375, 12979290376, 2696194853, 13267009101, 13266916299], "tags": {"amenity": "school", "education": "school", "name": "永联学校"}}, {"type": "way", "id": 1412426695, "center": {"lat": 22.56827, "lon": 113.9104996}, "nodes": [12979290378, 12979290379, 12979290380, 12979290381, 12979290382, 12979290383, 12979290378], "tags": {"amenity": "school", "education": "school", "name": "崛起诚信实验学校"}}, {"type": "way", "id": 1415338978, "center": {"lat": 22.578224, "lon": 113.8868949}, "nodes": [13005961340, 13289075740, 13300648007, 13300648006, 13005961342, 13252235096, 13252235095, 13252235090, 13005961340], "tags": {"addr:city": "深圳市", "addr:country": "CN", "addr:district": "宝安区", "addr:housenumber": "647", "addr:neighborhood": "文汇社区", "addr:postcode": "518133", "addr:province": "广东省", "addr:street": "建安一路", "amenity": "school", "education": "school", "name": "弘雅小学", "name:en": "Hongya Primary School", "name:zh": "弘雅小学", "name:zh-Hans": "弘雅小学", "name:zh-Hant": "弘雅小學"}}, {"type": "way", "id": 1416214380, "center": {"lat": 22.567178, "lon": 113.9021014}, "nodes": [13014679250, 13014679251, 13014679252, 13014679253, 13014679254, 13014679255, 13014679250], "tags": {"amenity": "school", "education": "school", "name": "宝安中学外国语学校(集团)新安湖小学", "name:zh": "宝安中学外国语学校（集团）新安湖小学"}}, {"type": "way", "id": 1417737673, "center": {"lat": 22.5503384, "lon": 113.8824896}, "nodes": [13028504888, 13028504889, 13028504890, 13028504891, 5610887846, 13028504888], "tags": {"amenity": "kindergarten", "name": "新城幼儿园(集团)阳光文莛幼儿园", "name:zh": "新城幼儿园(集团)阳光文莛幼儿园", "operator": "深圳市宝安区新城幼儿园(集团)", "operator:type": "public"}}, {"type": "way", "id": 1417737675, "center": {"lat": 22.5480471, "lon": 113.8867792}, "nodes": [13028504918, 13028504922, 13028504919, 13028504920, 13028504921, 2471737287, 13028504918], "tags": {"amenity": "kindergarten", "education": "kindergarten", "name": "新城幼儿园(集团)熙龙湾幼儿园", "name:zh": "新城幼儿园（集团）熙龙湾幼儿园"}}, {"type": "way", "id": 1425491713, "center": {"lat": 22.5635772, "lon": 113.9181942}, "nodes": [7834032786, 7834032787, 7834032788, 13102929439, 7834032786], "tags": {"amenity": "kindergarten", "name": "同乐华泰幼儿园"}}, {"type": "way", "id": 1425727927, "center": {"lat": 22.5618244, "lon": 113.9515004}, "nodes": [13105133038, 13105133049, 13105133046, 13105133045, 13105133048, 13105133044, 13105133043, 13105133047, 13105133050, 13105133051, 13105133053, 13105133054, 13105133052, 13105133042, 13105133041, 13105133040, 13105133037, 13105133036, 13105133039, 13105133035, 13105133034, 13105133038], "tags": {"amenity": "kindergarten", "building": "school", "name": "松坪文理幼儿园", "name:zh": "松坪文理幼儿园"}}, {"type": "way", "id": 1425961078, "center": {"lat": 22.5731574, "lon": 113.9524481}, "nodes": [13108078767, 5477533163, 13108078766, 13108078763, 9417472752, 13108078767], "tags": {"amenity": "kindergarten", "name": "龙都名园幼儿园"}}, {"type": "way", "id": 1426310190, "center": {"lat": 22.5585923, "lon": 113.9760846}, "nodes": [13111292786, 13111292789, 13111292788, 13111292787, 13111292790, 13111292786], "tags": {"amenity": "kindergarten", "name": "新桃源幼儿园", "name:zh": "新桃源幼儿园"}}, {"type": "way", "id": 1426310250, "center": {"lat": 22.5607132, "lon": 113.9759624}, "nodes": [13111322160, 13111322162, 2550322703, 13111322161, 13111322164, 13111322163, 13111322160], "tags": {"amenity": "kindergarten", "name": "桃源卓雅幼儿园", "name:zh": "桃源卓雅幼儿园"}}, {"type": "way", "id": 1426310273, "center": {"lat": 22.5626478, "lon": 113.9738465}, "nodes": [13111322731, 13111322745, 13111322730, 13111322733, 13111322732, 13111322731], "tags": {"amenity": "kindergarten", "name": "桃源实验幼儿园", "name:zh": "桃源实验幼儿园"}}, {"type": "way", "id": 1426310279, "center": {"lat": 22.5611125, "lon": 113.9734839}, "nodes": [13111322838, 13111322840, 13111322842, 13111322841, 13111322839, 13111322838], "tags": {"amenity": "kindergarten", "name": "新桃源第一幼儿园", "name:zh": "新桃源第一幼儿园"}}, {"type": "way", "id": 1426311379, "center": {"lat": 22.5640913, "lon": 113.9773354}, "nodes": [13111312644, 13111312643, 13111312642, 13111312630, 13111312631, 13111312632, 13111312633, 13111312634, 13111312635, 13111312636, 13111312637, 13111312638, 13111312639, 13111312640, 13111312650, 13111312649, 13111312645, 13111312648, 13111312646, 13111312641, 13111312647, 13111312644], "tags": {"amenity": "kindergarten", "name": "龙珠俊峰丽舍幼儿园", "name:zh": "龙珠俊峰丽舍幼儿园"}}, {"type": "way", "id": 1426314379, "center": {"lat": 22.5620081, "lon": 113.9800485}, "nodes": [6559810545, 6559810544, 13111357752, 13111357754, 13111357753, 6559810545], "tags": {"amenity": "kindergarten", "name": "天地峰景幼儿园", "name:zh": "天地峰景幼儿园"}}, {"type": "way", "id": 1426327477, "center": {"lat": 22.5593168, "lon": 113.979978}, "nodes": [6848484280, 6848484281, 13111669094, 13111669093, 13111669086, 6848484280], "tags": {"amenity": "kindergarten", "name": "桃苑幼儿园", "name:zh": "桃苑幼儿园"}}, {"type": "way", "id": 1426340699, "center": {"lat": 22.552363, "lon": 113.9629403}, "nodes": [13111787452, 13111788001, 8488370906, 13111787450, 13111787451, 13111787452], "tags": {"addr:city": "深圳市", "addr:country": "CN", "addr:housenumber": "60", "addr:neighbourhood": "文昌街社区", "addr:postcode": "518053", "addr:province": "广东省", "addr:street": "香山西街", "addr:subdistrict": "沙河街道", "amenity": "kindergarten", "name": "首地幼儿园", "name:en": "Shoudi Kindergarten", "name:zh": "首地幼儿园", "name:zh-Hans": "首地幼儿园", "name:zh-Hant": "首地幼兒園"}}, {"type": "way", "id": 1426345271, "center": {"lat": 22.5560834, "lon": 113.9688529}, "nodes": [13111827838, 13111827839, 13111827840, 13111827841, 13111827838], "tags": {"addr:city": "深圳市", "addr:country": "CN", "addr:housenumber": "2", "addr:neighbourhood": "文昌街社区", "addr:postcode": "518053", "addr:province": "广东省", "addr:street": "侨北三街", "addr:subdistrict": "沙河街道", "amenity": "kindergarten", "name": "香山里幼儿园", "name:en": "Xiangshanli Kindergarten", "name:zh": "香山里幼儿园", "name:zh-Hans": "香山里幼儿园", "name:zh-Hant": "香山里幼兒園"}}, {"type": "way", "id": 1426346788, "center": {"lat": 22.5530525, "lon": 113.966957}, "nodes": [13111848769, 13111848770, 13111848764, 13111848763, 13111848769], "tags": {"amenity": "kindergarten", "name": "首地幼儿园", "name:zh": "首地幼儿园"}}, {"type": "way", "id": 1426622956, "center": {"lat": 22.578455, "lon": 113.9311497}, "nodes": [13114462712, 4044814450, 13114462586, 3945268540, 13114462709, 13114462710, 13114462705, 13114462708, 13114462706, 13114462707, 13114462711, 13114462712], "tags": {"amenity": "kindergarten", "name": "曼京创新幼儿园", "name:zh": "曼京创新幼儿园"}}, {"type": "way", "id": 1426663925, "center": {"lat": 22.4838793, "lon": 113.9162691}, "nodes": [13114828839, 13114828832, 13114828833, 13114828834, 13114828837, 13114828836, 13114828835, 13114828838, 13114828839], "tags": {"amenity": "kindergarten", "building": "school", "education": "kindergarten", "name": "双玺幼儿园", "name:zh": "双玺幼儿园"}}, {"type": "way", "id": 1427028219, "center": {"lat": 22.5055717, "lon": 113.9135344}, "nodes": [13118709599, 13118709597, 13118709596, 13118709601, 13118709600, 13118709602, 13118709598, 13118709599], "tags": {"addr:city": "深圳市", "addr:country": "CN", "addr:district": "南山区", "addr:postcode": "518067", "addr:province": "广东省", "addr:street": "工业八路", "addr:subdistrict": "招商街道", "amenity": "kindergarten", "education": "kindergarten", "name": "南山区教苑幼儿园", "name:en": "Nanshan Jiaoyuan Kindergarten", "name:zh": "南山区教苑幼儿园", "name:zh-Hans": "南山区教苑幼儿园", "name:zh-Hant": "南山區教苑幼兒園"}}, {"type": "way", "id": 1427619701, "center": {"lat": 22.5104044, "lon": 113.9233368}, "nodes": [13124269980, 13124269985, 13124269984, 13124269981, 13124269980], "tags": {"amenity": "hospital", "healthcare": "hospital", "name": "深圳市南山区慢性病防治院", "name:zh": "深圳市南山区慢性病防治院"}}, {"type": "way", "id": 1427619702, "center": {"lat": 22.5104148, "lon": 113.9239623}, "nodes": [13124269985, 13124269984, 13124269983, 13124269982, 13124269985], "tags": {"amenity": "kindergarten", "education": "kindergarten", "name": "睿思幼儿园", "name:zh": "睿思幼儿园"}}, {"type": "way", "id": 1432741903, "center": {"lat": 22.5162967, "lon": 113.9236293}, "nodes": [13169195893, 13169192672, 13169195917, 13169195890, 13169195893], "tags": {"amenity": "clinic", "healthcare": "clinic", "name": "深圳市南山区疾病预防控制中心", "name:en": "Shenzhen Nanshan District Center for Disease Control and Prevention", "name:zh": "深圳市南山区疾病预防控制中心", "name:zh-Hans": "深圳市南山区疾病预防控制中心", "name:zh-Hant": "深圳市南山區疾病預防控制中心"}}, {"type": "way", "id": 1432741916, "center": {"lat": 22.51681, "lon": 113.9244749}, "nodes": [13169195134, 13169195138, 13169195553, 13169195136, 13169195134], "tags": {"addr:city": "深圳市", "addr:country": "CN", "addr:district": "南山区", "addr:postcode": "518054", "addr:province": "广东省", "addr:subdistrict": "粤海街道", "amenity": "kindergarten", "name": "西海湾花园幼儿园", "name:en": "Xihaiwan Garden Kindergarten", "name:zh": "西海湾花园幼儿园", "name:zh-Hans": "西海湾花园幼儿园", "name:zh-Hant": "西海灣花園幼兒園"}}, {"type": "way", "id": 1432741930, "center": {"lat": 22.5165428, "lon": 113.9264289}, "nodes": [13169195378, 13169195389, 13169195380, 13169195379, 13169195378], "tags": {"addr:city": "深圳市", "addr:country": "CN", "addr:district": "南山区", "addr:housenumber": "2445号", "addr:postcode": "518054", "addr:province": "广东省", "addr:street": "后海大道", "addr:subdistrict": "粤海街道", "amenity": "kindergarten", "education": "kindergarten", "name": "知行世家幼儿园", "name:en": "Zhixing Shijia Kindergarten", "name:zh": "知行世家幼儿园", "name:zh-Hans": "知行世家幼儿园", "name:zh-Hant": "知行世家幼兒園"}}, {"type": "way", "id": 1433242833, "center": {"lat": 22.5293214, "lon": 113.9138814}, "nodes": [13172763450, 13172773466, 13172773465, 13172763449, 13172763450], "tags": {"addr:city": "深圳市", "addr:country": "CN", "addr:district": "南山区", "addr:housenumber": "2059", "addr:neighbourhood": "向南社区", "addr:postcode": "518052", "addr:province": "广东省", "addr:street": "南新路", "addr:subdistrict": "南山街道", "amenity": "hospital", "healthcare": "hospital", "name": "深圳美中宜和妇产医院", "name:en": "Shenzhen Amcare Women & Children’s Hospital", "name:zh": "深圳美中宜和妇产医院", "name:zh-Hans": "深圳美中宜和妇产医院", "name:zh-Hant": "深圳美中宜和婦產醫院"}}, {"type": "way", "id": 1433755546, "center": {"lat": 22.5472799, "lon": 113.9231701}, "nodes": [13176809936, 4898987860, 4898987861, 13176809937, 13176809935, 13176809936], "tags": {"addr:city": "深圳市", "addr:country": "CN", "addr:housenumber": "58", "addr:neighbourhood": "莲城社区", "addr:postcode": "518052", "addr:province": "广东省", "addr:street": "艺园路", "addr:subdistrict": "南头街道", "amenity": "kindergarten", "name": "深圳市南山区麒麟第二幼儿园", "name:en": "Shenzhen Nanshan District Qilin No. 2 Kindergarten", "name:zh": "深圳市南山区麒麟第二幼儿园", "name:zh-Hans": "深圳市南山区麒麟第二幼儿园", "name:zh-Hant": "深圳市南山區麒麟第二幼兒園"}}, {"type": "way", "id": 1433768796, "center": {"lat": 22.5509256, "lon": 113.9220852}, "nodes": [13176911537, 13176911539, 13176911540, 13176911538, 13176911537], "tags": {"addr:city": "深圳市", "addr:country": "CN", "addr:district": "南山区", "addr:neighbourhood": "马家龙社区", "addr:postcode": "518052", "addr:province": "广东省", "addr:subdistrict": "南头街道", "amenity": "kindergarten", "education": "kindergarten", "landuse": "education", "name": "汇金幼儿园", "name:en": "Huijin Kindergarten", "name:zh": "汇金幼儿园", "name:zh-Hans": "汇金幼儿园", "name:zh-Hant": "匯金幼兒園"}}, {"type": "way", "id": 1434827845, "center": {"lat": 22.5140014, "lon": 113.8821855}, "nodes": [13188474453, 13188474454, 13188474457, 13188474451, 13188474453], "tags": {"addr:city": "深圳市", "addr:country": "CN", "addr:neighbourhood": "前海湾", "addr:postcode": "518054", "addr:province": "广东省", "addr:street": "妈湾一路", "addr:subdistrict": "南山街道", "amenity": "school", "education": "school", "name": "前海湾幼儿园", "name:en": "Qianhaiwan Kindergarten", "name:zh": "前海湾幼儿园", "name:zh-Hans": "前海湾幼儿园", "name:zh-Hant": "前海灣幼兒園", "school:level": "kindergarten"}}, {"type": "way", "id": 1434832656, "center": {"lat": 22.52023, "lon": 113.8814799}, "nodes": [13188519938, 13188519935, 13188519936, 13188519937, 13188519938], "tags": {"addr:city": "深圳市", "addr:country": "CN", "addr:district": "南山区", "addr:housenumber": "1", "addr:neighbourhood": "前湾片区", "addr:postcode": "518054", "addr:province": "广东省", "addr:street": "科创六街", "addr:subdistrict": "前海合作区", "amenity": "school", "education": "school", "leisure": "pitch", "name": "深圳前海哈罗港人子弟学校", "name:en": "Shenzhen Qianhai Harrow Hong Kong Children School", "name:zh": "深圳前海哈罗港人子弟学校", "name:zh-Hans": "深圳前海哈罗港人子弟学校", "name:zh-Hant": "深圳前海哈羅港人子弟學校", "school:international": "yes", "sport": "soccer", "website": "https://www.harrowhkcsshenzhen.cn/"}}, {"type": "way", "id": 1434832667, "center": {"lat": 22.5163092, "lon": 113.8842461}, "nodes": [13188520103, 13188520104, 12357647390, 13188520101, 13188520102, 13188520103], "tags": {"addr:city": "深圳市", "addr:country": "CN", "addr:district": "南山区", "addr:neighbourhood": "前湾片区", "addr:province": "广东省", "addr:street": "前湾四路", "addr:subdistrict": "前海合作区", "amenity": "school", "education": "school", "name": "南山区机关幼儿园前海天境分部", "name:en": "Nanshan District Government Kindergarten Qianhai Tianjing Branch", "name:zh": "南山区机关幼儿园前海天境分部", "name:zh-Hans": "南山区机关幼儿园前海天境分部", "name:zh-Hant": "南山區機關幼兒園前海天境分部", "school:level": "kindergarten"}}, {"type": "way", "id": 1434969919, "center": {"lat": 22.5528997, "lon": 113.8998002}, "nodes": [13189724551, 13189724548, 13189724549, 13189724550, 13189724551], "tags": {"addr:city": "深圳市", "addr:country": "CN", "addr:district": "宝安区", "addr:neighbourhood": "新乐社区", "addr:postcode": "518101", "addr:province": "广东省", "addr:street": "翻身路", "addr:subdistrict": "新安街道", "amenity": "kindergarten", "education": "kindergarten", "name": "新锦安幼儿园", "name:en": "Xinjian Kindergarten", "name:zh": "新锦安幼儿园", "name:zh-Hans": "新锦安幼儿园", "name:zh-Hant": "新錦安幼兒園"}}, {"type": "way", "id": 1436801596, "center": {"lat": 22.5537224, "lon": 113.8964766}, "nodes": [13205871261, 13205871259, 13205871258, 13205871263, 13205871261], "tags": {"addr:city": "深圳市", "addr:country": "CN", "addr:district": "宝安区", "addr:neighbourhood": "新乐社区", "addr:postcode": "518101", "addr:province": "广东省", "addr:subdistrict": "新安街道", "amenity": "school", "education": "school", "name": "中南幼儿园", "name:en": "Zhongnan Kindergarten", "name:zh": "中南幼儿园", "name:zh-Hans": "中南幼儿园", "name:zh-Hant": "中南幼兒園", "school:level": "kindergarten"}}, {"type": "way", "id": 1437146028, "center": {"lat": 22.4922833, "lon": 113.9228223}, "nodes": [13208881726, 13208871627, 13208871626, 13208881722, 13208881724, 13208881726], "tags": {"addr:city": "深圳市", "addr:country": "CN", "addr:district": "南山区", "addr:housenumber": "46", "addr:postcode": "518067", "addr:province": "广东省", "addr:street": "石云路", "addr:subdistrict": "蛇口街道", "amenity": "school", "education": "school", "name": "蓓蕾幼儿园", "name:en": "Beilei Kindergarten", "name:zh": "蓓蕾幼儿园", "name:zh-Hans": "蓓蕾幼儿园", "name:zh-Hant": "蓓蕾幼兒園", "school": "kindergarten"}}, {"type": "way", "id": 1441748768, "center": {"lat": 22.5321527, "lon": 113.9147211}, "nodes": [13228842214, 13228821006, 13228842210, 13228842211, 13228842212, 13228803549, 13228842215, 13228842214], "tags": {"addr:city": "深圳市", "addr:country": "CN", "addr:district": "南山区", "addr:housenumber": "2028", "addr:postcode": "518052", "addr:province": "广东省", "addr:street": "南新路", "addr:subdistrict": "南头街道", "amenity": "kindergarten", "education": "kindergarten", "name": "锦福幼儿园", "name:en": "Jinfuyuan Kindergarten", "name:zh": "锦福幼儿园", "name:zh-Hans": "锦福幼儿园", "name:zh-Hant": "錦福幼兒園"}}, {"type": "way", "id": 1441752239, "center": {"lat": 22.5320113, "lon": 113.9065313}, "nodes": [13228859759, 7314759636, 7314759637, 7314759635, 13228859758, 7314759634, 13228859759], "tags": {"addr:city": "深圳市", "addr:country": "CN", "addr:district": "南山区", "addr:housenumber": "1", "addr:postcode": "518052", "addr:province": "广东省", "addr:street": "桃李路", "addr:subdistrict": "南头街道", "amenity": "school", "education": "school", "grades": "1-9", "name": "南山区第二外国语学校（集团）前海学校小学部", "name:en": "Nanshan District No.2 Foreign Language School (Group) Qianhai Campus Primary Division", "name:zh": "南山区第二外国语学校（集团）前海学校小学部", "name:zh-Hans": "南山区第二外国语学校（集团）前海学校小学部", "name:zh-Hant": "南山區第二外國語學校（集團）前海學校小學部", "old_name": "前海中学;前海二小;前海第二小学", "operator": "南山区教育局", "operator:type": "public", "website": "https://nsqhxx.szns.edu.cn/"}}, {"type": "way", "id": 1441752244, "center": {"lat": 22.531801, "lon": 113.9125636}, "nodes": [13228873447, 13228873448, 13228873444, 13228873445, 13228873447], "tags": {"addr:city": "深圳市", "addr:country": "CN", "addr:district": "南山区", "addr:housenumber": "198", "addr:province": "广东省", "addr:street": "学府路", "amenity": "school", "education": "school", "name": "华府小学", "name:en": "Huafu Primary School", "name:zh": "华府小学", "name:zh-Hans": "华府小学", "name:zh-Hant": "華府小學"}}, {"type": "way", "id": 1442559274, "center": {"lat": 22.5648491, "lon": 113.886801}, "nodes": [13236247839, 13236247838, 13236247837, 13236247836, 13236247839], "tags": {"addr:city": "深圳市", "addr:country": "CN", "addr:district": "宝安区", "addr:neighborhood": "海富社区", "addr:postcode": "518133", "addr:province": "广东省", "addr:subdistrict": "新安街道", "amenity": "kindergarten", "name": "新安海滨幼儿园", "name:en": "Xin’an Haibin Kindergarten", "name:zh": "新安海滨幼儿园", "name:zh-Hans": "新安海滨幼儿园", "name:zh-Hant": "新安海濱幼兒園"}}, {"type": "way", "id": 1442589807, "center": {"lat": 22.5721352, "lon": 113.8842066}, "nodes": [13236570548, 13236570562, 13236570549, 13236570547, 13236570548], "tags": {"addr:city": "深圳市", "addr:country": "CN", "addr:district": "宝安区", "addr:housenumber": "135", "addr:neighborhood": "翻身社区", "addr:postcode": "518101", "addr:province": "广东省", "addr:street": "自由路", "amenity": "police", "name": "翻身派出所", "name:en": "Fanshen Police Station", "name:zh": "翻身派出所", "name:zh-Hans": "翻身派出所", "name:zh-Hant": "翻身派出所"}}, {"type": "way", "id": 1442726613, "center": {"lat": 22.5706147, "lon": 113.8807011}, "nodes": [13238213831, 13238213830, 13238213828, 13238213829, 13238213831], "tags": {"addr:city": "深圳市", "addr:country": "CN", "addr:district": "宝安区", "addr:housenumber": "44", "addr:neighborhood": "海华社区", "addr:postcode": "518101", "addr:province": "广东省", "addr:street": "海汇路", "addr:subdistrict": "新安街道", "amenity": "kindergarten", "name": "宝安区崛起第一幼儿园", "name:en": "Baoan Juqi No.1 Kindergarten", "name:zh": "宝安区崛起第一幼儿园", "name:zh-Hans": "宝安区崛起第一幼儿园", "name:zh-Hant": "寶安區崛起第一幼兒園"}}, {"type": "way", "id": 1444096840, "center": {"lat": 22.5674505, "lon": 113.8901522}, "nodes": [13251120377, 13251120376, 13251120375, 13251120374, 13251120372, 13251120373, 13251120377], "tags": {"addr:city": "深圳市", "addr:country": "CN", "addr:district": "宝安区", "addr:housenumber": "64", "addr:neighborhood": "海富社区", "addr:postcode": "518133", "addr:province": "广东省", "addr:street": "海富二巷", "addr:subdistrict": "新安街道", "amenity": "kindergarten", "name": "翻身幼儿园", "name:en": "Fanshen Kindergarten", "name:zh": "翻身幼儿园", "name:zh-Hans": "翻身幼儿园", "name:zh-Hant": "翻身幼兒園"}}, {"type": "way", "id": 1444134549, "center": {"lat": 22.5591597, "lon": 113.8954015}, "nodes": [13253267819, 13251474141, 13251474142, 13253281142, 13253267818, 13253267819], "tags": {"amenity": "kindergarten", "name": "宝安区新安爱乐幼儿园(海悦分园)", "name:en": "Baoan District Xin’an Aile Kindergarten (Haiyue Branch)", "name:zh": "宝安区新安爱乐幼儿园(海悦分园)", "name:zh-Hans": "宝安区新安爱乐幼儿园(海悦分园)", "name:zh-Hant": "寶安區新安愛樂幼兒園(海悅分園)"}}, {"type": "way", "id": 1444398434, "center": {"lat": 22.560906, "lon": 113.8938507}, "nodes": [13253280580, 5241143647, 13253280581, 13253280576, 13253280577, 13253280580], "tags": {"addr:city": "深圳市", "addr:district": "宝安区", "addr:housenumber": "106", "addr:province": "广东省", "addr:street": "兴华一路", "amenity": "school", "education": "school", "name": "宝安中学(集团)海滨中学", "name:en": "Bao'an Middle School (Group) Haibin Middle School", "name:zh": "宝安区中学(集团)海滨中学", "name:zh-Hans": "宝安区中学(集团)海滨中学", "name:zh-Hant": "寶安區中學(集團)海濱中學", "old_name": "深圳市海滨中学", "operator": "深圳市宝安区教育局", "operator:type": "public", "short_name": "海滨中学"}}, {"type": "way", "id": 1444398517, "center": {"lat": 22.5597845, "lon": 113.8989457}, "nodes": [13253280944, 9911823530, 9911823531, 13253280947, 13253280946, 13253280945, 13253280944], "tags": {"addr:city": "深圳市", "addr:country": "CN", "addr:district": "宝安区", "addr:neighborhood": "海乐社区", "addr:postcode": "518101", "addr:province": "广东省", "addr:subdistrict": "新安街道", "amenity": "school", "education": "school", "name": "宝安区实验学校(集团)海乐实验学校", "name:en": "Bao’an District Experimental School(Group) Haile Experimental School", "name:zh": "深圳市宝安区实验学校（集团）海乐实验学校", "name:zh-Hans": "深圳市宝安区实验学校（集团）海乐实验学校", "name:zh-Hant": "寶安區實驗學校(集團)海樂實驗學校", "operator": "宝安区实验学校（集团）", "operator:type": "public"}}, {"type": "way", "id": 1444398546, "center": {"lat": 22.5620298, "lon": 113.8972706}, "nodes": [13253281242, 13253281245, 13253281244, 13253281241, 13253281242], "tags": {"addr:city": "深圳市", "addr:country": "CN", "addr:district": "宝安区", "addr:housenumber": "159", "addr:neighborhood": "海乐社区", "addr:postcode": "518101", "addr:province": "广东省", "addr:street": "广深路", "addr:subdistrict": "新安街道", "amenity": "hospital", "name": "深圳春天阳光医院", "name:en": "Shenzhen Spring Sun Hospital", "name:zh": "深圳春天阳光医院", "name:zh-Hans": "深圳春天阳光医院", "name:zh-Hant": "深圳春天陽光醫院"}}, {"type": "way", "id": 1444438971, "center": {"lat": 22.5682268, "lon": 113.8988073}, "nodes": [13253591470, 13253591469, 13253591465, 13253591466, 13253591468, 13253591467, 13253591470], "tags": {"addr:city": "深圳市", "addr:country": "CN", "addr:district": "宝安区", "addr:neighborhood": "宝民社区", "addr:postcode": "518101", "addr:province": "广东省", "addr:subdistrict": "新安街道", "amenity": "kindergarten", "building": "kindergarten", "name": "新安冠城幼儿园", "name:en": "Guancheng Kindergarten", "name:zh": "新安冠城幼儿园", "name:zh-Hans": "新安冠城幼儿园", "name:zh-Hant": "冠城幼兒園"}}, {"type": "way", "id": 1444686852, "center": {"lat": 22.5373168, "lon": 113.9456742}, "nodes": [13255786397, 13546326712, 13255786398, 13546326713, 13255786399, 13255786400, 13255786397], "tags": {"amenity": "school", "education": "school", "grades": "1-6", "name": "南山外国语学校(集团)高新小学", "name:zh": "南山外国语学校(集团)高新小学"}}, {"type": "way", "id": 1445409166, "center": {"lat": 22.5583666, "lon": 113.9067831}, "nodes": [13261446477, 13261446478, 13261446479, 13261446480, 13261446481, 13261446477], "tags": {"amenity": "police", "area": "yes", "layer": "1", "name": "深圳市公安局宝安分局", "name:zh": "深圳市公安局宝安分局"}}, {"type": "way", "id": 1445717362, "center": {"lat": 22.5564038, "lon": 113.8956767}, "nodes": [13264608638, 13264608644, 13264608645, 13264608639, 13264608638], "tags": {"addr:city": "深圳市", "addr:country": "CN", "addr:district": "宝安区", "addr:neighborhood": "安乐社区", "addr:postcode": "518102", "addr:province": "广东省", "addr:subdistrict": "新安街道", "amenity": "police", "name": "新乐派出所", "name:en": "Xinle Police Station", "name:zh": "新乐派出所", "name:zh-Hans": "新乐派出所", "name:zh-Hant": "新樂派出所"}}, {"type": "way", "id": 1445899151, "center": {"lat": 22.5684594, "lon": 113.8961803}, "nodes": [13266177314, 13266177310, 13266177309, 13266131487, 13266131481, 13266177311, 13266177313, 13266177315, 13266177314], "tags": {"addr:city": "深圳市", "addr:country": "CN", "addr:district": "宝安区", "addr:housenumber": "4", "addr:province": "广东省", "addr:street": "创业二路", "addr:subdistrict": "新安街道", "amenity": "hospital", "healthcare": "hospital", "name": "宝安人民医院(集团)建安院区", "name:en": "Shenzhen Bao’an People’s Hospital (Group) Jian’an Branch", "name:zh": "深圳市宝安区人民医院（集团）建安院区", "name:zh-Hans": "深圳市宝安区人民医院（集团）建安院区", "name:zh-Hant": "深圳市寶安人民醫院（集團）建安院區"}}, {"type": "way", "id": 1445948079, "center": {"lat": 22.57676, "lon": 113.8925155}, "nodes": [13266641998, 13266641999, 13266642000, 13266675401, 13266641998], "tags": {"amenity": "kindergarten", "education": "kindergarten", "name": "宝安区建安新村幼儿园"}}, {"type": "way", "id": 1445948094, "center": {"lat": 22.5729201, "lon": 113.895925}, "nodes": [13266675496, 13266675497, 13266675498, 13266675499, 13266675500, 13266675496], "tags": {"amenity": "kindergarten", "education": "kindergarten", "name": "建安新村幼儿园(集团)童悦幼儿园"}}, {"type": "way", "id": 1447687390, "center": {"lat": 22.5702748, "lon": 113.9042976}, "nodes": [13282893657, 13282893658, 13282927504, 13282927503, 13282893659, 13282893660, 13282893661, 13282893662, 13282893657], "tags": {"addr:city": "深圳市", "addr:district": "宝安区", "addr:housenumber": "286", "addr:province": "广东省", "addr:street": "兴华二路", "amenity": "kindergarten", "education": "kindergarten", "name": "宝安区兴华幼儿园", "name:en": "Bao'an Xinghua Kindergarten", "name:zh": "宝安区兴华幼儿园"}}, {"type": "way", "id": 1448153037, "center": {"lat": 22.5612206, "lon": 113.9080246}, "nodes": [13286742294, 13286742295, 13286867426, 13286742296, 13286742297, 13286742298, 13286742299, 13286742300, 13286867401, 13286742294], "tags": {"amenity": "kindergarten", "education": "kindergarten", "name": "宝安区教科院实验幼儿园"}}, {"type": "way", "id": 1448153053, "center": {"lat": 22.5685027, "lon": 113.9097214}, "nodes": [12979290380, 12979290381, 13286867507, 13286867508, 13288351369, 12979290379, 12979290380], "tags": {"amenity": "school", "education": "school", "name": "宝安区区委党校"}}, {"type": "way", "id": 1448153062, "center": {"lat": 22.5696133, "lon": 113.9107161}, "nodes": [13286867574, 13286867575, 13286867576, 13286867577, 13286867578, 13286867579, 12979290378, 12979290379, 13288351369, 13286867508, 13286867580, 13286867581, 13286867574], "tags": {"amenity": "school", "education": "school", "name": "宝安城市学院"}}, {"type": "way", "id": 1448360117, "center": {"lat": 22.5696137, "lon": 113.9031645}, "nodes": [13288644651, 13288644652, 13288644653, 13288644654, 13288644651], "tags": {"amenity": "police", "building": "yes", "name": "镇南派出所"}}, {"type": "way", "id": 1459196742, "center": {"lat": 22.554861, "lon": 113.8987323}, "nodes": [13382630631, 13382630632, 13382630633, 13382630634, 13382630631], "tags": {"amenity": "kindergarten", "education": "kindergarten", "name": "新安爱乐幼儿园"}}, {"type": "way", "id": 1467957842, "center": {"lat": 22.523394, "lon": 113.9191953}, "nodes": [13463841646, 13463841647, 13463841648, 13463841649, 13463841650, 13463841652, 13463841651, 13463841646], "tags": {"amenity": "school", "education": "school", "grades": "1-6", "name": "向南小学"}}, {"type": "way", "id": 1468280141, "center": {"lat": 22.5216766, "lon": 113.9223846}, "nodes": [13466610593, 13466610586, 13466610585, 13466610584, 13466610583, 13466610582, 13466610581, 13466610580, 13466610579, 13466610578, 13466610577, 13466610576, 13466610575, 13466610574, 13466610573, 13466610591, 13466610592, 13466610593], "tags": {"addr:city": "深圳市", "addr:country": "CN", "addr:district": "南山区", "addr:housenumber": "106", "addr:neighborhood": "南光社区", "addr:postcode": "518054", "addr:province": "广东省", "addr:street": "南光路", "addr:subdistrict": "南山街道", "amenity": "school", "education": "school", "name": "南山小学", "name:en": "Nanshan Primary School", "name:zh": "南山小学", "name:zh-Hans": "南山小学", "name:zh-Hant": "南山小學"}}, {"type": "way", "id": 1476884315, "center": {"lat": 22.5385417, "lon": 113.9466048}, "nodes": [12177943306, 12177943309, 13546326702, 13546326703, 12177943306], "tags": {"amenity": "kindergarten", "education": "kindergarten", "name": "大冲都市花园幼儿园高新分园"}}]}