{"elements": [{"type": "node", "id": 2828708472, "lat": 29.5419098, "lon": 106.5146914, "tags": {"addr:city": "Chungking", "addr:housenumber": "93号", "addr:postcode": "400042", "addr:street": "长江二路", "amenity": "police", "name": "大坪派出所"}}, {"type": "node", "id": 3179109946, "lat": 29.554115, "lon": 106.5727625, "tags": {"amenity": "school", "name": "重庆复旦高中", "name:en": "Fudan High School"}}, {"type": "node", "id": 4139951946, "lat": 29.5610226, "lon": 106.5690493, "tags": {"amenity": "school", "name": "重庆二十九中学", "name:en": "Chongqing No.29 High School"}}, {"type": "node", "id": 4139951947, "lat": 29.5627506, "lon": 106.5698495, "tags": {"amenity": "hospital", "healthcare": "hospital", "name": "重庆医科大学附属第二医院"}}, {"type": "node", "id": 4139952095, "lat": 29.5554739, "lon": 106.5729069, "tags": {"amenity": "hospital", "healthcare": "hospital", "name": "重庆骨科医院", "name:en": "Chongqing Orthopaedics Hospital"}}, {"type": "node", "id": 4143850848, "lat": 29.5605382, "lon": 106.5577242, "tags": {"alt_name:en": "Sun Yat-sen Primary School", "amenity": "school", "name": "中山小学", "name:en": "Zhongshan Primary School"}}, {"type": "node", "id": 4143850865, "lat": 29.5623741, "lon": 106.5427841, "tags": {"amenity": "hospital", "healthcare": "hospital", "name": "重庆市口腔医院", "name:en": "Chongqing Stomatological Hospital"}}, {"type": "node", "id": 6631214656, "lat": 29.5646207, "lon": 106.5774209, "tags": {"amenity": "police"}}, {"type": "node", "id": 7873546275, "lat": 29.5399828, "lon": 106.5186206, "tags": {"amenity": "kindergarten", "name": "渝中利奥幼儿园"}}, {"type": "node", "id": 11987914505, "lat": 29.5591603, "lon": 106.5550537, "tags": {"amenity": "college", "name": "山城老年大学"}}, {"type": "node", "id": 12292087599, "lat": 29.5563564, "lon": 106.549792, "tags": {"amenity": "hospital", "healthcare": "hospital", "name": "重庆市人民医院"}}, {"type": "node", "id": 12294008831, "lat": 29.5522512, "lon": 106.5723204, "tags": {"amenity": "school", "name": "解放西路小学"}}, {"type": "node", "id": 13232880680, "lat": 29.5551443, "lon": 106.5451564, "tags": {"amenity": "clinic", "branch": "中华广场店", "healthcare": "clinic", "name": "诺亚医疗.生长发育中心"}}, {"type": "way", "id": 150453849, "center": {"lat": 29.5356528, "lon": 106.5035895}, "nodes": [1633669532, 1633669534, 1633669530, 1633669558, 10778184232, 10778184234, 10778184233, 1633669524, 1633669551, 1633669535, 1633669531, 1633669528, 1633669556, 10781469049, 4143800190, 10781469053, 1633669522, 1633739009, 10781469054, 1633669563, 11269602391, 11269602390, 11269602389, 1633669546, 1633669541, 1633669559, 10781469057, 1633669540, 1633669523, 1633669537, 1633669552, 1633669538, 1633669529, 1633669555, 1633669526, 1633669562, 1633669544, 1633669532], "tags": {"addr:city": "重庆市", "addr:district": "渝中区", "addr:full": "重庆市渝中区医学院路1号", "addr:housenumber": "1", "addr:postcode": "400016", "addr:street": "医学院路", "amenity": "university", "name": "重庆医科大学", "name:en": "Chongqing Medical University", "name:zh": "重庆医科大学", "website": "https://www.cqmu.edu.cn/", "wikidata": "Q5104661", "wikipedia": "zh:重庆医科大学"}}, {"type": "way", "id": 240658970, "center": {"lat": 29.5443323, "lon": 106.5139162}, "nodes": [2483728558, 12750006345, 12750006346, 2483728559, 12750006347, 2483728560, 12750006348, 2483728561, 2483728562, 2483728563, 2483728564, 2483728565, 2483728566, 2483728567, 2483728568, 2483728558], "tags": {"addr:city": "Chungking", "addr:housename": "渝中区大坪正街54号", "addr:housenumber": "54", "addr:postcode": "400042", "amenity": "school", "name": "大坪小学", "name:en": "Daping privary school", "website": "http://www.dpxx.com/"}}, {"type": "way", "id": 242496963, "center": {"lat": 29.5423868, "lon": 106.5261878}, "nodes": [2499555328, 2499555329, 2499555330, 2499555331, 2499555332, 2499555333, 2499555334, 2499555335, 2499555336, 2499555337, 2499555338, 2499555339, 2499555340, 2499555341, 2499555342, 2499555328], "tags": {"addr:housename": "渝中区平安街159号", "addr:postcode": "400015", "amenity": "school", "name": "复旦中学（竹园校区）", "name:en": "Fudan Middle School(Zhuyuan Campus)"}}, {"type": "way", "id": 249649766, "center": {"lat": 29.5635934, "lon": 106.5574574}, "nodes": [2562274934, 7898924930, 7898924929, 7898924928, 7898924927, 2562274935, 2562274936, 2562274937, 2562274938, 7898924926, 2562274939, 7898924925, 7898924924, 7898924923, 7898924920, 7898924922, 7898924921, 7898924919, 7898924918, 7898924917, 2562274940, 2562274941, 7968372799, 7898924931, 4143850817, 2562274942, 2562274934], "tags": {"amenity": "school", "name": "巴蜀中学", "name:en": "Bashu Secondary School - Main Campus", "name:zh": "巴蜀中学"}}, {"type": "way", "id": 278775623, "center": {"lat": 29.5338738, "lon": 106.5093574}, "nodes": [2830844367, 7634732925, 7634732926, 2830844368, 11269602442, 11269602441, 2830844369, 2830844370, 11269602439, 2830844371, 11269602440, 2830844367], "tags": {"addr:housenumber": "1号", "addr:street": "友谊路", "amenity": "hospital", "emergency": "yes", "healthcare": "hospital", "name": "重庆医科大学附属第一医院", "name:en": "1st Affiliated Hospital of Chongqing Medical University"}}, {"type": "way", "id": 412876070, "center": {"lat": 29.553792, "lon": 106.5415794}, "nodes": [4142088441, 5537124270, 4142088442, 5537124269, 4142088443, 4142088444, 4142088445, 4142088446, 4142088441], "tags": {"amenity": "school", "name": "重庆第三十中学", "name:en": "Chongqing No.30 High School"}}, {"type": "way", "id": 413054275, "center": {"lat": 29.5590391, "lon": 106.550953}, "nodes": [4143850828, 4143850829, 4143850830, 9325919852, 9325919853, 9325919834, 9325919854, 9325919835, 9325919836, 9325919855, 9325919856, 4143850833, 9325919838, 9325919837, 4143850834, 9325919840, 9325919839, 9325919841, 9325852542, 4143850835, 9325919842, 4143850836, 9325919843, 4143850837, 9325919844, 9325919847, 9325919846, 9325919845, 4143850839, 11987914512, 11987914511, 9325919830, 4143850828], "tags": {"addr:city": "重庆市", "addr:place": "渝中区", "addr:postcode": "400014", "addr:street": "中山二路136号", "amenity": "hospital", "healthcare": "hospital", "name": "重庆医科大学附属儿童医院（渝中院区）", "phone": "+86 23 6362 2984", "website": "https://www.chcmu.com", "wheelchair": "yes"}}, {"type": "way", "id": 553175170, "center": {"lat": 29.5472354, "lon": 106.5202342}, "nodes": [5340111164, 7602439560, 5340111165, 5340111166, 12744861267, 12744861266, 11844509529, 11844509528, 5340111168, 12744861265, 5340111169, 11841648968, 12744861264, 5340111170, 12744861263, 5340111171, 12730504367, 5340111172, 12749971929, 12730504366, 12730504365, 12730504316, 12730504315, 12730504314, 5340111173, 12744861262, 12730504313, 12744874253, 5340111174, 12744874252, 12730504317, 5340111175, 12730504312, 12730504311, 5340111176, 5340111179, 5340111164], "tags": {"amenity": "hospital", "healthcare": "hospital", "landuse": "military", "name": "陆军特色医学中心", "wikidata": "Q30279866", "wikipedia": "zh:中国人民解放军陆军特色医学中心"}}, {"type": "way", "id": 572049432, "center": {"lat": 29.5502714, "lon": 106.5317706}, "nodes": [5496417312, 5577832847, 5577832846, 5496417313, 5496417314, 5496417315, 5496417316, 5496417317, 5496417318, 5496417319, 5496417320, 5496417921, 5577832716, 5496417922, 5496417923, 5496417924, 5496417312], "tags": {"amenity": "school", "name": "鹅岭小学"}}, {"type": "way", "id": 572050908, "center": {"lat": 29.5575256, "lon": 106.5365945}, "nodes": [5496438244, 5496438245, 5496438246, 5496438247, 5496438248, 5496438249, 5496438250, 5496438251, 5496438252, 5577830911, 5577830912, 5496438253, 5496438254, 5496438255, 5496438256, 5496438257, 5496438258, 5496438259, 5496438260, 5496438261, 5496438262, 5496438263, 5496438244], "tags": {"amenity": "school", "name": "重庆市第五十七中学"}}, {"type": "way", "id": 583427161, "center": {"lat": 29.5589156, "lon": 106.5378388}, "nodes": [5577830918, 8260434467, 5577830919, 8260434466, 5577830920, 5577832621, 5577832622, 5577832623, 8260434465, 5577832624, 5577832625, 8260434464, 5577832626, 8260434463, 5577832627, 5577832628, 5577830918], "tags": {"amenity": "school", "name": "大田湾小学"}}, {"type": "way", "id": 583430770, "center": {"lat": 29.5662652, "lon": 106.5422269}, "nodes": [5577866933, 5577866934, 5577866935, 5577866936, 5577866937, 5577866938, 5577866939, 5577866940, 5577867153, 5577866973, 5577866941, 13462278828, 13462278829, 5577866942, 5577866943, 5577866944, 5577866945, 5577866946, 5577866947, 5577866948, 5577866949, 5577866950, 5577866951, 5577866952, 5577866953, 5577866983, 5577866933], "tags": {"amenity": "school", "name": "求精中学"}}, {"type": "way", "id": 583430774, "center": {"lat": 29.5649549, "lon": 106.542334}, "nodes": [5577866984, 5577866985, 5577866986, 5577866987, 5577866949, 5577866948, 5577866947, 5577866946, 5577866988, 5577866989, 5577866990, 5577866991, 5577866992, 5577866993, 5577866994, 5577866995, 5577866984], "tags": {"amenity": "school", "name": "人民小学"}}, {"type": "way", "id": 734031546, "center": {"lat": 29.5662207, "lon": 106.5432196}, "nodes": [13462278833, 13462278834, 5577866934, 5577866933, 6874556530, 6874556529, 6874556528, 13462278832, 13462278833], "tags": {"amenity": "school", "name": "中四路小学", "note": "Primary School"}}, {"type": "way", "id": 863637301, "center": {"lat": 29.5617741, "lon": 106.5559832}, "nodes": [2562274938, 7898924926, 2562274939, 7898924925, 8045267511, 8045267512, 8045267513, 8045267514, 8045267515, 8045267516, 8045267517, 8045267518, 8045267519, 8045267520, 8045267521, 2562274938], "tags": {"amenity": "school", "grades": "0-6", "name": "巴蜀小学", "name:en": "Bashu Primary School", "website": "http://www.cqcdbs.com/"}}, {"type": "way", "id": 938069707, "center": {"lat": 29.5470664, "lon": 106.498184}, "nodes": [8690700096, 8690700095, 8690700094, 8690700093, 8690700092, 8690700091, 8690700090, 8690700089, 8690700096], "tags": {"amenity": "school", "name": "石油路小学"}}, {"type": "way", "id": 938074655, "center": {"lat": 29.5394987, "lon": 106.5005054}, "nodes": [8690743441, 8690743440, 8690743429, 8690743453, 8690743428, 8690743439, 8690743438, 8690743437, 8690743436, 8690743435, 8690743434, 8690743441], "tags": {"amenity": "hospital", "healthcare": "hospital", "name": "重庆长航医院"}}, {"type": "way", "id": 939578291, "center": {"lat": 29.5551627, "lon": 106.5423306}, "nodes": [11401036644, 8703431500, 8703431501, 8703431502, 8703431503, 8703431504, 11401036643, 11401036645, 11401036646, 11401036647, 11401036648, 11401036649, 11401036644], "tags": {"amenity": "hospital", "healthcare": "hospital", "name": "第四人民医院"}}, {"type": "way", "id": 950173507, "center": {"lat": 29.564918, "lon": 106.5797412}, "nodes": [8796311466, 8796311465, 8796311464, 8796311462, 8796311461, 8796311460, 8796311459, 8796311458, 8796311457, 8796311466], "tags": {"amenity": "kindergarten", "name": "红岩幼儿园(朝天门隧道)"}}, {"type": "way", "id": 950179345, "center": {"lat": 29.5624683, "lon": 106.5836341}, "nodes": [8796379156, 8796379155, 8796379154, 8796379153, 8796379152, 8796379151, 8796379150, 8796379156], "tags": {"amenity": "school", "name": "东水门小学"}}, {"type": "way", "id": 951637959, "center": {"lat": 29.5632, "lon": 106.5665295}, "nodes": [8808386874, 8808386873, 8808386872, 8808386871, 8808386870, 8808386881, 8808386869, 8808386868, 8808386874], "tags": {"amenity": "kindergarten", "name": "渝中区实验幼儿园"}}, {"type": "way", "id": 974637152, "center": {"lat": 29.5578574, "lon": 106.5652945}, "nodes": [9019880997, 9019880998, 9019880999, 9019881000, 9019881001, 9019881003, 9019881005, 12748037026, 9019880997], "tags": {"amenity": "school", "name": "中华路小学", "name:zh": "中华路小学"}}, {"type": "way", "id": 993252417, "center": {"lat": 29.5590445, "lon": 106.5557973}, "nodes": [9176343802, 9176343803, 9176343804, 9176343805, 9176343806, 9176343807, 9176343808, 9176343809, 9176359917, 9176343816, 9176343812, 9176343813, 9176343811, 9176343814, 9176343810, 9176343815, 9176343802], "tags": {"amenity": "hospital", "healthcare": "hospital", "name": "重庆人民医院", "name:en": "Chongqing General Hospital"}}, {"type": "way", "id": 1025797978, "center": {"lat": 29.5557106, "lon": 106.5658596}, "nodes": [9457777476, 9457777477, 9457777478, 9457777479, 9457777480, 9457777481, 9457777476], "tags": {"addr:city": "重庆", "addr:district": "渝中区", "addr:housenumber": "9号", "addr:street": "管家巷", "amenity": "police", "building": "yes", "name": "渝中区公安局", "operator": "中华人民共和国公安部", "operator:en": "Ministry of Public Security", "operator:wikidata": "Q2346285", "operator:wikipedia": "zh:中华人民共和国公安部", "operator:zh": "中华人民共和国公安部"}}, {"type": "way", "id": 1188333877, "center": {"lat": 29.5403181, "lon": 106.4916844}, "nodes": [11034613038, 11034612935, 11034613063, 11034588666, 11034612989, 11034588691, 11034613014, 11034588667, 11034612992, 11034588694, 11034613018, 11034613055, 11034612952, 11034613078, 11034612971, 8195894123, 11034612905, 11034612950, 12265746322, 11034612961, 11034613087, 12265746324, 11034612980, 8195893980, 11034612923, 11034613027, 11034588701, 11034613002, 11034613015, 11034612915, 11034613041, 11034612938, 11034613066, 11034612919, 11034613046, 11034612943, 11034613069, 11034588673, 11034612997, 11034588698, 11034613023, 11034613008, 11034613038], "tags": {"amenity": "college", "landuse": "military", "name": "中国人民解放军陆军勤务学院", "wikidata": "Q6124050", "wikipedia": "zh:中国人民解放军陆军勤务学院"}}, {"type": "way", "id": 1257443400, "center": {"lat": 29.5636377, "lon": 106.5539598}, "nodes": [11690689509, 11690689510, 11690689511, 11690689512, 11690689513, 11690689514, 11690689515, 11690689516, 11690689517, 11690689518, 11690689519, 11690689520, 11690689521, 11690689509], "tags": {"amenity": "school", "name": "人和街小学"}}, {"type": "way", "id": 1263431796, "center": {"lat": 29.535821, "lon": 106.4956529}, "nodes": [11738568183, 11738568184, 12757570337, 11738568185, 11738568186, 12757570338, 11738568187, 11738568189, 11738568190, 11738568191, 11738568192, 11738568181, 11738568182, 4143800213, 11738568193, 10778184257, 11738568183], "tags": {"amenity": "college", "name": "重庆行政学院"}}, {"type": "way", "id": 1275322569, "center": {"lat": 29.5445653, "lon": 106.5175824}, "nodes": [11841661474, 12730504319, 11841661475, 11841661476, 11841661477, 11841661478, 12730504321, 11841661479, 12730504322, 12730504323, 12730504324, 11841661480, 11841661481, 12730504318, 11841661474], "tags": {"amenity": "school", "name": "重庆市求精中学大坪学校"}}, {"type": "way", "id": 1303844052, "center": {"lat": 29.5465203, "lon": 106.5021196}, "nodes": [12074852514, 12074852515, 12074852516, 12074852517, 12074852518, 12074852519, 12074852520, 12074852521, 12074852522, 12074852523, 12074852524, 12074852525, 12074852526, 12074852527, 12074852528, 12074852514], "tags": {"amenity": "hospital", "healthcare": "hospital", "name": "重庆医科大学附属第一医院第一分院(虎头岩院区)"}}, {"type": "way", "id": 1303917672, "center": {"lat": 29.5521419, "lon": 106.504141}, "nodes": [12075454035, 12075454036, 12075454037, 12075454038, 12075454039, 12075454040, 12075454034, 12074843598, 12074843597, 12075454041, 12074843596, 12075454042, 12075454043, 12075454035], "tags": {"amenity": "hospital", "healthcare": "hospital", "name": "重庆市中医骨科医院(化龙桥院区)"}}, {"type": "way", "id": 1330635466, "center": {"lat": 29.5442709, "lon": 106.4984567}, "nodes": [8690743464, 12311867507, 12311867508, 12311867509, 12311867510, 12311867511, 12311867512, 12311867513, 12311867514, 12311867515, 8690743473, 8690743474, 12311867516, 12311867517, 12311867518, 12311867519, 12311867520, 12311867522, 12311867521, 8690743475, 8690743508, 8690743509, 8690743465, 8690743464], "tags": {"amenity": "school", "name": "重庆市求精中学河运路校区"}}, {"type": "way", "id": 1337370057, "center": {"lat": 29.5523692, "lon": 106.5015873}, "nodes": [12369673114, 12369673115, 12369673116, 12369673117, 12369673118, 12369673114], "tags": {"amenity": "school", "name": "重庆二十九中"}}, {"type": "way", "id": 1374795048, "center": {"lat": 29.5544408, "lon": 106.5567102}, "nodes": [12729362136, 12729362137, 12729362138, 12729362139, 12729362140, 12729362141, 12729362142, 12729362150, 11342439495, 12729362143, 12729362144, 12729362145, 12729362146, 12729362147, 12729362148, 12729362149, 12729362136], "tags": {"amenity": "school", "name": "重庆复旦中学外国语学校", "name:zh": "重庆复旦中学外国语学校"}}, {"type": "way", "id": 1374934368, "center": {"lat": 29.5524622, "lon": 106.537228}, "nodes": [12730436743, 12730436779, 12730436764, 12730436780, 12730436781, 12730436765, 12730436766, 12730436767, 12730436768, 12730436769, 12730436770, 12730436771, 12730436772, 12730436773, 12730436778, 12730436774, 12730436782, 12730436775, 12730436776, 12730436777, 12730436745, 12730436744, 12730436743], "tags": {"amenity": "school", "name": "渝中区两路口小学"}}, {"type": "way", "id": 1374937021, "center": {"lat": 29.555404, "lon": 106.5687166}, "nodes": [3179109957, 12730460024, 12730460025, 12730460026, 12730457593, 12730457594, 12730457595, 12730457596, 12730457597, 12730457598, 12730457599, 9386074339, 3179109958, 12730460017, 3179109957], "tags": {"amenity": "school", "name": "重庆精一民族小学"}}, {"type": "way", "id": 1376492824, "center": {"lat": 29.546098, "lon": 106.5208294}, "nodes": [5340111171, 12744874234, 11841648968, 12744861264, 5340111170, 12744861263, 5340111171], "tags": {"amenity": "school", "name": "渝中区解放小学"}}, {"type": "way", "id": 1378049682, "center": {"lat": 29.5402706, "lon": 106.5098866}, "nodes": [12759699568, 12759699569, 12759699570, 12759699571, 12759699572, 12759699573, 12759699574, 12759699575, 12759699576, 12759699577, 12759699578, 12759699579, 12759699580, 12759699581, 12759699582, 12759699583, 12759699584, 12759699585, 12759699586, 12759699587, 12759699588, 12759699589, 12759699590, 12759699591, 12759699592, 12759699568], "tags": {"amenity": "school", "name": "马家堡小学", "name:zh": "马家堡小学"}}, {"type": "way", "id": 1416313981, "center": {"lat": 29.5374607, "lon": 106.522893}, "nodes": [13015535118, 13015535119, 13015535120, 13015535121, 13015535122, 13015535123, 13015535124, 13015535125, 13015535126, 13015535127, 13015535128, 13015535129, 13016383364, 13015535131, 13015535132, 13015535133, 13015535134, 13015535135, 13015535136, 13015535118], "tags": {"amenity": "university", "name": "重庆交通大学（大坪分部）"}}, {"type": "way", "id": 1430306931, "center": {"lat": 29.5607894, "lon": 106.5538085}, "nodes": [13147512598, 13147512599, 13580480094, 13580480095, 13580480096, 13580480101, 13580480097, 13580480100, 13580480099, 13580480098, 13147512600, 13580480067, 13147489019, 13580480066, 13580480065, 13580480064, 13147597401, 13580480063, 13580480062, 13580480061, 13147597402, 13580480060, 13580480059, 13580480058, 13147597403, 13580480027, 13580480026, 13580480025, 13580480024, 13580480023, 13580480022, 13580480021, 13580480020, 13580480019, 13580480018, 13580480017, 13580480016, 13580480006, 13147597405, 13580480001, 13580480002, 13580480003, 13580480004, 13580480005, 13580480008, 13147597406, 13580480007, 13580480009, 13580480010, 13580480011, 13580480012, 13580480013, 13580480014, 13580480015, 13580480147, 13580480148, 13580480149, 13580480150, 13580480151, 13580480153, 13580480154, 13580480152, 13147512598], "tags": {"amenity": "school", "name": "重庆巴蜀中学（张家花园校区）", "name:en": "Chongqing Bashu Middle School (Zhangjia-huayuan Campus)", "name:zh": "重庆巴蜀中学（张家花园校区）", "old_name": "重庆市四十二中"}}, {"type": "way", "id": 1442150366, "center": {"lat": 29.5545848, "lon": 106.5435629}, "nodes": [13232880692, 13232880693, 13232880694, 13232880695, 13232880696, 13232880697, 13232880698, 13232880692], "tags": {"amenity": "school", "name": "肖家沟小学"}}, {"type": "way", "id": 1444543980, "center": {"lat": 29.5524967, "lon": 106.4834465}, "nodes": [13254478887, 13254478888, 13254478889, 13254478890, 13254478891, 13254478892, 13254478893, 13254490007, 13254478894, 13254478895, 13254478896, 13254490006, 13254478897, 13254490029, 13254478898, 13254490026, 13254478899, 13254478900, 13254490027, 13254490001, 13254490028, 13254490002, 13254490003, 13254490004, 13254490005, 13254478887], "tags": {"amenity": "school", "education": "school", "name": "重庆巴蜀中学虎头岩校区", "name:zh": "重庆巴蜀中学虎头岩校区"}}, {"type": "node", "id": 1727325747, "lat": 29.5342445, "lon": 106.6017569, "tags": {"1st teaching": "true", "alt_name": "自动化学院总基地", "amenity": "school", "name": "一教(First Teaching Building)"}}, {"type": "node", "id": 1727325766, "lat": 29.5352202, "lon": 106.6011716, "tags": {"amenity": "school", "name": "七教(Seventh Teaching Building)"}}, {"type": "node", "id": 1727325767, "lat": 29.5338337, "lon": 106.6010059, "tags": {"alt_name": "大哥大楼", "amenity": "school", "name": "信科大楼(Information Technology Building)"}}, {"type": "node", "id": 4139987104, "lat": 29.5243072, "lon": 106.5635368, "tags": {"amenity": "hospital", "healthcare": "hospital", "name": "康平医院", "name:en": "Kangping Hospital", "name:zh": "康平医院"}}, {"type": "node", "id": 4140409990, "lat": 29.5131117, "lon": 106.5681232, "tags": {"amenity": "school", "name": "江南小学", "name:en": "Jiangnan Primary School"}}, {"type": "node", "id": 4140850960, "lat": 29.5385617, "lon": 106.5706094, "tags": {"amenity": "school", "name": "玛瑙学校"}}, {"type": "node", "id": 5473007183, "lat": 29.557732, "lon": 106.5926633, "tags": {"amenity": "college", "name": "重庆社会主义学院"}}, {"type": "node", "id": 12998717919, "lat": 29.5314988, "lon": 106.5660019, "tags": {"amenity": "hospital", "healthcare": "hospital", "healthcare:speciality": "stomatology", "name": "刘愉口腔诊所"}}, {"type": "way", "id": 249648470, "center": {"lat": 29.5295903, "lon": 106.555525}, "nodes": [2562266719, 2562265827, 2562265828, 2562265829, 2562265830, 2562265831, 2562266719], "tags": {"amenity": "school", "name": "天台岗小学 - 主校区", "name:en": "Tiantaigang Primary School - Main Campus"}}, {"type": "way", "id": 249649207, "center": {"lat": 29.5214201, "lon": 106.5633437}, "nodes": [963505626, 13006710476, 13006710477, 2562270899, 2825691050, 13006710488, 13006710475, 2825691052, 963505626], "tags": {"amenity": "school", "name": "珊瑚实验小学", "name:en": "Shanhu Experimental Primary School", "name:zh": "珊瑚实验小学"}}, {"type": "way", "id": 249649391, "center": {"lat": 29.51727, "lon": 106.5631992}, "nodes": [963174330, 2825691209, 12358326143, 13001936117, 13001936116, 13001936115, 13001936122, 13001936123, 13001936118, 13001936119, 2825691208, 13001936120, 13001936121, 2825691207, 2825691206, 2825691215, 12358326142, 13001931923, 13001931922, 2825691095, 13001931921, 13001931920, 2825691096, 13001931912, 963174330], "tags": {"amenity": "school", "name": "重庆南坪中学", "name:en": "Nanping High School", "name:zh": "重庆南坪中学"}}, {"type": "way", "id": 249652151, "center": {"lat": 29.520444, "lon": 106.5562489}, "nodes": [2562270898, 2825691058, 2562302761, 2562302762, 2562302764, 2562270898], "tags": {"amenity": "school", "name": "电建子弟校(金山路小学)", "name:en": "Dianjian Community School"}}, {"type": "way", "id": 249652293, "center": {"lat": 29.5318204, "lon": 106.5546974}, "nodes": [2562303639, 2562303640, 2828053753, 7566670485, 2828053754, 2828053752, 2562303639], "tags": {"amenity": "school", "name": "天台岗小学(上海城校区)", "name:en": "Tiantaigang Primary School (Shanghai Town Campus)"}}, {"type": "way", "id": 249652369, "center": {"lat": 29.5248036, "lon": 106.5481644}, "nodes": [2562304563, 2562304564, 2562304565, 2562304566, 2562304567, 2562304568, 2562304563], "tags": {"amenity": "school", "name": "天台岗小学（花园村校区）", "name:en": "Tiantaigang Primary School - Huayuan Village Campus"}}, {"type": "way", "id": 249652414, "center": {"lat": 29.5153561, "lon": 106.5568694}, "nodes": [2828074723, 2828074712, 2828074713, 2828074718, 2828074723], "tags": {"amenity": "school", "name": "青龙路小学", "name:en": "Qinglong Road Primary School"}}, {"type": "way", "id": 249652648, "center": {"lat": 29.5277922, "lon": 106.5591417}, "nodes": [2562307007, 2562307009, 8121427464, 2562307011, 2562307013, 2562307015, 2562307018, 2562307007], "tags": {"amenity": "school", "name": "珊瑚中学", "name:en": "Shanhu High School - Main Campus"}}, {"type": "way", "id": 249661910, "center": {"lat": 29.5287879, "lon": 106.5388462}, "nodes": [2562421127, 2562421132, 11753242707, 2562421134, 11753242706, 11753242705, 11753242704, 11753242703, 11753242702, 11753242701, 11753242700, 2562421138, 2562421139, 2825691100, 2825691099, 2825691201, 2562421146, 2562421127], "tags": {"addr:district": "南岸区", "addr:housenumber": "10", "addr:postcode": "400069", "addr:province": "重庆市", "addr:street": "风临路", "amenity": "school", "grades": "7-12", "name": "重庆南开（融侨）中学校", "name:en": "Chongqing Nankai (Rongqiao) Secondary School", "name:zh": "重庆南开（融侨）中学校"}}, {"type": "way", "id": 412586972, "center": {"lat": 29.544725, "lon": 106.6059696}, "nodes": [4139789893, 4139789894, 4139789895, 8795982826, 8795982827, 4139789896, 4139789897, 8795982810, 4139789899, 4139789900, 8795982417, 4139789901, 4139789893], "tags": {"amenity": "school", "name": "重庆第二外国语学校", "name:en": "Chongqing Second Foreign Language High School", "name:zh": "重庆第二外国语学校"}}, {"type": "way", "id": 412587000, "center": {"lat": 29.4996478, "lon": 106.5933107}, "nodes": [623936803, 12996881099, 12992443699, 12992443698, 12992443697, 12992443696, 4139790454, 4139790455, 12992456301, 12992456302, 12992456303, 12992456304, 4139790456, 12992456305, 4139790457, 13296763371, 13296763370, 13296763369, 12992456306, 12992456308, 13296763368, 13296763372, 12992456309, 12992456311, 12992456312, 4139790459, 4139790460, 12996939217, 4139790461, 12992443689, 12992443690, 12992443691, 12996881091, 12996881090, 4139790462, 12996881092, 4139790463, 12996881093, 12996881094, 4139790464, 4139790465, 12996881095, 12996881096, 4139790466, 12996881097, 4139790467, 623936807, 12996881098, 12992443695, 623936803], "tags": {"amenity": "university", "education": "university", "name": "重庆第二师范学院（南山校区）", "name:en": "Chongqing No.2 Normal College at South Mountain", "name:zh": "重庆第二师范学院（南山校区）"}}, {"type": "way", "id": 412587728, "center": {"lat": 29.532035, "lon": 106.6042216}, "nodes": [8795982825, 12453144230, 12453144229, 8795982501, 12453144231, 8795982510, 8795982511, 4139797908, 12453138392, 12453138393, 12453138394, 12453138395, 12453138396, 12453138397, 12453138398, 4139797909, 12453138399, 12453138400, 12453144201, 12453144202, 12453144203, 4139797910, 12453144204, 12453144205, 12453144206, 12453144207, 12453144208, 4139797911, 12453138373, 12453138375, 12453138374, 12453138376, 2822047996, 2822047994, 2822047993, 7543217415, 7543217414, 7543217413, 2822047983, 8795983323, 4139797912, 8795983324, 12453144341, 4139797913, 8795983325, 8795983326, 8795983327, 4139797914, 8795983328, 8795983329, 8795983330, 4139797915, 8795983331, 8795983332, 8795983333, 8795983334, 8795983335, 8795983336, 8795983337, 8795983338, 8795983339, 4139797916, 8795983340, 8795983341, 8795983342, 8795983343, 8795983344, 13347433144, 13347433146, 13347433145, 13347433147, 8795983345, 8795983346, 8795983347, 8795983350, 8795983348, 8795983349, 8795983351, 8795983352, 8795983353, 8795983354, 8795982636, 8795983355, 8795983356, 4139797917, 4139797918, 4139797919, 4139797920, 4139797921, 4139797922, 8795982627, 8795982626, 8795982622, 8795982613, 8795982615, 8795982614, 8795982602, 8795982825], "tags": {"addr:district": "南岸区", "addr:housenumber": "2", "addr:postcode": "400065", "addr:province": "重庆市", "addr:street": "崇文路", "amenity": "university", "education": "university", "name": "重庆邮电大学", "name:en": "Chongqing University of Posts and Telecommunications", "website": "https://www.cqupt.edu.cn/", "wikidata": "Q5104676", "wikipedia": "zh:重庆邮电大学"}}, {"type": "way", "id": 412616791, "center": {"lat": 29.5239989, "lon": 106.5515702}, "nodes": [4139987105, 4139987106, 8017304917, 4139987107, 4139987108, 4139987109, 4139987110, 4139987111, 4139987112, 4139987113, 4139987105], "tags": {"amenity": "hospital", "healthcare": "hospital", "name": "重庆市第六人民医院", "name:en": "Chongqing No.6 Hospital"}}, {"type": "way", "id": 412677865, "center": {"lat": 29.5083705, "lon": 106.5785148}, "nodes": [4140410014, 5575376501, 4140410015, 8045581002, 12436851520, 4140410018, 12240678422, 4140410202, 4140410020, 4140410021, 4140410022, 4140410023, 4140410024, 4140410025, 4140410026, 4140410027, 4140410028, 4140410029, 5575376787, 4140410030, 2824116095, 4140410031, 4140410032, 12436834976, 2824116096, 2824119632, 7576158507, 4140410036, 4140410037, 12436851475, 12436851474, 12436851473, 12436851472, 12436851471, 12436851470, 12436851469, 12436851466, 12436851468, 12436851467, 5575376494, 5575376496, 12436851515, 12436851516, 4140410014], "tags": {"addr:city": "Chongqing", "addr:housenumber": "19", "addr:postcode": "400067", "addr:street": "Xuefu avenue", "amenity": "university", "name": "重庆工商大学", "name:en": "Chongqing University of Technology and Business", "wikidata": "Q5104671", "wikipedia": "en:Chongqing Technology and Business University"}}, {"type": "way", "id": 412677867, "center": {"lat": 29.5025757, "lon": 106.555021}, "nodes": [4140410044, 4140410045, 9759621441, 4140410046, 4140410047, 4140410048, 4140410050, 4140410051, 4140410044], "tags": {"amenity": "school", "name": "天台岗小学 - 雅居乐校区", "name:en": "Tiantaigang Primary School - Yajule"}}, {"type": "way", "id": 412677871, "center": {"lat": 29.4903657, "lon": 106.567229}, "nodes": [4140410093, 4140410094, 4140410095, 4140410096, 4140410097, 4140410098, 4140410099, 4140410100, 9427493237, 4140410101, 4140410102, 9427493238, 4140410103, 4140410104, 4140410105, 9427502497, 4140410106, 4140410107, 12862876620, 4140410108, 4140410109, 4140410110, 4140410111, 12862866167, 12862866169, 12862866168, 12862866170, 12862866171, 12862866173, 12862866177, 12862866178, 12862866179, 12862866180, 4140410112, 12862866181, 12862866182, 4175208912, 12862866183, 13013780822, 12862866184, 12862866185, 12862866186, 12862866187, 4140410113, 4140410114, 4140410116, 13004280696, 13013780838, 4140410117, 13014863331, 4140410093], "tags": {"addr:housenumber": "66号", "addr:street": "学府大道", "amenity": "university", "education": "university", "name": "重庆交通大学", "name:en": "Chongqing Jiaotong University", "wikidata": "Q5104660"}}, {"type": "way", "id": 412742024, "center": {"lat": 29.5372313, "lon": 106.553938}, "nodes": [4140850905, 4140850906, 4140850907, 4140850908, 4140850909, 4140850910, 4140850911, 4140850912, 4140850913, 9687188965, 9687188966, 10821434997, 10821434998, 10821440840, 10821434999, 10821440841, 10821435000, 10821435001, 10821440842, 9687188967, 9687188968, 4140850905], "tags": {"amenity": "school", "name": "天台岗小学（融创校区）", "name:en": "Tiantaigang Primary School - Rongchuang Campus"}}, {"type": "way", "id": 412742031, "center": {"lat": 29.5327711, "lon": 106.5757593}, "nodes": [4140850992, 4140850993, 4140850994, 4140850995, 4140850996, 4140850997, 4140850998, 4140850999, 4140851000, 4140851001, 4140850992], "tags": {"amenity": "school", "name": "辅仁中学", "name:en": "Furen High School"}}, {"type": "way", "id": 497715818, "center": {"lat": 29.5979297, "lon": 106.5958129}, "nodes": [4892352300, 4892352299, 4892352298, 4892352297, 4892352301, 4892352300], "tags": {"amenity": "school", "name": "重庆市第三十八中学校"}}, {"type": "way", "id": 553175176, "center": {"lat": 29.5049546, "lon": 106.6555666}, "nodes": [5340111202, 10246131968, 9422236433, 5340111203, 11179037253, 5340111204, 10246131967, 10246131966, 5340111205, 10246131964, 5340111206, 5340111207, 10246131963, 10246131962, 5340111208, 10246131971, 5340111209, 5340111202], "tags": {"amenity": "school", "name": "重庆市龙门浩职业中学", "name:en": "Chongqing Longmenhao Vocational School"}}, {"type": "way", "id": 582460713, "center": {"lat": 29.535199, "lon": 106.6002657}, "nodes": [5570482070, 5570482071, 5570482072, 5570482073, 5570482074, 5570482075, 5570482076, 5570482077, 5570482078, 5570482079, 5570482080, 5570482081, 5570482082, 5570482083, 5570482084, 5570482085, 5570482086, 5570482087, 5570482070], "tags": {"amenity": "hospital", "healthcare": "hospital", "name": "校医院"}}, {"type": "way", "id": 607831615, "center": {"lat": 29.5055697, "lon": 106.5638644}, "nodes": [5759701041, 5759701052, 5759701042, 5759701043, 5759701044, 5759701045, 5759701046, 5759701047, 5759701048, 5759701049, 5759701050, 5759701051, 5759701041], "tags": {"amenity": "university", "name": "重庆工商大学-兰花湖校区"}}, {"type": "way", "id": 621220505, "center": {"lat": 29.5030909, "lon": 106.5517847}, "nodes": [5868476833, 5868476834, 5868476835, 5868476836, 5868476837, 5868476838, 5868476833], "tags": {"amenity": "kindergarten"}}, {"type": "way", "id": 621220507, "center": {"lat": 29.5009951, "lon": 106.5557656}, "nodes": [5868476839, 5868476840, 5868476841, 5868476842, 5868476843, 5868476844, 5868476845, 5868476846, 5868476839], "tags": {"amenity": "school", "name": "110中学 - 雅居乐校区"}}, {"type": "way", "id": 707842548, "center": {"lat": 29.5270776, "lon": 106.5557534}, "nodes": [6651110821, 6651110831, 6651110830, 6651110837, 6651110836, 6651110835, 6651110834, 6651110822, 6651110811, 6651110820, 6651110821], "tags": {"amenity": "kindergarten", "name": "南岸区珊瑚幼儿园"}}, {"type": "way", "id": 809027096, "center": {"lat": 29.5197238, "lon": 106.644688}, "nodes": [7564824575, 7564824577, 7564824578, 11813425277, 7564824579, 7564824580, 7564824581, 7564824582, 7564824583, 13000115100, 7564824584, 7564824575], "tags": {"amenity": "school", "name": "城南家园小学", "name:en": "Chengnan Jiayuan Elementary School"}}, {"type": "way", "id": 809027100, "center": {"lat": 29.518914, "lon": 106.6478088}, "nodes": [7564829994, 11381274277, 7564830002, 7564830003, 7564829996, 7564829995, 7564829994], "tags": {"amenity": "kindergarten", "name": "新城幼儿园"}}, {"type": "way", "id": 809027122, "center": {"lat": 29.5168314, "lon": 106.6462619}, "nodes": [7564830064, 7564830250, 7564830044, 7564830045, 7564830064], "tags": {"amenity": "kindergarten", "name": "诺维亚幼儿园"}}, {"type": "way", "id": 863652713, "center": {"lat": 29.5416784, "lon": 106.6018751}, "nodes": [8045445433, 8045445434, 8045445435, 8045445436, 8045445437, 8045445438, 8795982821, 8045445439, 8045445433], "tags": {"amenity": "school", "name": "黄桷垭小学"}}, {"type": "way", "id": 863657602, "center": {"lat": 29.5232639, "lon": 106.6004893}, "nodes": [8045579977, 8045579978, 8045579979, 8045579980, 8045579981, 8045579982, 8045579983, 8045579984, 8045580985, 8045580986, 8045579977], "tags": {"amenity": "school", "name": "Xinshichang Primary School"}}, {"type": "way", "id": 863657603, "center": {"lat": 29.5166185, "lon": 106.5777741}, "nodes": [8045580987, 13013593404, 13013593403, 13013593406, 13013593405, 13013593401, 13013593402, 13013567297, 13013593407, 13013567300, 13013567299, 13013567298, 8045580989, 8045580990, 8045580987], "tags": {"amenity": "college", "name": "重庆机电工程技术学校", "name:en": "Chongqing Electromechanical Engineering School", "name:zh": "重庆机电工程技术学校"}}, {"type": "way", "id": 863657604, "center": {"lat": 29.5133883, "lon": 106.5737837}, "nodes": [8045580991, 8045580992, 8045580993, 8045580994, 8045580995, 8045580996, 8045580997, 8045580998, 8045580999, 8045581000, 8045581001, 8045581002, 4140410015, 5575376501, 4140410014, 12436851529, 12436851528, 8045580991], "tags": {"amenity": "college", "name": "重庆第二师范学院学府大道校区"}}, {"type": "way", "id": 863657605, "center": {"lat": 29.5112228, "lon": 106.571536}, "nodes": [8045581006, 8045581007, 8045581008, 8045581009, 8045581010, 8045581006], "tags": {"amenity": "school", "name": "重庆110中学", "name:en": "Chongqing No.110 Middle School", "name:zh": "重庆110中学"}}, {"type": "way", "id": 863879894, "center": {"lat": 29.5382309, "lon": 106.5433399}, "nodes": [8048154915, 13136364261, 13136364259, 13136364260, 13136364258, 8048154916, 8048154917, 8069970670, 13136364257, 13136364342, 8048154915], "tags": {"amenity": "school", "name": "重庆市南岸区南坪长江实验学校", "name:en": "Nanping Changjiang Experimental School", "name:zh": "重庆市南岸区南坪长江实验学校"}}, {"type": "way", "id": 863879896, "center": {"lat": 29.5032743, "lon": 106.6565351}, "nodes": [5340111209, 10246131971, 5340111208, 10246131962, 10246131963, 5340111207, 10246131972, 10246131973, 8629395000, 8048154924, 10246131969, 10246131970, 5340111209], "tags": {"amenity": "school", "name": "珊瑚中铁小学", "name:en": "Zhongtie Shanhu Primary School"}}, {"type": "way", "id": 863879897, "center": {"lat": 29.5095558, "lon": 106.650523}, "nodes": [8048154925, 8048154926, 11274608274, 9422236426, 11297395823, 9427128178, 9422236428, 11274608276, 11274608275, 11297395824, 8048154928, 11818689764, 8048154929, 8048154925], "tags": {"amenity": "hospital", "healthcare": "hospital", "name": "重庆东南医院", "name:en": "Chongqing Southeast Hospital"}}, {"type": "way", "id": 863879898, "center": {"lat": 29.5154881, "lon": 106.6576836}, "nodes": [8048154930, 11296633029, 9422221209, 8048154931, 9422221210, 9422236425, 9422221211, 9422221212, 8048154932, 9422236422, 9422236421, 8048154933, 9422236420, 9422236419, 9422236418, 9422236417, 9422221213, 9422221216, 8048154934, 9422221215, 9422221214, 8048154930], "tags": {"amenity": "school", "name": "长生桥中学", "name:en": "Changshengqiao High School"}}, {"type": "way", "id": 863879901, "center": {"lat": 29.5092746, "lon": 106.657538}, "nodes": [8048154945, 8048154946, 11383042075, 11383042076, 11383042077, 11383042078, 11383042079, 8048154947, 11383042074, 8048154948, 8048154949, 11383042072, 8048154950, 8048154945], "tags": {"amenity": "school", "name": "长生小学", "name:en": "Changsheng Primary School"}}, {"type": "way", "id": 950129569, "center": {"lat": 29.5362487, "lon": 106.5968657}, "nodes": [8795983615, 2562285955, 8795982645, 2562285953, 8795982644, 8795983528, 8795983529, 8795983530, 8795983531, 8795983532, 8795983533, 8795983534, 8795983535, 8795983536, 8795983537, 8795983538, 8795983539, 8795983540, 8795983541, 8795983542, 8795983543, 8795983544, 8795983545, 8795983546, 8795983547, 8795983548, 8795983549, 8795983550, 8795983551, 8795983552, 8795983553, 8795983554, 8795983555, 8795983556, 8795983557, 8795983558, 8795983559, 8795983560, 8795983561, 8795983562, 8795983563, 8795983564, 8795983565, 8795983566, 8795983567, 8795983568, 8795983569, 8795983570, 8795983571, 8795983572, 8795983573, 8795983574, 8795983575, 8795983576, 8795983577, 8795983578, 8795983579, 8795983580, 8795983581, 8795983582, 8795983583, 8795983584, 8795983585, 8795983586, 8795983587, 8795983588, 8795983589, 8795983590, 8795983591, 8795983592, 8795983593, 8795983594, 8795983595, 8795983596, 8795983597, 8795983598, 8795983599, 8795983600, 8795983601, 8795983602, 8795983603, 8795983604, 8795983605, 8795983606, 8795983607, 8795983608, 8795983609, 8795983610, 8795983611, 8795983612, 8795983613, 8795983614, 8795983615], "tags": {"amenity": "school", "name": "广益中学", "name:en": "Guangyi High School"}}, {"type": "way", "id": 950134128, "center": {"lat": 29.5452977, "lon": 106.5932701}, "nodes": [8796014831, 8796014830, 8796014829, 8796014828, 8796014827, 8796014826, 8796014825, 8796014824, 8796014823, 8796014822, 8796014821, 8796014820, 8796014819, 8796014831], "tags": {"amenity": "school", "name": "重庆航运旅游学校"}}, {"type": "way", "id": 1004918337, "center": {"lat": 29.5370694, "lon": 106.6057299}, "nodes": [9271772704, 9271772705, 9271772706, 9271772707, 9271772704], "tags": {"amenity": "college", "name": "体育学院"}}, {"type": "way", "id": 1018942894, "center": {"lat": 29.5138897, "lon": 106.6789486}, "nodes": [9398199812, 9398199813, 9398199814, 9398213069, 9398199815, 9398213068, 9398213067, 9398213066, 9398199816, 9398213017, 9398199812], "tags": {"amenity": "school", "name": "江南水岸小学"}}, {"type": "way", "id": 1018942914, "center": {"lat": 29.5163618, "lon": 106.6758416}, "nodes": [9398213092, 9398213093, 9398213094, 9398213095, 9398213096, 9398213097, 9398213098, 9398213099, 9398213100, 9398213101, 9398213102, 9398213092], "tags": {"amenity": "school", "name": "江南广茂小学"}}, {"type": "way", "id": 1021613183, "center": {"lat": 29.5218696, "lon": 106.6503035}, "nodes": [9422197104, 9422296827, 9422296828, 9422296829, 9422197102, 9422197103, 9422197104], "tags": {"amenity": "kindergarten", "name": "小小藤幼儿园"}}, {"type": "way", "id": 1021647932, "center": {"lat": 29.5154003, "lon": 106.6464472}, "nodes": [9422632854, 9422632855, 9422632856, 9422632857, 9422632858, 9422632859, 9422632854], "tags": {"amenity": "school", "name": "南岸区广福未来学校"}}, {"type": "way", "id": 1022188352, "center": {"lat": 29.4945951, "lon": 106.558978}, "nodes": [9427478686, 9427492948, 9427478687, 9427478688, 9427478689, 9427478690, 9427478691, 9427478692, 9427478701, 9427478686], "tags": {"amenity": "school", "name": "南坪实验外国语小学"}}, {"type": "way", "id": 1022188353, "center": {"lat": 29.4958192, "lon": 106.5589902}, "nodes": [9427478686, 9427492947, 9427492965, 9427492962, 9427478693, 9427478694, 9427478695, 9427478696, 9427478697, 9427478698, 9427478699, 9427478700, 9427478701, 9427478686], "tags": {"amenity": "school", "name": "观塘中学"}}, {"type": "way", "id": 1028949863, "center": {"lat": 29.493097, "lon": 106.6490386}, "nodes": [9486198095, 11178949707, 9486198097, 9486198098, 11178949706, 9486198099, 11178949704, 9486198105, 11297337432, 9486198106, 11297337433, 11297337434, 9486198108, 9486198112, 9486198113, 11178949723, 9486198114, 9486198095], "tags": {"amenity": "school", "name": "香溪小学"}}, {"type": "way", "id": 1036182336, "center": {"lat": 29.5300143, "lon": 106.5722004}, "nodes": [9546570636, 9546570637, 9546570638, 9546570639, 9546570640, 9546570641, 9546570642, 9546570636], "tags": {"amenity": "school", "name": "南坪实验小学(康德校区)"}}, {"type": "way", "id": 1076617376, "center": {"lat": 29.533439, "lon": 106.5431225}, "nodes": [4142048846, 9872645182, 4142048827, 9872645140, 4142048826, 9872645139, 4142048825, 4142048847, 4142048846], "tags": {"amenity": "school", "name": "川益小学"}}, {"type": "way", "id": 1101671538, "center": {"lat": 29.5415349, "lon": 106.6589557}, "nodes": [10081485403, 10081485404, 10081485405, 10081485406, 10081485407, 10081485408, 10081485409, 10081485416, 10081513417, 10081485410, 10081485415, 10081485414, 10081485411, 10081485412, 11874321058, 11874321059, 11874321053, 10081485413, 10081485403], "tags": {"amenity": "hospital", "healthcare": "hospital", "name": "重庆医科大学附属第二医院江南院区"}}, {"type": "way", "id": 1153741548, "center": {"lat": 29.4947743, "lon": 106.6373038}, "nodes": [10729797023, 10729797026, 10729797027, 10729797022, 10729797024, 10729797023], "tags": {"amenity": "kindergarten", "name": "珊瑚时代都汇幼儿园"}}, {"type": "way", "id": 1153741550, "center": {"lat": 29.4981113, "lon": 106.6292728}, "nodes": [10729797038, 10729797039, 10729797040, 10729797041, 11281204125, 11281204124, 11281204123, 10729797042, 10729797038], "tags": {"amenity": "school", "name": "珊瑚鲁能小学"}}, {"type": "way", "id": 1153741552, "center": {"lat": 29.4997843, "lon": 106.630819}, "nodes": [10729797039, 10729797047, 11873369308, 10729797048, 10729797049, 10729797040, 10729797039], "tags": {"amenity": "school", "name": "重庆珊瑚中学（江南新城校区）"}}, {"type": "way", "id": 1173616468, "center": {"lat": 29.5180896, "lon": 106.5942193}, "nodes": [10904718817, 10904718818, 10904718819, 10904718820, 10904718821, 10904718824, 10904718822, 10904718823, 10904718817], "tags": {"amenity": "school"}}, {"type": "way", "id": 1177468155, "center": {"lat": 29.5938053, "lon": 106.585791}, "nodes": [10939031318, 10939031319, 10939031320, 10939031321, 10939031322, 10939031318], "tags": {"amenity": "school", "name": "弹子石小学中海校区"}}, {"type": "way", "id": 1177488233, "center": {"lat": 29.5913694, "lon": 106.5964478}, "nodes": [10939184824, 10939184825, 10939184826, 7891367565, 7891367566, 10939184827, 10939184828, 10939184829, 10939184830, 10939184831, 10939184832, 10939184824], "tags": {"amenity": "school", "name": "弹子石中学校"}}, {"type": "way", "id": 1177488234, "center": {"lat": 29.5925603, "lon": 106.596509}, "nodes": [10939184824, 10939184833, 10939184834, 10939184835, 10939184836, 10939184837, 10939184825, 10939184824], "tags": {"amenity": "school", "name": "南岸区大佛段小学校"}}, {"type": "way", "id": 1177834143, "center": {"lat": 29.6080468, "lon": 106.6034906}, "nodes": [10941689430, 10941689431, 10941689432, 10941689433, 10941689434, 10941689435, 10941689436, 11220277968, 10941689473, 10941689437, 10941689438, 10941689439, 10941689440, 11220277970, 10941689442, 10941689443, 10941689444, 11220277969, 10941689430], "tags": {"amenity": "hospital", "healthcare": "hospital", "name": "重庆市第五人民医院新院区"}}, {"type": "way", "id": 1198056435, "center": {"lat": 29.5354819, "lon": 106.6557299}, "nodes": [11114523394, 11114523399, 11114523400, 11114523401, 11114523402, 11114523393, 11114523394], "tags": {"amenity": "school", "name": "广阳湾珊瑚实验小学", "name:en": "Guangyangwan Shanhu Experimental Primary School", "name:zh": "广阳湾珊瑚实验小学"}}, {"type": "way", "id": 1206414101, "center": {"lat": 29.5070266, "lon": 106.6525498}, "nodes": [11179037227, 11179037230, 11179037229, 11179037228, 11179037227], "tags": {"amenity": "police", "name": "长生桥派出所"}}, {"type": "way", "id": 1208215855, "center": {"lat": 29.4853419, "lon": 106.6288988}, "nodes": [11195306398, 11195306399, 11195306400, 11195306401, 11195306402, 11195306403, 11195306406, 2541473197, 11195306398], "tags": {"amenity": "school", "name": "南岸区南坪实验光华小学"}}, {"type": "way", "id": 1210995549, "center": {"lat": 29.5465088, "lon": 106.6503267}, "nodes": [11220198240, 11220198241, 11220198242, 11220198243, 11220198244, 11220198245, 11220198246, 11220198247, 11220198248, 11220198249, 11220198250, 11220198251, 11220198252, 11947856996, 11947856993, 11947856994, 11947856995, 11220198253, 11220198254, 11220198255, 11220198256, 11220198257, 11220198258, 11220198259, 11220198260, 11220198261, 11220198240], "tags": {"amenity": "university", "construction": "university", "landuse": "construction", "name": "重庆工商大学茶园校区"}}, {"type": "way", "id": 1216781344, "center": {"lat": 29.5214625, "lon": 106.642058}, "nodes": [11274446772, 11274446773, 11274446782, 11274446774, 11274446775, 11274446776, 11274446777, 11274446772], "tags": {"amenity": "school", "grades": "0-6", "name": "天台岗万国城小学"}}, {"type": "way", "id": 1216783953, "center": {"lat": 29.5345095, "lon": 106.6620945}, "nodes": [11274477786, 11274477787, 11274477788, 11274477791, 11274477789, 11274477790, 11274477786], "tags": {"amenity": "school", "name": "重庆广阳湾珊瑚中学"}}, {"type": "way", "id": 1216834217, "center": {"lat": 29.5300552, "lon": 106.6695838}, "nodes": [11274932835, 11274932836, 11294751758, 11274932837, 2541456815, 2541456790, 11274932835], "tags": {"amenity": "school", "name": "江南艺术中学校"}}, {"type": "way", "id": 1217516028, "center": {"lat": 29.4962078, "lon": 106.6252845}, "nodes": [11274446925, 11281204104, 11274446923, 11274446924, 11274446925], "tags": {"amenity": "kindergarten", "name": "巴学小苑幼儿园"}}, {"type": "way", "id": 1263147984, "center": {"lat": 29.5797088, "lon": 106.5877383}, "nodes": [11736212098, 11736212099, 11736212100, 11736212101, 11736212098], "tags": {"amenity": "kindergarten", "name": "南岸区弹子石幼儿园"}}, {"type": "way", "id": 1265206952, "center": {"lat": 29.530077, "lon": 106.5400923}, "nodes": [11753242706, 11753242708, 11753242709, 11753242710, 11753242711, 11753242712, 2562421138, 11753242700, 11753242701, 11753242702, 11753242703, 11753242704, 11753242705, 11753242706], "tags": {"addr:district": "南岸区", "addr:housenumber": "12", "addr:postcode": "400069", "addr:province": "重庆市", "addr:street": "风临路", "amenity": "school", "grades": "0-6", "name": "重庆人民（融侨）小学校", "name:en": "Chongqing Renmin (Rongqiao) Primary School", "name:zh": "重庆人民（融侨）小学校"}}, {"type": "way", "id": 1271930994, "center": {"lat": 29.4822683, "lon": 106.6205235}, "nodes": [11811392869, 11811392870, 11811392871, 11811392872, 11811392873, 11811392874, 11811392875, 11813659884, 11811392876, 11811392877, 11811392878, 11811392879, 11811392869], "tags": {"amenity": "school", "name": "重庆市第十一中金科学校"}}, {"type": "way", "id": 1271930995, "center": {"lat": 29.4817987, "lon": 106.622453}, "nodes": [11811392872, 11811392880, 11813659838, 11811392881, 11811392873, 11811392872], "tags": {"amenity": "school", "grades": "0-6", "name": "南坪实验金科小学"}}, {"type": "way", "id": 1271930998, "center": {"lat": 29.4844942, "lon": 106.63463}, "nodes": [11811392919, 11811392920, 8764653803, 8764653802, 11811392921, 11811392919], "tags": {"amenity": "college", "name": "中共南岸区委党校"}}, {"type": "way", "id": 1272031279, "center": {"lat": 29.4733863, "lon": 106.6171897}, "nodes": [11812100025, 11812100026, 11812100027, 11812100028, 11812100029, 11812100030, 11812100031, 11812100032, 11812100033, 11812100034, 11812100035, 11812100036, 11812100037, 11812100038, 11812100025], "tags": {"amenity": "school", "name": "重庆文德中学校"}}, {"type": "way", "id": 1272198724, "center": {"lat": 29.4787932, "lon": 106.6265731}, "nodes": [11813659813, 12864607162, 12864607161, 11813659814, 11813659815, 11813659816, 11813659817, 11813659818, 11813659819, 12864607159, 11813659820, 11813659813], "tags": {"amenity": "school", "grades": "10-12", "name": "重庆市机电工程高级技工学校"}}, {"type": "way", "id": 1284269227, "center": {"lat": 29.5432324, "lon": 106.6578669}, "nodes": [11914519795, 11914519796, 11914519797, 11914519798, 11914519795], "tags": {"amenity": "college", "name": "重庆市南岸区教师进修学院"}}, {"type": "way", "id": 1285937273, "center": {"lat": 29.5372628, "lon": 106.5650131}, "nodes": [11928304678, 11928304679, 11928304680, 11928304681, 11928304682, 11928304683, 11928304684, 11928304685, 11928304678], "tags": {"amenity": "school", "name": "南坪实验小学（正街校区）"}}, {"type": "way", "id": 1295986708, "center": {"lat": 29.5083619, "lon": 106.6643725}, "nodes": [12009067473, 12009067474, 12009067475, 12009067476, 12009067477, 12009067478, 12009067479, 12009067480, 12009067473], "tags": {"amenity": "school", "grades": "0-6", "name": "重庆市南岸区教师进修学院附属小学校"}}, {"type": "way", "id": 1295986709, "center": {"lat": 29.5095369, "lon": 106.6618667}, "nodes": [12009067481, 12009067482, 12009067483, 12009067484, 12009067485, 12009067486, 12009067487, 12009067488, 12009067489, 12009067490, 12009067491, 12009067481], "tags": {"amenity": "hospital", "healthcare": "hospital", "name": "重庆市南岸区第三人民医院"}}, {"type": "way", "id": 1299983851, "center": {"lat": 29.5302567, "lon": 106.7120436}, "nodes": [12041571314, 12041571315, 12041571316, 12041571317, 12041571314], "tags": {"amenity": "police", "building": "yes", "name": "重庆市公安局渝中区分局执法办案管理中心"}}, {"type": "way", "id": 1299983858, "center": {"lat": 29.5244112, "lon": 106.7091066}, "nodes": [12041571348, 12041571349, 12041571350, 12041571351, 12041571352, 12041571353, 12041571354, 12041571348], "tags": {"amenity": "school", "grades": "0-6", "name": "迎龙小学"}}, {"type": "way", "id": 1299983861, "center": {"lat": 29.5236888, "lon": 106.7107072}, "nodes": [12041571366, 12041571367, 12041571368, 12041571369, 12041571370, 12041571371, 12041571372, 12041571373, 12041571374, 12041571375, 12041571376, 12041571366], "tags": {"amenity": "school", "name": "迎龙中学"}}, {"type": "way", "id": 1299983870, "center": {"lat": 29.5238753, "lon": 106.7047292}, "nodes": [12041571531, 12041571532, 12041571533, 12041571534, 12041571535, 12041571531], "tags": {"amenity": "hospital", "healthcare": "hospital", "name": "迎龙镇卫生院"}}, {"type": "way", "id": 1299985712, "center": {"lat": 29.5256456, "lon": 106.7063486}, "nodes": [12041582688, 12041582689, 12041582690, 12041582691, 12041582692, 12041582693, 12041582688], "tags": {"amenity": "kindergarten", "name": "迎龙镇中心幼儿园"}}, {"type": "way", "id": 1299985717, "center": {"lat": 29.5261256, "lon": 106.7108769}, "nodes": [12041582745, 12041582746, 12041582747, 12041582748, 12041582745], "tags": {"amenity": "police", "building": "yes", "name": "迎龙派出所"}}, {"type": "way", "id": 1319569903, "center": {"lat": 29.585138, "lon": 106.739463}, "nodes": [12211215944, 12211215945, 12211215946, 12211215947, 12211215948, 12211215949, 12211215950, 12211215951, 13261552362, 12211215952, 12211215953, 12211215954, 12211215955, 12211215956, 12211215957, 12211215958, 12211215959, 12211215960, 12211215961, 12211215962, 12211215944], "tags": {"amenity": "college", "education": "college", "name": "长江生态文明干部学院"}}, {"type": "way", "id": 1322823323, "center": {"lat": 29.5044971, "lon": 106.5721869}, "nodes": [12240678411, 12240678412, 4140410166, 4140410165, 12240678413, 12240678414, 12240678415, 12240678416, 12240678417, 12240678418, 12240678419, 12240678420, 12240678421, 12240663499, 12240678422, 12240701001, 4140410018, 12240678424, 12240678425, 12240678426, 12240678427, 12240678428, 12240678429, 12240678430, 12240678431, 12240678432, 12240678411], "tags": {"addr:city": "海棠溪街道", "addr:housenumber": "37号", "addr:province": "重庆市", "addr:street": "学府大道", "amenity": "school", "grades": "0-9", "name": "重庆市教科院巴蜀实验学校"}}, {"type": "way", "id": 1323867921, "center": {"lat": 29.6049167, "lon": 106.6110492}, "nodes": [12250517690, 12250517689, 12250517688, 12250517687, 12250517686, 12250517690], "tags": {"amenity": "school", "name": "中窑小学"}}, {"type": "way", "id": 1336751002, "center": {"lat": 29.5339719, "lon": 106.6011426}, "nodes": [12364225262, 12364225263, 12364225264, 12364225265, 12364225266, 12364225267, 12364225268, 12364225269, 12364225270, 12364225271, 12364225272, 12364225273, 12364225274, 12364225275, 12364225276, 12364225277, 12364225278, 12364225279, 12364225280, 12364225287, 12364225281, 12364225282, 12364225283, 12364225284, 12364225262], "tags": {"amenity": "school", "building": "yes", "name": "信科大楼(Information Technology Building)"}}, {"type": "way", "id": 1355360855, "center": {"lat": 29.5258619, "lon": 106.544122}, "nodes": [12543558149, 12543558150, 12543558151, 12543558152, 12543558153, 12543558149], "tags": {"amenity": "school", "name": "重庆珊瑚初级中学（明佳校区）"}}, {"type": "way", "id": 1370599625, "center": {"lat": 29.5938162, "lon": 106.5835793}, "nodes": [12693776967, 12693776968, 12693776969, 12693776970, 12693776971, 12693776972, 12693776967], "tags": {"amenity": "kindergarten", "name": "南岸区爱弥儿幼儿园"}}, {"type": "way", "id": 1380818570, "center": {"lat": 29.5863758, "lon": 106.5809632}, "nodes": [12783489972, 12783489973, 12783489974, 12783489975, 12783489972], "tags": {"amenity": "police", "name": "长江航运公安局重庆分局"}}, {"type": "way", "id": 1381166512, "center": {"lat": 29.5863122, "lon": 106.5827205}, "nodes": [12786160618, 12786160619, 12786167226, 12786167225, 12786160620, 12786160621, 12786160622, 12786160624, 12786160623, 12786160618], "tags": {"amenity": "school", "name": "弹子石小学（卫国路校区）", "name:zh": "弹子石小学（卫国路校区）"}}, {"type": "way", "id": 1381166513, "center": {"lat": 29.5854467, "lon": 106.583492}, "nodes": [12786160635, 12786160636, 12786160637, 12786160638, 12786160639, 12786160640, 12786160641, 12786160668, 12786160642, 12786160643, 12786160644, 12786160645, 12786160646, 12786160647, 12786160648, 12786160649, 12786160650, 12786160622, 12786160621, 12786160620, 12786160651, 12786160652, 12786160653, 12786160654, 12786160655, 12786160656, 12786160657, 12786160658, 12786160659, 12786160660, 12786160635], "tags": {"amenity": "hospital", "healthcare": "hospital", "name": "武警重庆总队医院", "name:zh": "武警重庆总队医院"}}, {"type": "way", "id": 1383565792, "center": {"lat": 29.5854044, "lon": 106.5962939}, "nodes": [12809708168, 12809708169, 13041184259, 7891367549, 12809708172, 12809708173, 12809708174, 12809708175, 12809708176, 12809708177, 12809708178, 12809708179, 12809708180, 12809708181, 12809708168], "tags": {"amenity": "school", "isced:level": "2;3", "name": "重庆市第十一中学校"}}, {"type": "way", "id": 1408393212, "center": {"lat": 29.5387422, "lon": 106.5774146}, "nodes": [12943332236, 12943332237, 12943332238, 12943332239, 12943332240, 12943332241, 12943332242, 12943332243, 12943332244, 12943332245, 12943332246, 12943332247, 12943332248, 12943332249, 12943332236], "tags": {"amenity": "school", "name": "南岸区珊瑚浦辉实验小学", "name:zh": "南岸区珊瑚浦辉实验小学"}}, {"type": "way", "id": 1408811113, "center": {"lat": 29.5768316, "lon": 106.5955455}, "nodes": [12946755148, 12946755149, 12946755150, 12946755151, 12946755152, 12946755153, 12946755154, 12946755155, 12946755156, 12946755157, 12946755158, 12946755159, 12946755164, 12946755160, 12946755148], "tags": {"amenity": "school", "name": "重庆滨江实验学校"}}, {"type": "way", "id": 1408811114, "center": {"lat": 29.5760141, "lon": 106.5946626}, "nodes": [12946755148, 12946755162, 12946755163, 12946755150, 12946755149, 12946755148], "tags": {"amenity": "kindergarten", "name": "南岸区滨江幼儿园"}}, {"type": "way", "id": 1412730838, "center": {"lat": 29.5145211, "lon": 106.5997022}, "nodes": [12982650696, 12982650697, 12982650698, 12982650699, 12982650700, 12982657101, 12982657102, 12982657103, 12982657104, 12982658363, 12982658364, 12982650696], "tags": {"amenity": "school", "name": "南岸区南山珊瑚实验小学", "name:en": "Nan'an District Nanshan-Shanhu Experimental Primary School", "name:zh": "南岸区南山珊瑚实验小学"}}, {"type": "way", "id": 1414667840, "center": {"lat": 29.5008837, "lon": 106.5974201}, "nodes": [12999374157, 12999374158, 12999374159, 12999374160, 12999374161, 12999374162, 12999374163, 12999374157], "tags": {"amenity": "hospital", "healthcare": "hospital", "name": "重庆市南岸区精神卫生中心"}}, {"type": "way", "id": 1414667845, "center": {"lat": 29.5051816, "lon": 106.5965834}, "nodes": [12999406607, 4139790434, 12999406601, 12999374200, 12999374199, 12999374198, 12999374197, 4139790432, 4139790431, 4139790430, 12999406608, 12999406609, 12999406610, 12999406611, 12999406623, 12999406612, 12999406624, 12999406622, 12999406625, 12999406626, 12999406627, 12999406628, 12999406629, 12999406630, 12999406631, 12999406613, 12999406614, 12999406607], "tags": {"amenity": "school", "name": "重庆市广益中学（文峰校区）", "name:zh": "重庆市广益中学（文峰校区）"}}, {"type": "way", "id": 1415417495, "center": {"lat": 29.5216128, "lon": 106.5646656}, "nodes": [13006710498, 13006710499, 13006710500, 13006712501, 13006710498], "tags": {"amenity": "hospital", "healthcare": "hospital", "name": "重庆市残疾人综合服务中心", "name:zh": "重庆市残疾人综合服务中心"}}, {"type": "way", "id": 1419148132, "center": {"lat": 29.5834528, "lon": 106.5978277}, "nodes": [7891367550, 7891367549, 12809708172, 13041184295, 13041184294, 13041184293, 7891367551, 7891367550], "tags": {"amenity": "school", "isced:level": "1", "name": "龙门浩隆平第二小学校"}}, {"type": "node", "id": 2404787511, "lat": 29.9128535, "lon": 121.6255376, "tags": {"amenity": "school", "education": "school", "name": "宁波大学科技学院"}}, {"type": "node", "id": 2404787514, "lat": 29.9111409, "lon": 121.6331682, "tags": {"amenity": "school", "education": "school", "name": "宁波大学"}}, {"type": "node", "id": 7651319119, "lat": 29.9115794, "lon": 121.6241482, "tags": {"amenity": "college", "education": "college", "name": "宁波大学音乐学院"}}, {"type": "node", "id": 11815806242, "lat": 29.9124443, "lon": 121.5657524, "tags": {"amenity": "police", "name": "宁波江北公安分局刑事侦查大队"}}, {"type": "node", "id": 12369654907, "lat": 29.9742885, "lon": 121.4937258, "tags": {"amenity": "school", "name": "无人机培训点", "sport": "model_aerodrome"}}, {"type": "node", "id": 12492461876, "lat": 29.8910052, "lon": 121.5524494, "tags": {"amenity": "police", "name": "江北外滩派出所"}}, {"type": "node", "id": 12623561634, "lat": 29.8928672, "lon": 121.5515281, "tags": {"amenity": "police", "name": "宁波公安江北分局综合执法保障大队"}}, {"type": "node", "id": 12688531699, "lat": 29.9124234, "lon": 121.565959, "tags": {"amenity": "police", "name": "江北区公安分局网警大队"}}, {"type": "node", "id": 13165629788, "lat": 29.9321808, "lon": 121.5139738, "tags": {"amenity": "school", "name": "宁波乔治亚外籍人员子女学校", "name:en": "Ningbo Georgia School"}}, {"type": "way", "id": 232138019, "center": {"lat": 29.9164987, "lon": 121.618845}, "nodes": [2405080781, 2405080415, 2405080810, 2405080540, 2405080636, 2405080413, 2405081021, 2405080847, 2405080781], "tags": {"amenity": "college", "education": "college", "name": "浙江纺织服装职业技术学院"}}, {"type": "way", "id": 232138028, "center": {"lat": 29.9139752, "lon": 121.6081997}, "nodes": [2405081014, 2405080954, 2405081041, 2405080783, 2405080677, 2405081063, 2405080431, 2405080418, 2405081048, 2405080858, 2405080863, 2405080761, 2405080700, 2405080381, 2405080865, 2405080729, 2405080468, 2405080909, 13184617897, 2405081075, 2405080866, 2405080488, 9049917447, 9049917449, 9049917448, 2405081108, 2405080588, 8977136101, 8977136100, 8977136112, 8977136111, 8977136110, 8977136109, 8977136088, 8977136108, 8977136107, 8977136094, 8977136218, 2405080575, 8977136217, 8977136116, 8977136115, 8977136114, 2405080512, 8977136219, 7399972734, 8977136220, 8977136221, 8977136222, 8977136223, 8977136224, 8977136225, 8977136226, 2405081057, 8977136227, 8977136228, 8977136229, 8977136230, 2405080356, 8977136299, 8977136231, 2405080661, 2405081014], "tags": {"amenity": "university", "education": "university", "name": "宁波工程学院", "name:en": "Ningbo University of Technology", "website": "zs.nbut.edu.cn", "wikidata": "Q7038668", "wikipedia": "zh:宁波工程学院"}}, {"type": "way", "id": 232142799, "center": {"lat": 29.9104605, "lon": 121.5914221}, "nodes": [2405133876, 2405134132, 2405133931, 2405133723, 2405134180, 2405133540, 2405134194, 2405133919, 2405133876], "tags": {"amenity": "school", "name": "宁波市江北区第二实验小学"}}, {"type": "way", "id": 232142810, "center": {"lat": 29.9047246, "lon": 121.5928014}, "nodes": [2405134118, 2405133746, 2405134108, 2405133502, 2405133725, 2405133805, 2405133553, 2405134118], "tags": {"amenity": "school", "name": "怡江小学"}}, {"type": "way", "id": 232142836, "center": {"lat": 29.909197, "lon": 121.6333312}, "nodes": [2405134207, 7651322446, 2405133893, 7651322084, 7651322070, 7184249090, 7651322069, 7184249091, 7184249092, 10008712891, 10008712892, 10008712895, 7184249093, 2405134034, 2405133731, 2405134129, 2405134105, 2405133454, 2405133517, 9312413871, 2405134226, 2405134202, 9312413870, 2405133546, 2405134066, 2405133405, 9312413857, 9312413865, 9312413866, 9312413867, 9312413868, 9312413869, 9312413858, 9312413855, 9312413859, 9312413860, 9312413863, 9312413861, 9312413864, 9312413853, 9312413854, 2405134183, 9312413851, 9312413850, 9312413849, 2405133567, 9312413848, 9312413847, 9312413846, 9312413845, 9312413843, 3050235365, 9312376014, 3050235366, 9312376013, 3050235368, 3050235367, 2405134041, 9312376015, 9312413828, 9312413827, 9312413829, 9312413830, 9312413831, 9312413832, 9312413833, 9312413839, 9312413840, 9312413841, 9312413834, 9312413835, 9312413836, 2405134037, 9312413842, 9312413837, 9312413838, 2405134140, 2405134144, 9312413876, 9312413875, 2405134069, 9312413873, 2405134175, 2405134038, 2405133643, 2405133740, 2405133860, 2405133937, 2405133398, 2405134207], "tags": {"amenity": "university", "education": "university", "name": "宁波大学", "name:en": "Ningbo University", "wikidata": "Q4391363", "wikipedia": "zh:宁波大学"}}, {"type": "way", "id": 235144668, "center": {"lat": 29.9146246, "lon": 121.5390216}, "nodes": [2432298477, 2432298625, 2432298688, 2432298320, 2432298780, 2432298792, 2432298477], "tags": {"amenity": "school", "name": "惠贞书院小学部"}}, {"type": "way", "id": 235144689, "center": {"lat": 29.9220756, "lon": 121.5130678}, "nodes": [2432298489, 2432298376, 2432298775, 2432298624, 2432298341, 2432298489], "tags": {"amenity": "college", "name": "宁波技师学院"}}, {"type": "way", "id": 251616675, "center": {"lat": 29.8969966, "lon": 121.5485767}, "nodes": [2578093950, 2578093995, 2578093954, 2578093956, 2578093958, 11954410353, 11954410354, 2578094005, 2578093950], "tags": {"amenity": "school", "name": "宁波市江北实验中学"}}, {"type": "way", "id": 251616676, "center": {"lat": 29.8961827, "lon": 121.5489483}, "nodes": [4719529725, 4719529726, 4719529723, 4719529722, 4719529727, 4719529724, 11415722269, 4719529725], "tags": {"amenity": "kindergarten", "name": "宁波市江北区中心幼儿园"}}, {"type": "way", "id": 302021269, "center": {"lat": 29.8968845, "lon": 121.5526204}, "nodes": [11622451409, 11622451407, 11954410471, 11954410470, 11622451409], "tags": {"amenity": "school", "name": "江北区实验小学(东校区)"}}, {"type": "way", "id": 304171769, "center": {"lat": 29.885506, "lon": 121.5565263}, "nodes": [3086972914, 3086972915, 12463873466, 3086972916, 3086972917, 12463873467, 3086972918, 3086972919, 3086972920, 3086972921, 3086972925, 3086972926, 3086972914], "tags": {"addr:city": "宁波市", "addr:district": "江北区", "addr:housenumber": "247", "addr:province": "浙江省", "addr:street": "人民路", "alt_name": "宁波市第三医院", "amenity": "hospital", "healthcare": "hospital", "name": "宁波大学医学院附属医院(外滩院区)", "name:en": "Ningbo No.3 Hospital", "old_name": "宁波市第三医院", "wikidata": "Q15933160"}}, {"type": "way", "id": 304171773, "center": {"lat": 29.8865147, "lon": 121.5559727}, "nodes": [3086977355, 3086977356, 3086977357, 3086977358, 3086977359, 3086977360, 3086977361, 3086977362, 3086977355], "tags": {"amenity": "school", "name": "江北中心小学"}}, {"type": "way", "id": 497851474, "center": {"lat": 29.9210325, "lon": 121.5428907}, "nodes": [4893551714, 4893551715, 12668618686, 12668618736, 4893551716, 12668618689, 12708325877, 4893551717, 4893551718, 4893551719, 4893551720, 4893552121, 4893551714], "tags": {"amenity": "school", "name": "江北外国语学校"}}, {"type": "way", "id": 504332222, "center": {"lat": 29.9704363, "lon": 121.5469566}, "nodes": [4945035259, 4945035260, 4945035261, 4945035262, 4945035263, 4945035264, 4945035265, 4945035266, 4945035267, 4945035259], "tags": {"amenity": "school", "name": "宁波市特殊教育中心学校"}}, {"type": "way", "id": 507687039, "center": {"lat": 29.9050344, "lon": 121.5555334}, "nodes": [4971467746, 11399244222, 11399244219, 4971467747, 4971467749, 12605275511, 4971467750, 4971467751, 4971467752, 11399244217, 11399244218, 4971467746], "tags": {"addr:city": "宁波市", "addr:district": "江北区", "addr:housenumber": "188", "addr:province": "浙江省", "addr:street": "星湖路", "amenity": "school", "name": "宁波江北区外国语艺术学校", "name:en": "Ningbo Jiangbei Foreign Language School of Art"}}, {"type": "way", "id": 819862204, "center": {"lat": 29.9168115, "lon": 121.6274234}, "nodes": [7656342711, 7656342710, 7190183851, 7656342707, 7656342706, 7656342705, 7656342704, 10272414250, 7187765685, 7656342703, 7656342702, 7656342701, 7656342700, 7656342699, 7656342698, 7656342697, 7656342696, 7656342711], "tags": {"amenity": "university", "education": "university", "name": "宁波大学（北校区）"}}, {"type": "way", "id": 963121048, "center": {"lat": 29.9129216, "lon": 121.5110913}, "nodes": [8909053408, 8909053402, 8909053409, 8909053413, 8909053403, 8909053410, 8909053414, 8909053404, 8909053411, 8909053415, 8909053405, 8909053412, 8909053408], "tags": {"amenity": "school", "name": "宁波大学附属学校"}}, {"type": "way", "id": 963121236, "center": {"lat": 29.9192446, "lon": 121.5110631}, "nodes": [8909080317, 12607697224, 8909080323, 8909080318, 8909080321, 8909080324, 8909080319, 8909080322, 8909080325, 8909080320, 12607697226, 12607697225, 8909080317], "tags": {"alt_name": "江北区人民医院", "amenity": "hospital", "healthcare": "hospital", "name": "宁波市第九医院", "name:en": "Ningbo Ninth Hospital", "website": "https://www.nbsdjyy.com/", "wikidata": "Q116207140", "wikipedia": "zh:宁波市第九医院"}}, {"type": "way", "id": 963126181, "center": {"lat": 29.921911, "lon": 121.5046095}, "nodes": [8909131248, 8909131238, 8909131249, 8909131259, 8909131251, 8909131248], "tags": {"amenity": "kindergarten", "name": "宁波市江北区云水湾幼儿园"}}, {"type": "way", "id": 963126183, "center": {"lat": 29.925092, "lon": 121.5042792}, "nodes": [12717089085, 12717089084, 12717089087, 12717089083, 12717089082, 8909131255, 8909131236, 8909131245, 8909131257, 8909131234, 12717089074, 12717089075, 12717089081, 12717089086, 12717089085], "tags": {"amenity": "school", "name": "宁波大学青藤书院"}}, {"type": "way", "id": 963127431, "center": {"lat": 29.9354034, "lon": 121.5003407}, "nodes": [8909142456, 8909142453, 8909142457, 8909142460, 8909142454, 8909142458, 8909142456], "tags": {"amenity": "school", "name": "洪塘中心小学"}}, {"type": "way", "id": 963327881, "center": {"lat": 29.8982261, "lon": 121.5680579}, "nodes": [8910869830, 8910869822, 12630827729, 12630827728, 8910869828, 8910869833, 12630827727, 8910869820, 8910869826, 8910869831, 8910869830], "tags": {"amenity": "school", "name": "上海交大教育集团宁波实验学校"}}, {"type": "way", "id": 1229038676, "center": {"lat": 29.9080232, "lon": 121.5579666}, "nodes": [11397747983, 11397747984, 11397747985, 11397747986, 11397747983], "tags": {"amenity": "school", "name": "宁波市水上运动训练基地", "name:en": "Ningbo Water Sports Training Base", "name:zh": "宁波市水上运动训练基地", "name:zh-Hans": "宁波市水上运动训练基地", "name:zh-Hant": "寧波市水上運動訓練基地"}}, {"type": "way", "id": 1229111444, "center": {"lat": 29.9025612, "lon": 121.5547341}, "nodes": [11398456434, 11398456435, 11398456436, 11398456437, 11398456434], "tags": {"amenity": "kindergarten", "name": "宁波市江北区实验幼儿园"}}, {"type": "way", "id": 1229121156, "center": {"lat": 29.8915354, "lon": 121.5537233}, "nodes": [11398595164, 11398595165, 11844872013, 11398595166, 12630829236, 12630829237, 12630829238, 11398595167, 12463873490, 11398595164], "tags": {"amenity": "school", "name": "宁波市江北中心学校"}}, {"type": "way", "id": 1229122639, "center": {"lat": 29.8942172, "lon": 121.5376493}, "nodes": [11398620275, 11398620276, 11398620277, 11398620278, 11398620280, 11398620279, 11398620275], "tags": {"amenity": "hospital", "healthcare": "hospital", "name": "宁波市第二医院北院区"}}, {"type": "way", "id": 1229131139, "center": {"lat": 29.8978183, "lon": 121.5472096}, "nodes": [11398707828, 11398707829, 11398707830, 11398707831, 11398707832, 11398707833, 11398707834, 11415699208, 11398707828], "tags": {"amenity": "school", "name": "宁波技师学院(清江校区)"}}, {"type": "way", "id": 1229131140, "center": {"lat": 29.8972087, "lon": 121.5498412}, "nodes": [11398707835, 11398707836, 11398707837, 11398707838, 11398707835], "tags": {"amenity": "school", "name": "宁波市江北区实验小学(西校区)"}}, {"type": "way", "id": 1229143481, "center": {"lat": 29.9004292, "lon": 121.5346909}, "nodes": [11398815699, 11398815700, 11398815701, 11398815702, 12604478304, 11398815703, 11400981472, 12604478305, 12604478306, 11398815699], "tags": {"amenity": "school", "name": "浙江省宁波市第四中学", "name:en": "Ningbo No.4 Middle School"}}, {"type": "way", "id": 1229143482, "center": {"lat": 29.9021239, "lon": 121.5347531}, "nodes": [11398815705, 11398815706, 11398815707, 11589082158, 11398815708, 11398815709, 11398815710, 11398815711, 12604478214, 11398815705], "tags": {"amenity": "school", "name": "浙江开放大学市场监管学院"}}, {"type": "way", "id": 1229143483, "center": {"lat": 29.9011435, "lon": 121.5319454}, "nodes": [11398815712, 11398815713, 11398815714, 11398815715, 11398815712], "tags": {"amenity": "school", "name": "宁波市甬江职业高级中学(育才校区)"}}, {"type": "way", "id": 1229143485, "center": {"lat": 29.8984633, "lon": 121.5341841}, "nodes": [11398815726, 11398815727, 11398815728, 11398815729, 11398815730, 12604478348, 12604478349, 11398815731, 11398815732, 11398815733, 12604478401, 11398815726], "tags": {"amenity": "school", "name": "宁波幼儿师范高等专科学校"}}, {"type": "way", "id": 1229143487, "center": {"lat": 29.8976207, "lon": 121.5347995}, "nodes": [11398815742, 11398815743, 11398815744, 11398815745, 11398815728, 11398815727, 11589088965, 11589088992, 11398815742], "tags": {"amenity": "school", "name": "惠贞书院", "name:en": "Ningbo Huizhen Middle School"}}, {"type": "way", "id": 1229143488, "center": {"lat": 29.8981687, "lon": 121.5356948}, "nodes": [11398815747, 11398815748, 11398815749, 11398815750, 11398815751, 11398815752, 11589088914, 11398815747], "tags": {"amenity": "police", "name": "文教派出所"}}, {"type": "way", "id": 1229182190, "center": {"lat": 29.898593, "lon": 121.5530018}, "nodes": [11399142428, 11399142429, 11399142430, 11399142431, 11399142428], "tags": {"amenity": "kindergarten", "name": "宁波市江北区湖滨幼儿园"}}, {"type": "way", "id": 1229190783, "center": {"lat": 29.8912, "lon": 121.5498568}, "nodes": [11399244205, 11399244211, 11399244213, 11399244214, 11399244205], "tags": {"amenity": "kindergarten", "name": "宁波市江北区槐树幼儿园"}}, {"type": "way", "id": 1229194084, "center": {"lat": 29.899796, "lon": 121.5681286}, "nodes": [11399318022, 11399318023, 11399318024, 11399318025, 11399318026, 11399318027, 11399318022], "tags": {"amenity": "kindergarten", "name": "童蒙翡翠东方幼儿园"}}, {"type": "way", "id": 1229461121, "center": {"lat": 29.9024662, "lon": 121.5323117}, "nodes": [11401011809, 11401011810, 11401011811, 11401011812, 11401011813, 11401011814, 11401011809], "tags": {"amenity": "school", "name": "宁波市税务干部学校"}}, {"type": "way", "id": 1229461122, "center": {"lat": 29.9026521, "lon": 121.5300903}, "nodes": [11401011815, 11401011816, 11401011817, 11401011818, 11401011819, 11401011820, 11401011821, 11401011822, 11401011823, 11401011824, 11401011825, 11401011826, 11401011827, 11401011828, 11401011829, 11401011830, 11401011831, 11401011815], "tags": {"amenity": "hospital", "healthcare": "hospital", "name": "宁波东易大名医院"}}, {"type": "way", "id": 1229461124, "center": {"lat": 29.9041685, "lon": 121.5326996}, "nodes": [11401011836, 11401011837, 11401011838, 11401011839, 12604478069, 11401011840, 12604478068, 11401011841, 11401011842, 11401011843, 12604478067, 11401011836], "tags": {"amenity": "school", "name": "大连理工大学宁波研究院"}}, {"type": "way", "id": 1229461126, "center": {"lat": 29.9038134, "lon": 121.5300228}, "nodes": [11401011849, 11401011850, 11401011851, 11401011852, 11401011849], "tags": {"amenity": "school", "name": "育才实验学校"}}, {"type": "way", "id": 1229514512, "center": {"lat": 29.8983617, "lon": 121.5318954}, "nodes": [11401565301, 11401565302, 11401565305, 11401565303, 11401565301], "tags": {"amenity": "college", "name": "宁波大学继续教育学院"}}, {"type": "way", "id": 1229711414, "center": {"lat": 29.9130266, "lon": 121.5139168}, "nodes": [11403547447, 11403547448, 12604479381, 12604479477, 11403547449, 11403547450, 11403547451, 11403547452, 11403547453, 11403547454, 12604479380, 11403547455, 11403547456, 11403547457, 12604479478, 11403547447], "tags": {"amenity": "school", "name": "宁波大学附属学校小学部"}}, {"type": "way", "id": 1230954240, "center": {"lat": 29.891674, "lon": 121.5491113}, "nodes": [11415744281, 11415744282, 11415744283, 11415744284, 11415744281], "tags": {"amenity": "police", "building": "yes", "name": "江北公安分局治安大队"}}, {"type": "way", "id": 1230983266, "center": {"lat": 29.894466, "lon": 121.5536351}, "nodes": [11416045427, 11416045428, 11416045429, 11416045430, 11416045431, 11416045427], "tags": {"amenity": "kindergarten", "name": "宁波市江北区桃源幼儿园"}}, {"type": "way", "id": 1231758172, "center": {"lat": 29.9022312, "lon": 121.5650058}, "nodes": [11423564217, 11423564218, 11423564219, 11423564220, 11423564221, 11423564217], "tags": {"addr:city": "宁波市", "addr:district": "江北区", "addr:housenumber": "8", "addr:province": "浙江省", "addr:street": "环城北路", "amenity": "hospital", "healthcare": "hospital", "name": "宁波爱尔光明眼科医院"}}, {"type": "way", "id": 1232504486, "center": {"lat": 29.9169875, "lon": 121.5429276}, "nodes": [11432804582, 11432804583, 11432804584, 11432804585, 11432804586, 11432804587, 11432804582], "tags": {"amenity": "kindergarten"}}, {"type": "way", "id": 1234385388, "center": {"lat": 29.9029926, "lon": 121.5800281}, "nodes": [11456608085, 11456608086, 11456608089, 11456608090, 11456608091, 11456608092, 11456608093, 11456608087, 11456608088, 11456608085], "tags": {"amenity": "school", "name": "宁波市江北区红梅小学"}}, {"type": "way", "id": 1234385390, "center": {"lat": 29.9060164, "lon": 121.5855651}, "nodes": [11456608098, 11456608099, 11456608100, 11456608101, 11456608102, 11456608103, 11456608098], "tags": {"amenity": "school", "name": "宁波市孔浦中学"}}, {"type": "way", "id": 1234385391, "center": {"lat": 29.9054863, "lon": 121.5865462}, "nodes": [11456608104, 11456608105, 11456608106, 11456608107, 11456608108, 11456608109, 11456608104], "tags": {"amenity": "police", "building": "yes", "name": "孔浦派出所"}}, {"type": "way", "id": 1235573786, "center": {"lat": 29.8946849, "lon": 121.5304714}, "nodes": [11401565284, 11470202417, 11470202418, 11401565282, 11470202415, 11401565283, 11470202416, 11401565284], "tags": {"amenity": "kindergarten", "name": "新悦幼儿园(范江岸路)"}}, {"type": "way", "id": 1241097852, "center": {"lat": 29.9670483, "lon": 121.4410673}, "nodes": [11531284707, 11531284706, 11531284705, 11531284704, 11531284703, 11531284702, 11531284701, 11531284700, 11531284699, 11531284698, 11531284697, 11531284696, 11531284695, 11531284694, 11531284693, 11531284692, 11531284691, 11531284690, 11531284689, 11531284707], "tags": {"amenity": "school", "name": "新城外国语学校小学部"}}, {"type": "way", "id": 1241097853, "center": {"lat": 29.9651965, "lon": 121.4399019}, "nodes": [11531284713, 11531284712, 11531284711, 11531284710, 11531284709, 11531284708, 13254661642, 11531284713], "tags": {"amenity": "hospital", "name": "宁波市妇女儿童医院（北部院区）"}}, {"type": "way", "id": 1241097854, "center": {"lat": 29.9629378, "lon": 121.4394727}, "nodes": [11531284726, 11531284725, 11531284724, 11531284723, 11531284722, 11531284721, 11531284720, 11531284719, 11531284718, 11531284717, 11531284714, 11531284726], "tags": {"amenity": "school", "name": "江北新城外国语学校"}}, {"type": "way", "id": 1243181899, "center": {"lat": 29.9788508, "lon": 121.4651904}, "nodes": [11553929682, 11553929681, 11553929680, 11553929679, 11553929682], "tags": {"amenity": "school", "name": "慈城中心小学"}}, {"type": "way", "id": 1243181917, "center": {"lat": 29.9850319, "lon": 121.4468299}, "nodes": [11553930016, 11553930015, 11553930014, 11553930013, 11553930012, 11553930011, 11553930010, 11553930009, 11553930016], "tags": {"amenity": "school", "name": "中城小学"}}, {"type": "way", "id": 1243181918, "center": {"lat": 29.9836564, "lon": 121.4470003}, "nodes": [11553930025, 11553930024, 11553930023, 11553930022, 11553930021, 11553930020, 11553930019, 11553930018, 11553930017, 11553930025], "tags": {"amenity": "school", "name": "普迪学校小学部"}}, {"type": "way", "id": 1243193044, "center": {"lat": 29.9307795, "lon": 121.5135016}, "nodes": [11554056115, 11554056114, 11554056113, 11554056112, 12594243161, 11554056111, 11554056110, 11554056109, 11554056108, 11554056107, 11554056106, 11554056105, 11554056104, 11554056103, 11554056102, 11554056115], "tags": {"amenity": "school", "name": "至成学校"}}, {"type": "way", "id": 1243193053, "center": {"lat": 29.9419936, "lon": 121.4938028}, "nodes": [11554056214, 11554056213, 11554056212, 11554056211, 11554056214], "tags": {"amenity": "college", "name": "宁波市交通高级技工学校"}}, {"type": "way", "id": 1243193057, "center": {"lat": 29.9347883, "lon": 121.4949429}, "nodes": [11554056259, 11554056249, 12844281582, 11554056248, 11554056255, 12844281579, 12844281580, 11554056256, 12844281581, 11554056257, 11554056258, 11554056259], "tags": {"amenity": "school", "name": "洪塘实验学校"}}, {"type": "way", "id": 1243241147, "center": {"lat": 29.9413372, "lon": 121.481986}, "nodes": [11554462980, 11554462979, 11554462978, 11554462977, 11554462976, 11554462975, 11554462974, 11554462971, 11554462970, 11554462969, 11554442668, 11554442667, 11554442666, 11554462980], "tags": {"amenity": "school", "name": "宁波福山正达外国语学校"}}, {"type": "way", "id": 1245662453, "center": {"lat": 29.9023221, "lon": 121.5622562}, "nodes": [11580058944, 11580058945, 11580058946, 11580058947, 11580058948, 11580058944], "tags": {"addr:city": "宁波市", "addr:district": "江北区", "addr:housenumber": "96", "addr:province": "浙江省", "addr:street": "环城北路", "amenity": "police", "name": "宁波市公安局江北分局"}}, {"type": "way", "id": 1249862965, "center": {"lat": 29.9954042, "lon": 121.4489583}, "nodes": [11618331464, 11618331463, 11618331462, 11618331461, 11618331460, 11618331459, 11618331458, 11618331457, 11618331456, 11618331455, 11618331454, 11618331453, 11618331452, 11618331451, 11618331450, 11618331449, 11618331448, 11618331447, 11618331446, 11618331445, 11618331444, 11618331443, 11618331442, 11618331441, 11618331440, 11618331439, 11618331438, 11618331437, 11618331436, 11618331464], "tags": {"amenity": "school", "name": "慈湖中学"}}, {"type": "way", "id": 1251201837, "center": {"lat": 29.8938626, "lon": 121.5389122}, "nodes": [11630696762, 11630696761, 11630696764, 11630696763, 11630696762], "tags": {"amenity": "kindergarten", "name": "宁波市江北区启慧托育园"}}, {"type": "way", "id": 1251950217, "center": {"lat": 29.8965477, "lon": 121.5348803}, "nodes": [11637503154, 11637503153, 11637503152, 11637503151, 11637503150, 11637503149, 11637503154], "tags": {"amenity": "college", "name": "宁波开放大学", "wikidata": "Q112811194"}}, {"type": "way", "id": 1261382402, "center": {"lat": 29.912825, "lon": 121.5398182}, "nodes": [11722014799, 11722014798, 11722014797, 11722014796, 11722014799], "tags": {"amenity": "kindergarten", "name": "天水幼儿园"}}, {"type": "way", "id": 1263371508, "center": {"lat": 29.90918, "lon": 121.5566048}, "nodes": [11397779474, 11738045549, 11738045550, 11738045551, 11738045552, 11397757716, 11738045547, 11397779474], "tags": {"amenity": "kindergarten", "name": "万象幼儿园"}}, {"type": "way", "id": 1269197360, "center": {"lat": 29.9432701, "lon": 121.5121982}, "nodes": [11788376267, 11788376266, 12507554489, 11788376265, 11788376264, 11788376267], "tags": {"amenity": "college", "name": "宁波海关培训基地"}}, {"type": "way", "id": 1269197361, "center": {"lat": 29.9406042, "lon": 121.5058949}, "nodes": [11788392074, 11788392073, 11788392072, 11788392071, 11788392070, 11788392069, 11788392074], "tags": {"amenity": "school", "name": "宁波公交职业学校"}}, {"type": "way", "id": 1269197363, "center": {"lat": 29.9468743, "lon": 121.5058588}, "nodes": [11788392084, 11788392083, 11788392082, 11788392081, 11788392080, 11788392079, 11788392084], "tags": {"amenity": "kindergarten", "name": "颐和艺术幼儿园"}}, {"type": "way", "id": 1269197372, "center": {"lat": 29.9475559, "lon": 121.5008993}, "nodes": [11788392248, 11788392247, 11788392246, 11788392245, 11788392244, 11788392243, 11788392242, 11788392241, 11788392240, 11788392239, 11788392238, 11788392237, 11788392236, 11788392248], "tags": {"amenity": "school", "name": "宁波洪塘中学"}}, {"type": "way", "id": 1269204966, "center": {"lat": 29.9217238, "lon": 121.5228791}, "nodes": [2432298541, 11788456587, 11788456586, 12601703038, 11788456585, 11788456584, 2432298550, 2432298541], "tags": {"amenity": "school", "name": "宁波惠贞高级中学"}}, {"type": "way", "id": 1269204971, "center": {"lat": 29.9146867, "lon": 121.5187442}, "nodes": [11788456610, 11788456609, 11788456612, 11788456611, 11788456610], "tags": {"amenity": "kindergarten", "name": "海外滩幼儿园"}}, {"type": "way", "id": 1269204976, "center": {"lat": 29.9191265, "lon": 121.5208813}, "nodes": [11788456628, 11788456626, 11788456627, 12601702120, 12601702121, 2432298626, 11788456628], "tags": {"amenity": "school", "name": "宁波大学附属学校小学部"}}, {"type": "way", "id": 1269204982, "center": {"lat": 29.9216512, "lon": 121.5372363}, "nodes": [11788457788, 11788457781, 11788457780, 11788457779, 11788457788], "tags": {"amenity": "kindergarten", "name": "博悦幼儿园"}}, {"type": "way", "id": 1269205016, "center": {"lat": 29.9372973, "lon": 121.5026854}, "nodes": [11788457935, 11788457934, 11788457933, 11788457932, 11788457931, 11788457935], "tags": {"amenity": "kindergarten", "name": "宁波博雅幼儿园"}}, {"type": "way", "id": 1270141455, "center": {"lat": 29.9290193, "lon": 121.504347}, "nodes": [11554055975, 11554055969, 11554055970, 11554055971, 11554055972, 11554055973, 11554055974, 11554055975], "tags": {"amenity": "kindergarten", "name": "宁静幼儿园"}}, {"type": "way", "id": 1270141457, "center": {"lat": 29.9547591, "lon": 121.5015877}, "nodes": [11793322813, 11793322812, 11793322811, 11793322810, 11793322809, 11793322808, 11793322813], "tags": {"amenity": "school", "name": "灵峰学校"}}, {"type": "way", "id": 1270141535, "center": {"lat": 29.9311052, "lon": 121.5056066}, "nodes": [11793323955, 11793323954, 11793323953, 11793323952, 11793323951, 11793323950, 11793323949, 11793323948, 11793323947, 11793323946, 11793323945, 11793323955], "tags": {"amenity": "kindergarten", "name": "洪塘街道中心幼儿园"}}, {"type": "way", "id": 1271013632, "center": {"lat": 29.9346898, "lon": 121.4961731}, "nodes": [11554044650, 11803356761, 11554044648, 11554044649, 11554044650], "tags": {"amenity": "kindergarten", "name": "卓越美式幼儿园"}}, {"type": "way", "id": 1271013709, "center": {"lat": 29.9293816, "lon": 121.5028278}, "nodes": [11554044663, 11554044658, 11554044659, 11803357176, 11554044660, 11554044661, 11554044662, 11554044663], "tags": {"amenity": "kindergarten", "name": "洪塘中心幼儿园分园"}}, {"type": "way", "id": 1271647090, "center": {"lat": 29.955612, "lon": 121.4502606}, "nodes": [11808881238, 11808881237, 11808881236, 11808881235, 11808881234, 11808881238], "tags": {"amenity": "school", "name": "慈城高中"}}, {"type": "way", "id": 1271647097, "center": {"lat": 29.958073, "lon": 121.4490818}, "nodes": [11808881295, 11808881294, 11808881298, 11808881297, 11808881296, 11808881295], "tags": {"amenity": "kindergarten", "name": "慈信·维拉幼儿园"}}, {"type": "way", "id": 1271647102, "center": {"lat": 29.9575464, "lon": 121.4382416}, "nodes": [11808881331, 11808881328, 11808881327, 11808881330, 11808881331], "tags": {"amenity": "kindergarten", "name": "云鹭湾幼儿园"}}, {"type": "way", "id": 1272166189, "center": {"lat": 29.9590698, "lon": 121.4565852}, "nodes": [11813395330, 11813395329, 11813395328, 11813395327, 11813395326, 11813395325, 11813395324, 11813395323, 11813395322, 11813395321, 11813395320, 11813395319, 11813395318, 12830829976, 11813395317, 11813395316, 11813395315, 11813395314, 11813395313, 11813395312, 11813395311, 11813395310, 11813395309, 11813395308, 11813395307, 11813395306, 11813395305, 11813395304, 11813395330], "tags": {"amenity": "college", "name": "中共宁波党校", "religion": "communism"}}, {"type": "way", "id": 1272489587, "center": {"lat": 29.9831969, "lon": 121.4339118}, "nodes": [11816296875, 11816296874, 11816296873, 11816296872, 11816296871, 11816296870, 11816296869, 11816296868, 11816296867, 11816296866, 11816296865, 11816296875], "tags": {"amenity": "police", "name": "慈城派出所"}}, {"type": "way", "id": 1273645911, "center": {"lat": 29.9358266, "lon": 121.5437584}, "nodes": [11827405311, 11827405283, 11827405293, 11827405312, 11827405311], "tags": {"amenity": "kindergarten", "name": "茗馨幼儿园"}}, {"type": "way", "id": 1273645934, "center": {"lat": 29.9218644, "lon": 121.5467812}, "nodes": [11827405473, 11827405472, 11827405475, 11827405474, 11827405473], "tags": {"amenity": "kindergarten", "name": "江北志道幼儿园"}}, {"type": "way", "id": 1275795671, "center": {"lat": 29.9265207, "lon": 121.5007715}, "nodes": [11845056730, 11845056737, 11845056736, 11845056735, 11845056734, 11845056733, 11845056732, 11845056731, 11845056730], "tags": {"amenity": "school", "name": "宁波上海世界外国语学校"}}, {"type": "way", "id": 1279766179, "center": {"lat": 29.9852865, "lon": 121.4471443}, "nodes": [11553930012, 11879946540, 11553930010, 11553930011, 11553930012], "tags": {"amenity": "kindergarten", "name": "倡棋幼儿园"}}, {"type": "way", "id": 1287750915, "center": {"lat": 29.9038226, "lon": 121.580978}, "nodes": [11942694638, 11942694637, 11942694636, 11942694635, 11942694638], "tags": {"amenity": "kindergarten", "name": "绿梅幼儿园"}}, {"type": "way", "id": 1289450239, "center": {"lat": 29.9151353, "lon": 121.5881113}, "nodes": [11956578711, 11956578710, 11956578709, 11956578708, 11956578712, 11956578715, 11956578711], "tags": {"amenity": "police", "name": "宁波公安交通警察江北大队"}}, {"type": "way", "id": 1289450240, "center": {"lat": 29.9146645, "lon": 121.5885606}, "nodes": [11956578715, 11956578711, 11956578714, 11956578713, 11956578712, 11956578715], "tags": {"amenity": "police", "name": "甬江派出所"}}, {"type": "way", "id": 1345246222, "center": {"lat": 29.9800884, "lon": 121.4387977}, "nodes": [12445461197, 12445461196, 12445461195, 12445461194, 12445461197], "tags": {"amenity": "police", "name": "宁波市公安局交通警察局江北大队慈城中队"}}, {"type": "way", "id": 1350375712, "center": {"lat": 29.9028176, "lon": 121.545125}, "nodes": [12492461766, 12492461765, 12492461764, 12492461763, 12492461762, 12492461761, 12492461760, 12492461766], "tags": {"amenity": "kindergarten", "name": "三水湾幼儿园"}}, {"type": "way", "id": 1351885253, "center": {"lat": 29.9343065, "lon": 121.5135339}, "nodes": [12507554353, 12507554352, 12507554351, 12507554350, 12507554349, 12507554353], "tags": {"amenity": "hospital", "name": "宁波老年康复医院"}}, {"type": "way", "id": 1354145458, "center": {"lat": 29.9043818, "lon": 121.5916899}, "nodes": [12531398934, 12531398933, 12531398936, 12531398935, 12531398934], "tags": {"amenity": "kindergarten", "name": "宁波江北滨江实验幼儿园"}}, {"type": "way", "id": 1354145460, "center": {"lat": 29.903961, "lon": 121.584738}, "nodes": [12531398958, 12531398957, 12531398956, 12531398955, 12531398954, 12531398958], "tags": {"amenity": "kindergarten", "name": "宁波怡江幼儿园"}}, {"type": "way", "id": 1356881881, "center": {"lat": 29.949693, "lon": 121.5671097}, "nodes": [12558569543, 12558569555, 12558569551, 12558569544, 12558569542, 12558569545, 12558569553, 12558569543], "tags": {"addr:city": "宁波市", "addr:district": "江北区", "addr:housenumber": "11", "alt_name": "宁波市精神病院", "amenity": "hospital", "healthcare": "hospital", "healthcare:speciality": "psychiatry", "name": "宁波市民康医院", "name:en": "Ningbo Psychiatric Hospital", "wikidata": "Q119050602"}}, {"type": "way", "id": 1360470311, "center": {"lat": 29.9280494, "lon": 121.5121629}, "nodes": [11554056090, 12594242973, 11554056095, 12594242974, 11554056092, 11554056091, 11554056090], "tags": {"amenity": "kindergarten", "name": "洋墅幼儿园"}}, {"type": "way", "id": 1361045442, "center": {"lat": 29.9381161, "lon": 121.4923364}, "nodes": [12599738943, 12599738942, 12599738941, 12599738940, 12599738943], "tags": {"amenity": "police", "name": "宁波市江北巡特警大队"}}, {"type": "way", "id": 1361238296, "center": {"lat": 29.9179292, "lon": 121.5148983}, "nodes": [11554056003, 11554055999, 11554056001, 11554056002, 11554056003], "tags": {"amenity": "kindergarten", "name": "江北养正幼儿园春晖园"}}, {"type": "way", "id": 1361238388, "center": {"lat": 29.9217255, "lon": 121.5195662}, "nodes": [12601703255, 12601703254, 12601703253, 12601703252, 12601703251, 12601703250, 12601703249, 12601703255], "tags": {"amenity": "kindergarten", "name": "江北养正幼儿园"}}, {"type": "way", "id": 1361238430, "center": {"lat": 29.9400727, "lon": 121.5010828}, "nodes": [11554056184, 12601703523, 12601703522, 11554056182, 11554056183, 11554056184], "tags": {"amenity": "clinic", "name": "洪塘街道社区卫生服务中心"}}, {"type": "way", "id": 1361238431, "center": {"lat": 29.9387658, "lon": 121.4985658}, "nodes": [12601703533, 12601703532, 12601703531, 12601703530, 12601703529, 12601703528, 12601703527, 12601703526, 12601703533], "tags": {"amenity": "police", "name": "宁波江北洪塘派出所"}}, {"type": "way", "id": 1361238487, "center": {"lat": 29.9415781, "lon": 121.4859754}, "nodes": [12601703880, 12601703879, 12601703878, 12601703877, 12601703882, 12601703876, 12601703880], "tags": {"amenity": "police", "name": "宁波江北前江派出所"}}, {"type": "way", "id": 1361238514, "center": {"lat": 29.9441335, "lon": 121.4955472}, "nodes": [11554056208, 12601704035, 11554056205, 11554056206, 11554056207, 11554056208], "tags": {"amenity": "kindergarten", "name": "未来盛园幼儿园"}}, {"type": "way", "id": 1361303020, "center": {"lat": 29.9159936, "lon": 121.5129237}, "nodes": [11554056042, 12602223265, 12602223264, 12602223263, 11554056034, 11554056044, 11554056043, 11554056042], "tags": {"amenity": "kindergarten", "name": "宁波市江北甬港幼儿园"}}, {"type": "way", "id": 1361493651, "center": {"lat": 29.896486, "lon": 121.5379588}, "nodes": [12604477403, 12604477402, 12604477401, 12604477400, 12604477399, 12604477398, 12604477397, 12604477403], "tags": {"amenity": "kindergarten", "name": "江北星海托育中心"}}, {"type": "way", "id": 1361493821, "center": {"lat": 29.91332, "lon": 121.5325218}, "nodes": [12604478863, 12604478861, 12604478862, 11403547368, 12604478863], "tags": {"amenity": "kindergarten", "name": "江北天成幼儿园"}}, {"type": "way", "id": 1361493835, "center": {"lat": 29.9142532, "lon": 121.5275853}, "nodes": [12604479178, 12604478939, 12604478938, 12604478937, 12604478936, 12604478935, 3029190581, 12604479176, 12604479177, 12604479178], "tags": {"amenity": "kindergarten", "name": "宁波志道幼儿园铂翠湾园"}}, {"type": "way", "id": 1361493860, "center": {"lat": 29.9112161, "lon": 121.5120205}, "nodes": [11554056021, 12604479187, 12604479186, 11554056018, 11554056019, 11554056020, 11554056021], "tags": {"amenity": "kindergarten", "name": "姚畔湾幼儿园"}}, {"type": "way", "id": 1364076156, "center": {"lat": 29.8908098, "lon": 121.5622569}, "nodes": [12630828392, 12630828391, 12630828390, 12630828389, 12630828388, 12630828392], "tags": {"amenity": "police", "name": "宁波市公安局水陆交通治安分局"}}, {"type": "way", "id": 1366044262, "center": {"lat": 29.9241135, "lon": 121.5914809}, "nodes": [12650510048, 12650510047, 12650510046, 12650510045, 12650510044, 12650510043, 12650510042, 12650510041, 12650510048], "tags": {"amenity": "school", "education": "school", "name": "唐弢学校"}}, {"type": "way", "id": 1366044311, "center": {"lat": 29.9333674, "lon": 121.5874797}, "nodes": [12650510759, 12650510758, 12650510757, 12650510756, 12650510755, 12650510745, 12650510754, 12650510753, 12650510752, 12650510751, 12650510750, 12650510749, 12650510759], "tags": {"amenity": "school", "education": "school", "name": "甬江实验学校"}}, {"type": "way", "id": 1367936654, "center": {"lat": 29.9268077, "lon": 121.5404445}, "nodes": [12668619215, 12668619214, 12668619213, 12668619212, 12668619211, 12668619210, 12668619209, 12668619215], "tags": {"amenity": "police", "name": "庄桥派出所"}}, {"type": "way", "id": 1367936657, "center": {"lat": 29.9298459, "lon": 121.5516166}, "nodes": [12668619326, 12668619325, 12668619324, 12668619323, 12668619322, 12668619321, 12668619320, 12668619319, 12668619326], "tags": {"amenity": "driving_school", "name": "滕兴驾校庄桥分校"}}, {"type": "way", "id": 1367936666, "center": {"lat": 29.9252968, "lon": 121.5508572}, "nodes": [12668619394, 12668619393, 12668619392, 12668619391, 12668619390, 12668619389, 12668619394], "tags": {"amenity": "clinic", "building": "hospital", "healthcare": "clinic", "name": "宁波瑞合康复医院"}}, {"type": "way", "id": 1370093000, "center": {"lat": 29.907012, "lon": 121.5723064}, "nodes": [12688531536, 12688531535, 12688531534, 12688531533, 12688531532, 12688531531, 12688531530, 12688531536], "tags": {"amenity": "driving_school", "name": "众仁驾校"}}, {"type": "way", "id": 1370093023, "center": {"lat": 29.910024, "lon": 121.5651286}, "nodes": [12688531710, 12688531709, 12688531708, 12688531707, 12688531706, 12688531705, 12688531710], "tags": {"amenity": "clinic", "building": "hospital", "healthcare": "clinic", "name": "江北阳光博爱康复医院"}}, {"type": "way", "id": 1372492620, "center": {"lat": 29.920691, "lon": 121.5405494}, "nodes": [12708325806, 12708325805, 12708325804, 12708325803, 12708325802, 12708325801, 12708325800, 12708325799, 12708325798, 12708325797, 12708325796, 12708325795, 12708325794, 12708325793, 12708325792, 12708325791, 12708325790, 12708325789, 12708325788, 12708325806], "tags": {"amenity": "school", "name": "江北外国语学校二期"}}, {"type": "way", "id": 1372492647, "center": {"lat": 29.9320692, "lon": 121.5518251}, "nodes": [12708326100, 12708326099, 12708326098, 12708326097, 12708326096, 12708326095, 12708326100], "tags": {"amenity": "school", "name": "江北庄桥中心小学"}}, {"type": "way", "id": 1372753405, "center": {"lat": 29.9204812, "lon": 121.5284846}, "nodes": [12710512716, 12710512713, 12710512714, 12710512715, 12710512716], "tags": {"amenity": "kindergarten", "name": "诺亚舟世茂天慧幼儿园"}}, {"type": "way", "id": 1378025983, "center": {"lat": 29.9991417, "lon": 121.4192793}, "nodes": [12759514316, 12759514317, 12759514318, 12759514319, 12759514320, 12759514321, 12759514322, 12759514323, 12759514324, 12759514325, 12759514326, 12759514327, 12759514328, 12759514316], "tags": {"amenity": "school", "name": "普迪学校（初中部）"}}, {"type": "way", "id": 1378025984, "center": {"lat": 30.0009634, "lon": 121.4193147}, "nodes": [12759514329, 12759514330, 12759514331, 12759514332, 12759514333, 12759514334, 12759514329], "tags": {"amenity": "school", "name": "妙山小学"}}, {"type": "way", "id": 1378026555, "center": {"lat": 29.9729224, "lon": 121.4265828}, "nodes": [12759521723, 12759521724, 12759521725, 12759521726, 12759521723], "tags": {"amenity": "school", "name": "修人学校"}}, {"type": "way", "id": 1378026556, "center": {"lat": 29.9741035, "lon": 121.4261201}, "nodes": [12759521727, 12759521728, 12759521729, 12759521730, 12759521727], "tags": {"amenity": "kindergarten", "name": "新城幼儿园"}}, {"type": "way", "id": 1378030500, "center": {"lat": 29.9609178, "lon": 121.5479737}, "nodes": [12759550811, 12759550812, 12759550813, 12759550814, 12759550811], "tags": {"amenity": "school", "name": "养正书院"}}, {"type": "way", "id": 1378030501, "center": {"lat": 29.9317438, "lon": 121.550042}, "nodes": [12759550815, 12759550819, 12759550816, 12759550817, 12759550818, 12759550815], "tags": {"amenity": "school", "name": "尚德学校"}}, {"type": "way", "id": 1378030502, "center": {"lat": 29.9309376, "lon": 121.546639}, "nodes": [12759550820, 12759550821, 12759550822, 12759550823, 12759550824, 12759550825, 12759550826, 12759550827, 12759550828, 12759550829, 12759550830, 12759550831, 12759550832, 12759550833, 12759550837, 12759550834, 12759550835, 12759550836, 12759550820], "tags": {"amenity": "school", "name": "庄桥中学"}}, {"type": "way", "id": 1378030503, "center": {"lat": 29.9651821, "lon": 121.5314694}, "nodes": [12759550838, 12759550839, 12759550840, 12759550841, 12759550842, 12759550843, 12759550844, 12759550845, 12759550846, 12759550847, 12759550848, 12759550849, 12759550850, 12759550851, 12759550852, 12759550838], "tags": {"amenity": "school", "education": "school", "name": "费市小学"}}, {"type": "way", "id": 1378032088, "center": {"lat": 29.895433, "lon": 121.5273588}, "nodes": [12759542966, 12759542967, 12759542968, 12759542969, 12759542970, 12759542971, 12759542972, 12759542966], "tags": {"amenity": "school", "name": "育才小学"}}, {"type": "way", "id": 1378073189, "center": {"lat": 29.926423, "lon": 121.5384167}, "nodes": [11827405425, 12759905594, 12759905593, 12759905592, 12759905591, 11827405423, 11827405424, 11827405425], "tags": {"amenity": "kindergarten", "name": "江北志道幼儿园云栖兰汀园"}}, {"type": "way", "id": 1378309823, "center": {"lat": 29.9119189, "lon": 121.5885066}, "nodes": [12762134217, 12762134218, 12762134219, 12762134220, 12762134217], "tags": {"amenity": "kindergarten", "name": "悦和幼儿园"}}, {"type": "way", "id": 1385821012, "center": {"lat": 29.9565124, "lon": 121.4537112}, "nodes": [12830829874, 12830829873, 12830829872, 12830829871, 12830829870, 12830829869, 12830829868, 12830829867, 12830829866, 12830829865, 12830829864, 12830829863, 12830829862, 12830829861, 12830829860, 12830829859, 12830829858, 12830829874], "tags": {"amenity": "school", "name": "德润书院"}}, {"type": "way", "id": 1385821057, "center": {"lat": 29.9565624, "lon": 121.4339877}, "nodes": [12830831650, 12830831633, 12830831632, 12830831631, 12830831638, 12830831637, 12830831636, 12830831635, 12830831634, 12830831650], "tags": {"amenity": "kindergarten", "name": "江北慈城实验幼儿园"}}, {"type": "way", "id": 1391180890, "center": {"lat": 29.9413755, "lon": 121.4988373}, "nodes": [11554056230, 12877417301, 12877417300, 12877417299, 12877417298, 11554056230], "tags": {"amenity": "kindergarten", "name": "北欣幼儿园"}}, {"type": "way", "id": 1391861202, "center": {"lat": 29.9440952, "lon": 121.4794229}, "nodes": [12883888336, 12883888326, 12883888325, 12883888324, 12883888329, 12883888328, 12883888327, 12883888336], "tags": {"amenity": "kindergarten", "name": "祥星幼儿园"}}, {"type": "way", "id": 1391861235, "center": {"lat": 29.9527013, "lon": 121.48996}, "nodes": [12883888606, 12883888605, 12883888604, 12883888603, 12883888602, 12883888601, 12883888600, 12883888606], "tags": {"amenity": "police", "name": "宁波市刑事诉讼涉案财物管理中心"}}, {"type": "way", "id": 1391861251, "center": {"lat": 29.9431162, "lon": 121.4825946}, "nodes": [12883888770, 12883888697, 11554462981, 12883888771, 12883888770], "tags": {"amenity": "kindergarten", "name": "前江街道中心幼儿园"}}, {"type": "way", "id": 1413630727, "center": {"lat": 29.9324658, "lon": 121.4695345}, "nodes": [12991194085, 12991194086, 12991194087, 12991194088, 12991194085], "tags": {"amenity": "school", "name": "裘市小学"}}, {"type": "way", "id": 1418958758, "center": {"lat": 29.9426496, "lon": 121.507853}, "nodes": [13039662138, 13039662137, 13039662136, 13039662135, 13039662134, 13039662133, 13039662132, 13039662131, 13039662138], "tags": {"amenity": "driving_school", "name": "宇达驾驶培训学校"}}, {"type": "way", "id": 1432339136, "center": {"lat": 29.918819, "lon": 121.5243362}, "nodes": [13165629787, 13165629786, 13165629785, 13165629784, 13165629783, 13165629782, 13165629781, 13165629780, 13165629779, 13165629778, 13165629777, 13165629776, 13165629775, 13165629774, 13165629773, 13165629772, 13165629771, 13165629770, 13165629769, 13165629768, 13165629767, 13165629766, 13165629765, 13165629764, 13165629763, 13165629762, 13165629761, 13165629760, 13165629759, 13165629758, 13165629757, 13165629756, 13165629755, 13165629754, 13165629753, 13165629752, 13165629787], "tags": {"amenity": "hospital", "building": "hospital", "name": "宁波爱尔光明眼科医院总院"}}, {"type": "way", "id": 1434433062, "center": {"lat": 29.9137155, "lon": 121.6020089}, "nodes": [2405081075, 13184617896, 13184617895, 2405080729, 2405080468, 2405080909, 13184617897, 2405081075], "tags": {"amenity": "driving_school", "education": "driving_school", "name": "宁波工程学院驾校"}}, {"type": "way", "id": 1442631077, "center": {"lat": 29.9588607, "lon": 121.5424454}, "nodes": [13236917197, 13236917196, 13236917195, 13236917194, 13236917193, 13236917192, 13236917197], "tags": {"amenity": "kindergarten", "name": "应嘉幼儿园"}}, {"type": "way", "id": 1444562768, "center": {"lat": 29.9445508, "lon": 121.45338}, "nodes": [13254660831, 13254660830, 13254660829, 13254660828, 13254660827, 13254660826, 13254660831], "tags": {"amenity": "police", "name": "宁波市交通运输综合行政执法队一大队"}}, {"type": "way", "id": 1469541544, "center": {"lat": 29.9862281, "lon": 121.4360475}, "nodes": [13477009274, 13477009273, 13477009272, 13477009271, 13477009270, 13477009267, 13477009269, 13477009268, 13477009274], "tags": {"amenity": "clinic", "name": "慈城镇中心卫生院新院"}}, {"type": "node", "id": 4143911824, "lat": 29.5583344, "lon": 106.4669566, "tags": {"amenity": "school", "name": "沙坪坝实验中学"}}, {"type": "node", "id": 4143911825, "lat": 29.5587148, "lon": 106.464951, "tags": {"amenity": "school", "name": "重庆市七十一中学", "name:en": "Chongqing No.71 High School"}}, {"type": "node", "id": 4362242372, "lat": 29.7075933, "lon": 106.3792893, "tags": {"amenity": "police", "name": "回龙坝派出所"}}, {"type": "node", "id": 4362285002, "lat": 29.7050301, "lon": 106.3762062, "tags": {"amenity": "school", "name": "回龙坝中心幼儿园"}}, {"type": "node", "id": 4553380700, "lat": 29.5930664, "lon": 106.3229781, "tags": {"amenity": "college", "name": "经济管理大楼"}}, {"type": "node", "id": 4564692335, "lat": 29.5821918, "lon": 106.3097153, "tags": {"amenity": "hospital", "healthcare": "hospital", "name": "好德医院"}}, {"type": "node", "id": 5614646859, "lat": 29.6390877, "lon": 106.441201, "tags": {"amenity": "hospital", "healthcare": "hospital", "name": "井口医院"}}, {"type": "node", "id": 5614646865, "lat": 29.6389607, "lon": 106.4421733, "tags": {"amenity": "school", "name": "星光幼儿园"}}, {"type": "node", "id": 7304223128, "lat": 29.5733046, "lon": 106.4600274, "tags": {"amenity": "school"}}, {"type": "node", "id": 8987420649, "lat": 29.555715, "lon": 106.4613989, "tags": {"addr:district": "沙坪坝区", "addr:housenumber": "102", "addr:postcode": "400030", "addr:province": "重庆市", "addr:street": "小龙坎正街", "amenity": "police", "name": "小龙坎派出所", "opening_hours": "24/7", "phone": "+86 23 6531 2234"}}, {"type": "node", "id": 9751461373, "lat": 29.5986111, "lon": 106.2943682, "tags": {"amenity": "university", "name": "重庆大学外国语学院"}}, {"type": "node", "id": 9751461374, "lat": 29.5984736, "lon": 106.293965, "tags": {"amenity": "university", "name": "重庆大学艺术学院"}}, {"type": "node", "id": 9751461375, "lat": 29.5981874, "lon": 106.2932633, "tags": {"amenity": "university", "name": "重庆大学辛辛那提大学联合学院"}}, {"type": "node", "id": 9751461376, "lat": 29.5980542, "lon": 106.2928831, "tags": {"amenity": "university", "name": "重庆大学大数据与软件学院"}}, {"type": "node", "id": 9751461377, "lat": 29.597892, "lon": 106.2924231, "tags": {"amenity": "university", "name": "重庆大学新闻学院"}}, {"type": "node", "id": 9751461378, "lat": 29.5979331, "lon": 106.2925409, "tags": {"amenity": "university", "name": "重庆大学弘深学院"}}, {"type": "node", "id": 11502856884, "lat": 29.5093352, "lon": 106.4376394, "tags": {"amenity": "college", "name": "重庆铁路运输技师学院"}}, {"type": "node", "id": 11573870849, "lat": 29.6143116, "lon": 106.2932075, "tags": {"amenity": "college", "name": "马克思主义学院"}}, {"type": "node", "id": 11573870850, "lat": 29.6143944, "lon": 106.2929643, "tags": {"amenity": "college", "name": "数学科学学院"}}, {"type": "node", "id": 11573870862, "lat": 29.6130987, "lon": 106.2969566, "tags": {"amenity": "college", "name": "地理与旅游学院"}}, {"type": "node", "id": 11637933500, "lat": 29.6136466, "lon": 106.3018818, "tags": {"amenity": "college", "name": "历史与社会学院"}}, {"type": "node", "id": 11727734924, "lat": 29.6162425, "lon": 106.297756, "tags": {"amenity": "college", "name": "重庆新闻学院"}}, {"type": "node", "id": 11727734927, "lat": 29.6136988, "lon": 106.2960744, "tags": {"amenity": "college", "name": "教育科学学院"}}, {"type": "node", "id": 11809637421, "lat": 29.6150361, "lon": 106.2935626, "tags": {"amenity": "college", "name": "经济与管理学院"}}, {"type": "node", "id": 11809637422, "lat": 29.614951, "lon": 106.2939248, "tags": {"amenity": "college", "name": "化学学院"}}, {"type": "node", "id": 11972231021, "lat": 29.6096427, "lon": 106.2836926, "tags": {"amenity": "kindergarten", "name": "名贝幼儿园"}}, {"type": "node", "id": 12147277900, "lat": 29.6267684, "lon": 106.3399838, "tags": {"amenity": "hospital", "healthcare": "hospital", "name": "陈家桥社区医院"}}, {"type": "node", "id": 12466407382, "lat": 29.5658525, "lon": 106.468494, "tags": {"amenity": "hospital", "name": "重庆大学校医院(A区)"}}, {"type": "node", "id": 13077554981, "lat": 29.5918784, "lon": 106.2933366, "tags": {"amenity": "university", "name": "工科大楼"}}, {"type": "way", "id": 239537195, "center": {"lat": 29.5946997, "lon": 106.2931622}, "nodes": [10171734328, 9749369190, 11819479247, 11819479245, 11819479246, 11819479244, 2896533021, 13275748087, 13275748086, 13275748088, 13275748090, 13275748093, 10845345096, 10845345095, 4564756408, 13275748097, 13275748098, 13275748099, 10845345097, 4564756407, 13275752004, 10845345100, 10845345101, 2473148770, 13275752005, 13275752006, 13275752007, 2473148772, 2473148774, 13275752008, 13275752009, 13275752010, 13275752011, 13275752012, 13275752013, 13275752014, 13275752015, 13275752017, 9952461776, 4566237210, 9952461783, 6780436844, 13275752021, 13275752022, 4139263401, 4666886726, 4139263400, 9952461784, 4666886727, 9952461785, 4139263399, 4139263398, 6780436846, 4139263397, 4139263396, 6780436848, 6780436847, 6780436851, 6780436841, 6780436850, 6780436837, 4139263393, 6780436852, 6780436839, 6780436835, 4139263392, 6780436853, 2473148793, 4592680537, 2842743623, 2473148796, 4592680539, 2473148798, 10943254328, 10943254329, 10943254330, 10943254331, 10943254332, 10943254333, 10943254326, 10943254327, 10943254325, 12112748013, 11819479253, 10171734329, 10171734331, 10171734330, 10171734328], "tags": {"addr:city": "Chongqing Municipality, China", "addr:postcode": "401331", "amenity": "university", "education": "university", "name": "重庆大学虎溪校区", "name:en": "Chongqing University Huxi Campus"}}, {"type": "way", "id": 412480741, "center": {"lat": 29.5679671, "lon": 106.4654869}, "nodes": [4063480741, 1879448053, 12647715994, 12647715995, 4138980422, 4138980428, 4138980429, 12647715992, 12647715983, 12647715984, 12647715986, 4138980430, 12647715985, 12647715987, 12647715988, 4138980431, 4138980432, 12647715989, 1684513147, 1684513140, 12647715990, 12647715991, 4138980434, 1066615068, 3649616633, 1066614874, 7595971881, 1192620315, 7595971877, 4138980436, 4138980437, 4138980438, 4138980439, 4138980444, 12647715979, 12647715980, 4138980445, 12647715978, 12647715977, 12647715976, 4138980447, 12647715975, 12647715974, 12647715973, 4138980448, 12647715972, 12647715971, 4138980449, 12647715966, 12647715968, 12647715965, 12647715967, 12647715964, 12647715963, 12647715962, 4138980450, 4138980451, 12647715961, 12647715970, 4138980452, 12647715969, 12647715957, 12647715960, 12647715958, 12647715959, 12647715956, 12647715955, 4138980453, 12647715954, 12647715953, 4138980454, 12647715981, 4138980455, 12647715982, 4138980456, 4138980458, 4138980459, 4138980460, 4138980461, 4138980462, 4138980463, 4138980464, 4138980465, 4138980466, 4138980467, 4138980468, 4138980469, 4138980470, 4063480741], "tags": {"amenity": "university", "education": "university", "name": "重庆大学A区", "name:en": "Chongqing University - Campus A"}}, {"type": "way", "id": 412480744, "center": {"lat": 29.5625195, "lon": 106.4613091}, "nodes": [4138980479, 7195293090, 7195293089, 6968516084, 7195293088, 7195293087, 7194981602, 7744295304, 7194981603, 7727498018, 7727498017, 7727498016, 7194981604, 7744295303, 7744295306, 7744295305, 5579780871, 7727498014, 7194981605, 7744295297, 7744295302, 7194993500, 7194981609, 6968516081, 7194981608, 7194981607, 7194981606, 4138980480, 7196853513, 7196853514, 7196853515, 7196853516, 7196853517, 4138980481, 7196853518, 7196853519, 4138980482, 7196853520, 7196853521, 4138980483, 7196853522, 7196853523, 4138980484, 7196853524, 7196853525, 4138980485, 7196744264, 7196744256, 7196853526, 7196853527, 4138980487, 4138980488, 4138982389, 7196744265, 4138982390, 4138982392, 1684513157, 1684513149, 1684513144, 4138982394, 4138980479], "tags": {"amenity": "school", "name": "重庆一中", "name:en": "Chongqing No.1 Secondary School", "name:zh": "重庆一中", "operator": "重庆一中", "operator:type": "public", "website": "Https://www.cqyz.cn"}}, {"type": "way", "id": 412480745, "center": {"lat": 29.5638037, "lon": 106.4557632}, "nodes": [4138982396, 5581786783, 5575158851, 5575158850, 5575158852, 5575158853, 4138982397, 5575158854, 5575158848, 5572704775, 5575158847, 5575158846, 5575158845, 5572704776, 5573216844, 5575158844, 5579780829, 5579780830, 5575158843, 5575158839, 5575158838, 5575158837, 5573216840, 5581817631, 5558440185, 4138982399, 5575158862, 5575158835, 11185958509, 11185958519, 5581817278, 11185958515, 11185958514, 11185987162, 11185958526, 11185958525, 11185987139, 11185987138, 11185987144, 11185987143, 4138982401, 5579780797, 11185987156, 5575158829, 5575158830, 11185987155, 5581786791, 5579780784, 5581786789, 5581786788, 4138982407, 4138982408, 5575158831, 5581786793, 5575158832, 5581786806, 4138982410, 4138982419, 5585546863, 5585546864, 4138982414, 4138982415, 4138982396], "tags": {"addr:district": "沙坪坝区", "addr:housenumber": "1", "addr:postcode": "400030", "addr:province": "重庆市", "addr:street": "沙坪坝南街", "amenity": "school", "name": "重庆南开中学", "name:en": "Chongqing Nankai Secondary School", "name:zh": "重庆南开中学", "wikidata": "Q5104663"}}, {"type": "way", "id": 412480747, "center": {"lat": 29.5628501, "lon": 106.4496395}, "nodes": [7589829422, 4138982422, 4138982423, 4138982424, 4138982425, 4138982426, 1679411432, 4138982428, 10119384760, 10119384759, 10119384758, 10119384757, 4138982429, 1679411410, 4138982430, 4138982431, 4138982432, 4138982433, 1066589150, 1066589725, 4138982434, 1066589650, 4138982435, 1066589675, 1066589364, 7589829422], "tags": {"amenity": "university", "name": "重庆大学C区", "name:en": "Chongqing University - Campus C"}}, {"type": "way", "id": 412515702, "center": {"lat": 29.6056965, "lon": 106.2935381}, "nodes": [11592216563, 11592216564, 11592216565, 11592264478, 11592264479, 11592264480, 11592216566, 11592216567, 11592216568, 11592264494, 11866416665, 11866416666, 11866416667, 11866416668, 11866445969, 11592264469, 11659908607, 11659908608, 4658764188, 4658764187, 4658764186, 4658764185, 4658764184, 10175183191, 10175183192, 8008129509, 6861188695, 11592264476, 11592264477, 11592216563], "tags": {"addr:city": "重庆市", "addr:housenumber": "28", "addr:postcode": "400000", "addr:street": "大学城南路", "alt_name": "四川美术学院", "amenity": "university", "education": "university", "name": "四川美术学院(虎溪校区)", "name:en": "Sichuan Fine Arts Institute (Huxi Campus)", "name:zh": "四川美术学院(虎溪校区)", "short_name": "川美"}}, {"type": "way", "id": 412515711, "center": {"lat": 29.6148635, "lon": 106.296017}, "nodes": [5617927979, 10175183199, 10175183198, 10175183200, 8008129506, 4592680548, 11294766154, 4592680549, 11294766153, 4592680550, 2554227109, 11452993294, 11452993295, 11807221249, 2554227072, 11452993292, 11452993293, 11727734952, 11727734951, 11727734950, 11727734949, 11727734948, 11727734947, 11727734946, 11727734943, 11727734945, 11727734944, 4592680511, 1534374307, 11294766128, 11294766129, 4307414181, 11294766127, 11294766122, 11294766121, 11294766119, 11873997496, 11873997498, 11873997497, 10175183210, 10175183212, 10175183213, 6790577628, 10175183216, 11697167605, 11452993364, 11452993363, 10175183220, 11452993362, 10175183223, 10175183222, 10175183221, 5617927979], "tags": {"amenity": "university", "name": "重庆师范大学大学城校区", "name:en": "Chongqing Normal University - Huxi Campus"}}, {"type": "way", "id": 412515712, "center": {"lat": 29.625734, "lon": 106.2987758}, "nodes": [768678258, 4139252248, 4139252249, 11560071365, 12211544270, 12211544271, 12222252644, 4139252250, 12222252643, 4139252252, 12222252642, 4139252253, 12222252639, 12222252640, 12222252638, 11560095169, 12222252641, 12222252637, 11560071363, 11560095172, 12211544267, 11560095173, 12211544266, 4139252254, 4139252258, 4139252259, 11831304396, 11831304395, 11831304397, 4659903916, 4139252262, 4139252266, 7720953738, 7720953737, 4139252271, 4139252272, 4139252273, 10657012365, 9952461727, 4139252247, 768678258], "tags": {"amenity": "university", "name": "重庆医科大学缙云校区", "name:en": "Chongqing Medical University Jinyun Campus", "name:zh": "重庆医科大学缙云校区"}}, {"type": "way", "id": 412515716, "center": {"lat": 29.6293715, "lon": 106.3090992}, "nodes": [9506818288, 9506818289, 9506818292, 768678282, 768678340, 4139252344, 768678302, 9898738863, 9898738862, 9898738858, 9898738859, 9898738860, 9506818288], "tags": {"amenity": "university", "name": "重庆医药高等专科学校", "name:en": "Chongqing Medical and Pharmaceutical College"}}, {"type": "way", "id": 412515721, "center": {"lat": 29.6280943, "lon": 106.3154884}, "nodes": [9898738861, 9898738864, 9898738865, 9898738870, 768678286, 768678364, 2554242790, 768678348, 9898738857, 4139252349, 9898738855, 9898738856, 9952461809, 9952461810, 9952461806, 9952461811, 9898738861], "tags": {"amenity": "university", "name": "重庆警察学院-虎溪分校", "name:en": "Chongqing Police College - Huxi Campus"}}, {"type": "way", "id": 412515724, "center": {"lat": 29.62362, "lon": 106.321697}, "nodes": [9948597696, 768678274, 9948597695, 1192621199, 4720408155, 1192616546, 4139252352, 4139252355, 4139252356, 12115386367, 12115386357, 12115386362, 12115386361, 12115386360, 12115386359, 12115386358, 9948597697, 9948597696], "tags": {"amenity": "university", "name": "重庆电子科技职业大学", "name:en": "Chongqing Polytechnic University of Electronic Technology", "name:zh": "重庆电子科技职业大学"}}, {"type": "way", "id": 412517676, "center": {"lat": 29.5793284, "lon": 106.3001539}, "nodes": [5317157585, 4594529768, 4139268724, 4601071150, 4613479174, 4613477891, 4613477895, 4613477901, 4615654470, 4615633846, 4613477898, 4613477897, 4613477892, 5317157585], "tags": {"amenity": "university", "education": "university", "name": "重庆城市管理职业学院", "name:en": "Chongqing City Management College", "name:zh": "重庆城市管理职业学院"}}, {"type": "way", "id": 412520627, "center": {"lat": 29.6337637, "lon": 106.3025215}, "nodes": [4139293130, 4139293131, 4139293132, 4139293133, 4139293134, 4139293135, 9952991318, 4139293137, 9952991319, 4139293130], "tags": {"amenity": "university", "name": "重庆市运动技术学院", "name:en": "Chongqing institute of sports technology", "note": "重庆市运动技术学院位于重庆大学城北部，占地530亩，建筑面积近12万平方米，总投资3亿元。2007年12月启动建设，2009年春季部分建成，2009年12月全部建成交付使用后，实现学院整体搬迁。重庆竞技体育训练中心项目建成后将除射击、射箭项目外的16个竞技体育项目全部纳入训练中心进行集约型管理。"}}, {"type": "way", "id": 412522320, "center": {"lat": 29.6147122, "lon": 106.3094688}, "nodes": [11294767813, 11294767815, 11294767817, 11294767816, 11294767821, 4139309244, 11294767813], "tags": {"amenity": "school", "name": "重庆师范大学附属中学", "name:en": "Chongqing No.8 Middle School at University Town", "name:zh": "重庆师范大学附属中学"}}, {"type": "way", "id": 412525060, "center": {"lat": 29.611076, "lon": 106.3103386}, "nodes": [10175183159, 10175183156, 10175183155, 10175183169, 10175183165, 10175183166, 10175183159], "tags": {"amenity": "school", "name": "重庆大学城人民小学", "name:en": "Renmin Primary School at Chongqing University Town"}}, {"type": "way", "id": 413059650, "center": {"lat": 29.5594852, "lon": 106.4617101}, "nodes": [4143911871, 4143911872, 4143911873, 4143911874, 4143911875, 4143911871], "tags": {"amenity": "school", "name": "树人小学"}}, {"type": "way", "id": 413059651, "center": {"lat": 29.5585923, "lon": 106.462027}, "nodes": [4143911881, 4143911882, 4143911883, 8987420650, 4143911881], "tags": {"addr:district": "沙坪坝区", "addr:housenumber": "44", "addr:postcode": "400030", "addr:province": "重庆市", "addr:street": "小龙坎新街", "amenity": "hospital", "emergency": "yes", "healthcare": "hospital", "name": "沙坪坝人民医院", "name:en": "Shapingba People's Hospital", "phone": "+86 23 6536 5120;+86 23 6536 5130", "wheelchair": "yes"}}, {"type": "way", "id": 413059661, "center": {"lat": 29.5701715, "lon": 106.4383357}, "nodes": [11146386556, 11758636867, 11758636866, 11758636865, 11758636864, 4143912051, 4143912052, 4143912053, 4143912054, 4143912034, 4143912035, 4143912036, 4143912037, 4143912038, 4143912039, 11758653874, 11758653873, 11758653872, 4143912042, 4143912043, 11146386550, 4143912044, 11146386552, 11146386553, 11146386554, 11146386555, 11146386551, 11146386556], "tags": {"amenity": "university", "name": "西南政法大学", "name:en": "Southwest University of Political Science & Law"}}, {"type": "way", "id": 413059662, "center": {"lat": 29.571441, "lon": 106.4326984}, "nodes": [11758653870, 11146386531, 4143912055, 4143912056, 11146386540, 11146386541, 11146386542, 4143912057, 11146386549, 11146386548, 4143912058, 11146386547, 11146386546, 4143912059, 11146386545, 4143912060, 11146386544, 11146386543, 4143912061, 4143912062, 11758653880, 4143912063, 4143912064, 4143912065, 11761438212, 4143912067, 11761438214, 11761438213, 11761438210, 11146359678, 11146359679, 11146359680, 11146359681, 11146359682, 11146359683, 11146359677, 4143912071, 4143912072, 11146359676, 11146359675, 11145561085, 11145561078, 11145561087, 11145561086, 11145561084, 11145561079, 11145561083, 11145561089, 11145561082, 11145561081, 11145561080, 11145561091, 4143912074, 4143912075, 4143912076, 4143912078, 4143912040, 13457276942, 4143912041, 11758653871, 11758636868, 11758653869, 11758653870], "tags": {"amenity": "university", "education": "university", "name": "四川外国语大学", "name:en": "Sichuan International Studies University", "wikidata": "Q3551746"}}, {"type": "way", "id": 438483340, "center": {"lat": 29.6995225, "lon": 106.3735255}, "nodes": [4362271059, 4362271060, 4362271061, 4362271062, 4362271063, 4362271064, 4362271065, 4362271066, 4362271067, 4362271068, 4362271069, 4362271070, 4362271071, 4362271059], "tags": {"amenity": "school", "name": "沙坪坝区回龙坝镇初级中学"}}, {"type": "way", "id": 438483937, "center": {"lat": 29.7055238, "lon": 106.3753859}, "nodes": [4362242375, 4362242376, 4362242377, 4362242378, 4362242379, 4362242380, 4362242381, 4362242382, 4362242375], "tags": {"amenity": "school", "name": "沙坪坝区回龙坝小学"}}, {"type": "way", "id": 438484693, "center": {"lat": 29.7069051, "lon": 106.376197}, "nodes": [4362267472, 4362267473, 4362267474, 4362267475, 4375080700, 4362267476, 4362267472], "tags": {"amenity": "hospital", "healthcare": "hospital", "name": "回龙坝镇卫生院（回龙坝社区卫生服务中心）"}}, {"type": "way", "id": 438485524, "center": {"lat": 29.7253404, "lon": 106.3822286}, "nodes": [4362289900, 4362289901, 4362289902, 4362289903, 4362289900], "tags": {"amenity": "school", "name": "三桥小学"}}, {"type": "way", "id": 438487843, "center": {"lat": 29.6777504, "lon": 106.3098799}, "nodes": [4362308788, 4362308789, 4362308790, 4362308791, 4362308792, 4362308788], "tags": {"amenity": "hospital", "healthcare": "hospital", "name": "青木关中心医院（西部新城急救中心）"}}, {"type": "way", "id": 460879653, "center": {"lat": 29.5778139, "lon": 106.3083752}, "nodes": [4564699212, 4578617610, 5317157976, 4578617609, 5317157974, 13386480958, 4564699214, 4564699215, 4564699212], "tags": {"amenity": "school", "education": "school", "name": "康居西城小学"}}, {"type": "way", "id": 462808709, "center": {"lat": 29.6020577, "lon": 106.3311771}, "nodes": [4581497019, 4581497020, 4581497021, 4581497022, 4581497023, 4581497024, 4581497019], "tags": {"amenity": "police", "name": "虎溪派出所"}}, {"type": "way", "id": 464340044, "center": {"lat": 29.5626502, "lon": 106.2983927}, "nodes": [4594619910, 4594619911, 4594619912, 4594619913, 4594619914, 4594619910], "tags": {"amenity": "school", "name": "重庆大学城第二小学校"}}, {"type": "way", "id": 464340068, "center": {"lat": 29.5940296, "lon": 106.3074764}, "nodes": [4594620093, 4594620094, 4594620095, 4594620096, 4594620097, 2896533025, 4594620098, 4594620099, 4594620100, 4594620101, 4594620102, 4594620103, 4594620104, 12825750728, 4594620105, 4594620093], "tags": {"amenity": "school", "name": "重庆大学城第一中学"}}, {"type": "way", "id": 466927973, "center": {"lat": 29.5558633, "lon": 106.2967283}, "nodes": [2554233389, 4616244669, 4616244670, 4616244671, 4616244672, 4616244673, 4616269014, 4616269015, 4616269016, 4616305417, 4616269017, 2554233389], "tags": {"amenity": "school", "name": "曾家中学"}}, {"type": "way", "id": 466930652, "center": {"lat": 29.5526716, "lon": 106.2992432}, "nodes": [4616298799, 4616298800, 4616298801, 4616298802, 4616298803, 4616298804, 4616298805, 4616298806, 2554233324, 4616298799], "tags": {"amenity": "hospital", "healthcare": "hospital", "name": "曾家医院"}}, {"type": "way", "id": 471840322, "center": {"lat": 29.6336877, "lon": 106.3174754}, "nodes": [4659903894, 12400287833, 7095794500, 12400287834, 4659903897, 4659903898, 12400287835, 4659903899, 8725863595, 4659903900, 8725863598, 8725863599, 8725863600, 8725863597, 8725863596, 8725863601, 4731579890, 12842746545, 8725863554, 4731579891, 8725863555, 8725863556, 8725863557, 4731579892, 8725863558, 8725863559, 8725863560, 8725863561, 8725863564, 8725863562, 8725863563, 8725863548, 8725863549, 8725863547, 8725863546, 4659903903, 8725863545, 8725863544, 4659903904, 8725863540, 8725863541, 8725863543, 8725863542, 4659903905, 4659903906, 4659903894], "tags": {"addr:city": "沙坪坝区", "addr:housenumber": "1", "addr:province": "重庆市", "addr:street": "大学城北一路", "amenity": "college", "landuse": "military", "name": "中国人民解放军联勤保障部队工程大学", "operator": "中国人民解放军联勤保障部队", "operator:type": "military", "wikipedia": "zh:中国人民解放军联勤保障部队工程大学"}}, {"type": "way", "id": 479993687, "center": {"lat": 29.6370247, "lon": 106.3697796}, "nodes": [4730212359, 4730212360, 4730212361, 4730212362, 4730212363, 4730212364, 4730212365, 4730212366, 4730212367, 4730212368, 4730212359], "tags": {"amenity": "school", "name": "沙坪坝区新丝路中学校", "name:zh": "沙坪坝区新丝路中学校"}}, {"type": "way", "id": 538381219, "center": {"lat": 29.5955797, "lon": 106.3205839}, "nodes": [10056499195, 10056499194, 10056499183, 10056499184, 10056499186, 10056499185, 10056499187, 10056499189, 10056499190, 10056499191, 10056499192, 10056499193, 10056499204, 8621945011, 10056499203, 8621945010, 8621945009, 8621945008, 8621945007, 4666864578, 10056499195], "tags": {"amenity": "university", "name": "重庆科技大学", "name:en": "Chongqing University of Science & Technology", "name:zh": "重庆科技大学", "wikidata": "Q15902369"}}, {"type": "way", "id": 553175168, "center": {"lat": 29.5222782, "lon": 106.4343019}, "nodes": [5340111130, 5340111131, 5340111132, 5340111133, 5340111134, 11034594849, 11034594848, 5340111135, 11034594846, 11034594847, 5340111136, 12875779910, 12875779911, 5340111137, 11034594845, 5340111138, 11034594844, 11034594843, 5340111139, 11034594842, 11034594841, 11034594840, 5340111140, 11034594839, 11034594838, 11034594837, 11034594836, 5340111141, 11034594835, 11034594834, 11034594832, 11034594833, 11034594831, 11034594855, 5340111142, 11034594854, 11034594853, 11034594852, 5340111143, 5340111144, 11034594850, 5340111145, 11034594851, 5340111130], "tags": {"addr:district": "沙坪坝区", "addr:housenumber": "83", "addr:province": "重庆市", "addr:street": "新桥正街", "alt_name": "陆军军医大学新桥医院;重庆新桥医院", "alt_name:en": "Xinqiao Hospital ARMY Medical University", "amenity": "hospital", "emergency": "yes", "healthcare": "hospital", "landuse": "military", "name": "陆军军医大学第二附属医院（新桥医院）", "official_name": "陆军军医大学第二附属医院", "official_name:en": "The Second Affiliated Hospital of Army Medical University", "official_name:zh": "陆军军医大学第二附属医院", "operator": "陆军军医大学", "operator:type": "university", "wikidata": "Q30281239", "wikipedia": "zh:陆军军医大学第二附属医院"}}, {"type": "way", "id": 585539550, "center": {"lat": 29.583698, "lon": 106.4470213}, "nodes": [5595517665, 5595517666, 5595517667, 5595517668, 5595517673, 5595517669, 12095407065, 5595517670, 12095407064, 12095407063, 5595517665], "tags": {"amenity": "school", "name": "磁器口小学"}}, {"type": "way", "id": 586637091, "center": {"lat": 29.5700557, "lon": 106.4570443}, "nodes": [5604611441, 5604611442, 5604611443, 5604611444, 5604611445, 5604611446, 5604611447, 5604611448, 5604611449, 5604611450, 5604611451, 5604611452, 5604611453, 5604611454, 5604611455, 5604611456, 5604611457, 5604611458, 5604611459, 5604611460, 5604611441], "tags": {"amenity": "college", "name": "建工馆"}}, {"type": "way", "id": 586637093, "center": {"lat": 29.5683251, "lon": 106.456594}, "nodes": [5604611480, 5604611481, 5604611482, 5604611483, 5604611484, 5604611485, 5604611486, 5604611487, 5604611488, 5604611489, 5604611490, 5604611491, 5604611492, 5604611493, 5604611494, 5604611495, 5604611496, 5604611497, 5604611498, 5604611499, 5604611480], "tags": {"amenity": "college", "name": "建筑与房地产管理学院"}}, {"type": "way", "id": 588862478, "center": {"lat": 29.5660334, "lon": 106.4519911}, "nodes": [5623651609, 5623651620, 5577715827, 5623651611, 5623652926, 5579780852, 5623651612, 5623651616, 5623652927, 5623652962, 5623652961, 5623651615, 5623652928, 5623651614, 5623652938, 5623652935, 5623652934, 5623651617, 5623651618, 5623651613, 5623651609], "tags": {"amenity": "school", "name": "重庆南开小学", "name:en": "Chongqing Nankai Primary School"}}, {"type": "way", "id": 639999828, "center": {"lat": 29.6415719, "lon": 106.4459145}, "nodes": [6029573206, 6029573207, 6029573240, 6029573208, 6029573209, 9841370369, 9841370367, 9841370366, 9841370368, 6029573210, 6029573211, 9841370365, 6029573212, 6029573213, 9841370363, 9841370362, 6029573214, 9841370364, 6029573215, 6029573206], "tags": {"amenity": "college", "name": "美丽阳光小学"}}, {"type": "way", "id": 719922917, "center": {"lat": 29.5848329, "lon": 106.2899194}, "nodes": [6757158164, 6790577649, 6790577641, 6790577640, 6790577643, 6790577639, 6786073777, 6790577638, 6757158165, 6790577646, 6790592400, 6779131143, 6757158166, 6790577637, 6757158167, 6786067848, 6790577653, 6790577636, 6757158164], "tags": {"amenity": "school", "name": "重庆第一实验中学（重庆一中大学城校区）"}}, {"type": "way", "id": 734137027, "center": {"lat": 29.6124505, "lon": 106.2899326}, "nodes": [11476099189, 11294767775, 11294767786, 11294767776, 11294767792, 11294767790, 11294767778, 11476099190, 11476099191, 11476099189], "tags": {"addr:city": "重庆市", "addr:district": "沙坪坝区", "addr:housenumber": "35号", "addr:province": "重庆市", "addr:street": "大学城西路", "amenity": "school", "isced:level": "1", "name": "重庆师范大学附属实验小学", "operator": "重庆师范大学"}}, {"type": "way", "id": 773911428, "center": {"lat": 29.6019722, "lon": 106.3214649}, "nodes": [9627866680, 9627866679, 9627866677, 10171719496, 10171719497, 7223893533, 7223893534, 7223893535, 7223893536, 9627866680], "tags": {"amenity": "school", "name": "富力南开小学"}}, {"type": "way", "id": 782214153, "center": {"lat": 29.5737852, "lon": 106.4602789}, "nodes": [7304223097, 7304223098, 7304223099, 7304223100, 7304223101, 7304223102, 7304223103, 7304223104, 7304223105, 7304223106, 7304223107, 7304223108, 7304223109, 7304223110, 7304223111, 7304223112, 7304223113, 7304223114, 7304223115, 7304223116, 7304223117, 7304223118, 7304223119, 7304223120, 7304223121, 7304223122, 7304223123, 7304223124, 7304223125, 7304223126, 7304223127, 7304223097], "tags": {"amenity": "school", "education": "school", "name": "重庆七中", "name:en": "Chongqing No.7 Middle School"}}, {"type": "way", "id": 802081114, "center": {"lat": 29.5856665, "lon": 106.2931961}, "nodes": [7502432939, 7502432940, 7502432941, 7502432942, 7502432943, 7502432944, 7502432945, 7502432946, 7502432939], "tags": {"amenity": "school", "name": "长水第一中学重庆校区"}}, {"type": "way", "id": 802081115, "center": {"lat": 29.5844157, "lon": 106.2931992}, "nodes": [7502432941, 7502432947, 7502432948, 7502432944, 7502432943, 7502432942, 7502432941], "tags": {"amenity": "school", "name": "树人思贤小学"}}, {"type": "way", "id": 806698527, "center": {"lat": 29.6384177, "lon": 106.4441604}, "nodes": [7543666140, 7543666139, 7543666138, 7543666137, 7543666136, 7543666135, 7543666134, 7543666133, 7543666132, 7543666131, 7543666130, 7543666129, 7543666128, 7543666127, 7543666126, 7543666125, 7543666124, 7543666123, 7543666122, 7543666121, 7543666120, 7543666140], "tags": {"amenity": "school", "name": "重庆市第四十六中"}}, {"type": "way", "id": 814491982, "center": {"lat": 29.598143, "lon": 106.3138514}, "nodes": [10171719476, 7608168698, 7608168699, 7608168700, 10845345071, 10845345077, 10845345076, 10845345073, 10845345075, 10171719476], "tags": {"amenity": "school", "name": "南开景阳小学"}}, {"type": "way", "id": 814491984, "center": {"lat": 29.5912785, "lon": 106.3128157}, "nodes": [10056499196, 11359656292, 11359656281, 11359656285, 11359656296, 11359656295, 10056499196], "tags": {"amenity": "school", "name": "大学城第一中学初中部"}}, {"type": "way", "id": 827004722, "center": {"lat": 29.6385682, "lon": 106.304402}, "nodes": [7720953719, 12400287842, 7720953720, 12400287840, 12400287841, 7720953721, 12400287843, 7720953722, 12400287845, 7720953723, 7720953724, 7720953725, 7720953726, 7720953727, 7720953728, 7720953729, 7720953730, 7720953731, 7720953732, 7720953733, 7720953734, 7720953735, 7720953719], "tags": {"amenity": "university", "name": "重庆商务职业学院", "operator": "重庆商务职业学院", "website": "http://www.cqswxy.cn/"}}, {"type": "way", "id": 827004725, "center": {"lat": 29.6027877, "lon": 106.2824198}, "nodes": [7720953752, 11127448701, 7720953753, 9436810029, 9436810030, 7720953754, 7720953755, 7720953756, 7720953752], "tags": {"amenity": "school", "name": "树人小学"}}, {"type": "way", "id": 829736884, "center": {"lat": 29.5627722, "lon": 106.4593761}, "nodes": [7744295296, 7744295305, 7744295306, 7744295297, 7194981605, 7744295298, 7744295299, 7744295300, 7744295301, 7194981609, 7194993500, 7744295302, 7744295303, 7194981604, 7727498016, 7727498017, 7727498018, 7194981603, 7744295304, 7744295296], "tags": {"amenity": "school", "name": "重庆市名校联合中学"}}, {"type": "way", "id": 863649978, "center": {"lat": 29.5565566, "lon": 106.461579}, "nodes": [8045349074, 8987410606, 8045349076, 8987410607, 9888814703, 8045349077, 8987410604, 8987410603, 8045349078, 8045349079, 8045349080, 8987410599, 8987410598, 8987417712, 8045349081, 8045349074], "tags": {"addr:district": "沙坪坝区", "addr:housenumber": "96", "addr:postcode": "400030", "addr:province": "重庆市", "addr:street": "小龙坎正街", "amenity": "school", "education": "school", "grades": "9-12", "name": "重庆八中", "name:en": "Chongqing No.8 Middle School", "name:zh": "重庆八中", "operator": "重庆市渝北区教育委员会", "operator:type": "government"}}, {"type": "way", "id": 871377814, "center": {"lat": 29.5876102, "lon": 106.2811069}, "nodes": [8116486406, 8116486407, 8116486408, 8116486409, 8116486410, 7586665105, 7586665106, 7586665107, 7586665108, 7586665109, 7586665110, 7586665111, 7586665112, 7586665113, 7586665114, 7586665115, 7586665116, 8116486406], "tags": {"amenity": "school", "name": "重庆科学城高桥学校"}}, {"type": "way", "id": 881287684, "center": {"lat": 29.5810099, "lon": 106.2956912}, "nodes": [8196492708, 8196492709, 8196492710, 8196492711, 8196492712, 8196492713, 8196492714, 8196492708], "tags": {"amenity": "college", "name": "重庆养老人才培训基地"}}, {"type": "way", "id": 941849494, "center": {"lat": 29.5898844, "lon": 106.304365}, "nodes": [11359656333, 11359656334, 8722043946, 11359656342, 8722043947, 8722043948, 8722043949, 8722043950, 11359656332, 11359656340, 11359656339, 11359656333], "tags": {"amenity": "school", "name": "重庆大学城沙坪坝小学校"}}, {"type": "way", "id": 979796698, "center": {"lat": 29.5705164, "lon": 106.4585804}, "nodes": [9063914133, 9063914134, 9063914135, 9063914136, 9063914137, 9063914138, 9063914139, 9063914140, 9063914141, 9063914142, 9063914133], "tags": {"amenity": "hospital", "healthcare": "hospital", "name": "校医院"}}, {"type": "way", "id": 1011391115, "center": {"lat": 29.615407, "lon": 106.3624676}, "nodes": [9331416613, 9331416614, 9331416615, 9331416616, 9331416631, 9331416613], "tags": {"amenity": "school", "name": "重庆科学城实验一小永祥小学校"}}, {"type": "way", "id": 1011726679, "center": {"lat": 29.6416313, "lon": 106.360186}, "nodes": [9334509155, 9334509156, 9334509157, 9334509158, 9334509159, 9334509160, 9334509161, 9334509162, 9334509163, 9334509164, 9334509155], "tags": {"amenity": "school", "name": "重庆七中实验中学校"}}, {"type": "way", "id": 1023294351, "center": {"lat": 29.5983297, "lon": 106.2817157}, "nodes": [9436799692, 9436799693, 9436799694, 9436799696, 9436799697, 9436799698, 9436799699, 9436799700, 10943254340, 9436799692], "tags": {"amenity": "school", "name": "重庆巴蜀科学城中学校"}}, {"type": "way", "id": 1023298982, "center": {"lat": 29.5392499, "lon": 106.4484506}, "nodes": [9436814527, 9436814528, 9436814529, 9436814530, 9436814531, 9436814534, 9436814542, 11516814978, 11516814979, 11516814980, 11516814981, 9436814556, 9436814557, 9436814558, 9436814559, 9436814560, 9436814561, 9436814562, 9436814563, 9436814564, 9436814565, 9436814566, 9436814567, 9436814568, 9436814569, 9436814570, 9436814571, 9436814572, 9436814573, 9436814574, 9436814575, 9436814576, 9436814577, 9436814578, 9436814579, 9436814580, 9436814581, 9436814582, 9436814583, 9436814584, 9436814585, 9436814586, 9436814587, 9436814588, 9436814589, 9436814590, 9436814591, 9436814592, 9436814593, 9436814594, 9436814595, 9436814596, 9436814597, 9436814598, 9436814527], "tags": {"alt_name": "陆军军医大学西南医院;重庆西南医院", "amenity": "hospital", "emergency": "yes", "healthcare": "hospital", "name": "西南医院", "name:en": "Southwest Hospital", "name:zh": "西南医院", "official_name": "陆军军医大学第一附属医院", "official_name:en": "The First Affiliated Hospital of Army Medical University", "official_name:zh": "陆军军医大学第一附属医院", "operator": "陆军军医大学", "operator:type": "university", "operator:wikidata": "Q7784898"}}, {"type": "way", "id": 1072038329, "center": {"lat": 29.63282, "lon": 106.4365786}, "nodes": [9836759097, 13114608873, 9836759098, 9836759100, 13114608876, 13114608877, 9836759101, 9836759102, 13114608875, 9836759107, 9836759103, 9836759104, 9836759105, 9836759106, 13114608874, 9836759097], "tags": {"amenity": "hospital", "healthcare": "hospital", "name": "重庆市沙坪坝区人民医院（井双院区）"}}, {"type": "way", "id": 1079804393, "center": {"lat": 29.5688432, "lon": 106.299221}, "nodes": [9897792766, 9897792767, 9897792768, 9897792769, 9897792770, 9897792771, 9897792772, 9897792773, 9897792774, 9897792775, 9897792776, 9897792766], "tags": {"amenity": "school", "name": "大学城第四中学"}}, {"type": "way", "id": 1084956001, "center": {"lat": 29.6313798, "lon": 106.3293164}, "nodes": [9941378885, 9941378878, 9941378882, 9941378883, 9941378880, 9941378884, 9941378886, 9941378881, 9941378879, 9941378885], "tags": {"amenity": "school", "name": "重庆市沙坪坝区学府悦园第二小学校"}}, {"type": "way", "id": 1084956244, "center": {"lat": 29.6182489, "lon": 106.3403842}, "nodes": [9941380804, 9941380793, 9941380798, 9941380802, 9941380796, 9941380800, 9941380797, 9941380804], "tags": {"amenity": "school", "name": "重庆大学城第三中学校"}}, {"type": "way", "id": 1086625184, "center": {"lat": 29.6281168, "lon": 106.3331942}, "nodes": [9956449607, 9956449608, 9956449593, 9956449592, 9956449609, 9956449607], "tags": {"amenity": "hospital", "healthcare": "hospital", "name": "家康医院"}}, {"type": "way", "id": 1086625185, "center": {"lat": 29.6278374, "lon": 106.3320103}, "nodes": [9956449608, 9956449610, 9956449611, 9956449612, 9956449613, 9956449597, 9956449596, 9956449595, 9956449594, 9956449593, 9956449608], "tags": {"amenity": "school", "name": "学府悦园第一小学校"}}, {"type": "way", "id": 1086625186, "center": {"lat": 29.6285556, "lon": 106.3314709}, "nodes": [9956449610, 9956449614, 9956449615, 9956449612, 9956449611, 9956449610], "tags": {"amenity": "kindergarten", "name": "学府悦园第二幼儿园"}}, {"type": "way", "id": 1087380085, "center": {"lat": 29.6389462, "lon": 106.3469997}, "nodes": [9962974421, 9962974471, 9962974422, 9962974423, 9962974410, 9962974424, 9962974421], "tags": {"amenity": "school", "name": "沙坪坝区树人博文小学"}}, {"type": "way", "id": 1087380086, "center": {"lat": 29.6383348, "lon": 106.345613}, "nodes": [9962974422, 9962974425, 9962974426, 9962974411, 9962974423, 9962974422], "tags": {"amenity": "kindergarten", "name": "曙光百草园幼儿园"}}, {"type": "way", "id": 1096934695, "center": {"lat": 29.6573655, "lon": 106.3632228}, "nodes": [10044499568, 10044499569, 10044499570, 10044499572, 10839216851, 10839216849, 10839216850, 10044499573, 10044499574, 10138086036, 10044499575, 10044499576, 10044499577, 10044499568], "tags": {"amenity": "school", "name": "沙坪坝小学图新小学校"}}, {"type": "way", "id": 1111813341, "center": {"lat": 29.5979526, "lon": 106.3199207}, "nodes": [10171734223, 10171734224, 10171734225, 10171734226, 10171734236, 10171734235, 10171734237, 10171734227, 4666864578, 8621945007, 10171734223], "tags": {"amenity": "university", "landuse": "military", "name": "陆军军医大学（大学城校区）", "operator": "陆军军医大学", "operator:type": "university"}}, {"type": "way", "id": 1113103724, "center": {"lat": 29.6265141, "lon": 106.3472897}, "nodes": [10183751179, 10183751191, 10183751190, 10183751192, 10183751180, 10183751181, 10183751182, 10183751188, 10183751189, 10183751183, 10183751179], "tags": {"amenity": "kindergarten", "name": "永佳幼儿园"}}, {"type": "way", "id": 1113103744, "center": {"lat": 29.6211991, "lon": 106.3585313}, "nodes": [10183848481, 10183848482, 10183848483, 10183848484, 10183848481], "tags": {"amenity": "kindergarten", "name": "杰夫天宸幼儿园"}}, {"type": "way", "id": 1135136230, "center": {"lat": 29.6156018, "lon": 106.347797}, "nodes": [10581524751, 10581524752, 10581524753, 10581524754, 10581524757, 10581524756, 10581524758, 10581524755, 10581524751], "tags": {"amenity": "school", "name": "重庆科学城明远未来小学校"}}, {"type": "way", "id": 1135136232, "center": {"lat": 29.6168278, "lon": 106.3495934}, "nodes": [10581524763, 10581524764, 10581524765, 10581524766, 10581524767, 10581524763], "tags": {"amenity": "kindergarten", "name": "重庆第二师范学院附属第二幼儿园"}}, {"type": "way", "id": 1138269897, "center": {"lat": 29.6444401, "lon": 106.3605362}, "nodes": [10610599615, 10610599616, 10610599617, 10610599618, 10610599619, 10610599620, 10610599621, 10610599622, 10610599623, 10610599624, 10610599625, 10610599626, 10610599627, 10610599615], "tags": {"amenity": "school", "name": "树人崇文小学"}}, {"type": "way", "id": 1138774882, "center": {"lat": 29.5738237, "lon": 106.3696678}, "nodes": [10615007649, 10615007659, 10615007658, 10615007650, 10615007651, 10615007655, 10615007656, 10615007657, 10615007652, 10615007653, 10615007654, 10615007649], "tags": {"amenity": "kindergarten", "name": "西永铭豪幼儿园"}}, {"type": "way", "id": 1138774912, "center": {"lat": 29.5773824, "lon": 106.3678881}, "nodes": [10615031492, 10615031493, 10615031503, 10615031506, 10615031494, 10615031505, 10615031504, 10615031495, 10615031500, 10615031492], "tags": {"amenity": "school", "name": "高新区西永第一小学"}}, {"type": "way", "id": 1138774914, "center": {"lat": 29.5782884, "lon": 106.3682066}, "nodes": [10615031500, 10615031501, 10615031508, 10615031507, 10615031502, 10615031495, 10615031500], "tags": {"amenity": "kindergarten", "name": "西永一小幼儿园"}}, {"type": "way", "id": 1143883367, "center": {"lat": 29.6021576, "lon": 106.3110122}, "nodes": [10648458446, 10648458447, 10648458448, 10648458449, 10648458450, 10648458451, 10648458452, 10648458453, 10648458454, 10648458455, 10648458456, 10648458446], "tags": {"amenity": "school", "name": "重庆科学城南开小学"}}, {"type": "way", "id": 1145041515, "center": {"lat": 29.6207862, "lon": 106.3242895}, "nodes": [4139252356, 10657034008, 10657034010, 10657034011, 10657034009, 1192616546, 4139252352, 4139252355, 4139252356], "tags": {"amenity": "college", "name": "重庆建筑科技职业学院"}}, {"type": "way", "id": 1155981333, "center": {"lat": 29.644962, "lon": 106.3484897}, "nodes": [10750232278, 10750232279, 10750232280, 10750232249, 10750232281, 10750232278], "tags": {"amenity": "kindergarten", "name": "巴蜀实验蒙世幼儿园"}}, {"type": "way", "id": 1171515822, "center": {"lat": 29.6836706, "lon": 106.3674712}, "nodes": [10886002519, 10886002520, 10886002521, 10886002532, 10886002522, 10886002523, 10886002524, 10886002519], "tags": {"amenity": "school", "name": "沙坪坝区五云实验学校"}}, {"type": "way", "id": 1199759504, "center": {"lat": 29.6003969, "lon": 106.2821024}, "nodes": [9436799693, 11127340160, 11127340161, 11127340162, 11127340163, 11127340164, 11127340165, 9436799694, 9436799693], "tags": {"amenity": "school", "name": "大学城树人第二小学校"}}, {"type": "way", "id": 1203515674, "center": {"lat": 29.5959835, "lon": 106.4422552}, "nodes": [11156192038, 11156192039, 11156192040, 11156192041, 11156192042, 11156192043, 11156192044, 11156192045, 11156192046, 11156192047, 11156192038], "tags": {"amenity": "school", "name": "沙坪坝区沙滨学校", "name:en": "Shapingba District Shabin School", "name:zh": "沙坪坝区沙滨学校"}}, {"type": "way", "id": 1215085325, "center": {"lat": 29.6229151, "lon": 106.3623654}, "nodes": [11257777251, 11257777252, 11257777253, 11257777254, 11257777255, 11257777256, 11257777257, 11257777258, 11257777259, 11257777251], "tags": {"amenity": "school", "name": "重庆科学城明远未来中学校"}}, {"type": "way", "id": 1224944908, "center": {"lat": 29.5885389, "lon": 106.2960395}, "nodes": [11359663135, 11359663136, 11359663137, 11359663138, 11359663139, 11359663140, 11359663141, 11359663146, 11359663142, 11359663143, 11359663144, 11359663145, 11359663135], "tags": {"amenity": "hospital", "healthcare": "hospital", "name": "重庆海吉亚肿瘤医院"}}, {"type": "way", "id": 1239671461, "center": {"lat": 29.5367963, "lon": 106.4484132}, "nodes": [9436814528, 9436814529, 9436814530, 9436814531, 9436814534, 9436814542, 11516814978, 11516814979, 11516814980, 11516814981, 9436814556, 9436814557, 9436814558, 9436814599, 11516814985, 11516814986, 11516814987, 11516814988, 12209093537, 12209093536, 11516814989, 11516814990, 11516814991, 11516814992, 9436814528], "tags": {"amenity": "university", "landuse": "military", "name": "陆军军医大学", "old_name": "第三军医大学", "old_ref": "3", "wikidata": "Q7784898"}}, {"type": "way", "id": 1243735225, "center": {"lat": 29.6212236, "lon": 106.3027018}, "nodes": [11560071364, 11560071365, 4139252249, 4139252248, 768678258, 4139252247, 9952461727, 11560095187, 12211544273, 12211544274, 11560095186, 11560071364], "tags": {"amenity": "hospital", "healthcare": "hospital", "name": "重庆医科大学附属大学城医院", "official_name": "重庆医科大学附属大学城医院"}}, {"type": "way", "id": 1266179890, "center": {"lat": 29.5734953, "lon": 106.418219}, "nodes": [11761438271, 11761438272, 11761438273, 11761438274, 11761438275, 11761438276, 11761438277, 11761438271], "tags": {"amenity": "school", "name": "重庆西藏中学"}}, {"type": "way", "id": 1266179895, "center": {"lat": 29.5707605, "lon": 106.4154949}, "nodes": [11761438300, 11761438301, 11761438302, 11761438303, 11761438307, 11761438304, 11761438305, 11761438300], "tags": {"amenity": "school", "name": "歌乐山小学"}}, {"type": "way", "id": 1270920564, "center": {"lat": 29.6035352, "lon": 106.2840344}, "nodes": [9176434723, 11802375024, 11802375025, 11802375020, 11802375021, 11802375023, 11802375022, 9176434723], "tags": {"amenity": "kindergarten", "name": "科学城中科启智幼儿园"}}, {"type": "way", "id": 1279907044, "center": {"lat": 29.6755183, "lon": 106.2963607}, "nodes": [11881300555, 11881300554, 11881300556, 11881300557, 11881300558, 11881300559, 11881300560, 11881300561, 11881300562, 11881300563, 11881300564, 11881300565, 11881300566, 11881300567, 11881300568, 11881300569, 11881300570, 11881300555], "tags": {"amenity": "school", "name": "青木关中学"}}, {"type": "way", "id": 1282914801, "center": {"lat": 29.6778387, "lon": 106.3011169}, "nodes": [11904573513, 11904573514, 11904573516, 11904573515, 11904573513], "tags": {"amenity": "kindergarten", "name": "青木关第一幼儿园"}}, {"type": "way", "id": 1305963084, "center": {"lat": 29.5789016, "lon": 106.454787}, "nodes": [12095407334, 12095407335, 12095407336, 12095407337, 12095407338, 12095407339, 12095407340, 12095407341, 12095407342, 12095407343, 12095407344, 12095407345, 12095407334], "tags": {"amenity": "school", "name": "树人沙磁小学"}}, {"type": "way", "id": 1307032950, "center": {"lat": 29.6214811, "lon": 106.3349552}, "nodes": [12104249366, 12104249367, 12104249368, 12104249369, 12104249370, 12104249371, 12104249372, 12104249373, 12104249374, 12104249375, 12104249366], "tags": {"amenity": "police", "building": "yes", "name": "陈家桥派出所"}}, {"type": "way", "id": 1312375936, "center": {"lat": 29.625934, "lon": 106.3316158}, "nodes": [12147277863, 12147277864, 12147277865, 12147277866, 12147277867, 12147277868, 12147277863], "tags": {"amenity": "school", "name": "大学城一小"}}, {"type": "way", "id": 1314367855, "center": {"lat": 29.521531, "lon": 106.44003}, "nodes": [12165528697, 12165528680, 12165528692, 12165528691, 12165528690, 12165528700, 12165528701, 12165528697], "tags": {"amenity": "driving_school", "name": "仁义驾校凤鸣山总校"}}, {"type": "way", "id": 1319606968, "center": {"lat": 29.5632188, "lon": 106.4716107}, "nodes": [12211583436, 12211583437, 12211583438, 12211583451, 12211583439, 12211583440, 12211583441, 12211583442, 12211583443, 12211583444, 12211583445, 12211583446, 12211583448, 12211583447, 12211583436], "tags": {"amenity": "hospital", "healthcare": "hospital", "name": "重庆大学附属肿瘤医院"}}, {"type": "way", "id": 1323610387, "center": {"lat": 29.5311064, "lon": 106.456696}, "nodes": [12248243912, 12248243913, 12248243914, 12248243915, 12248243916, 12248243917, 12248243918, 12248243912], "tags": {"amenity": "school", "name": "名校联合外语小学"}}, {"type": "way", "id": 1335993294, "center": {"lat": 29.6130491, "lon": 106.4471884}, "nodes": [12358439521, 12358439522, 12358439523, 12358439524, 12358439525, 12358439526, 12358439527, 12358439528, 12358439529, 12358439521], "tags": {"amenity": "kindergarten", "name": "沙坪坝区嘉陵幼儿园"}}, {"type": "way", "id": 1335993297, "center": {"lat": 29.6133401, "lon": 106.4494224}, "nodes": [12358439557, 12358439558, 12358439559, 12358439560, 12358439561, 12358439562, 12358439567, 12358439563, 12358439564, 12358439565, 12358439566, 12358439557], "tags": {"amenity": "school", "name": "嘉陵小学"}}, {"type": "way", "id": 1356697024, "center": {"lat": 29.6859348, "lon": 106.3134528}, "nodes": [12556695643, 12556695644, 12556695645, 12556695646, 12556695647, 12556695648, 12556695649, 12556695650, 12556695651, 12556695652, 12556695653, 12556695654, 12556695655, 12556695643], "tags": {"amenity": "school", "name": "沙坪坝区凤凰实验学校"}}, {"type": "way", "id": 1356697025, "center": {"lat": 29.687296, "lon": 106.3141654}, "nodes": [12556695653, 12556695656, 12556695657, 12556695658, 12556695659, 12556695651, 12556695652, 12556695653], "tags": {"amenity": "kindergarten", "name": "凤凰实验幼儿园"}}, {"type": "way", "id": 1356697030, "center": {"lat": 29.6743757, "lon": 106.3099073}, "nodes": [12556695685, 12556695686, 12556695687, 12556695688, 12556695689, 12556695685], "tags": {"amenity": "school", "name": "青木关镇小学校"}}, {"type": "way", "id": 1390068356, "center": {"lat": 29.5442812, "lon": 106.4522917}, "nodes": [12866786896, 12866786900, 12866789401, 12866789402, 12866789403, 12866786899, 12866786898, 12866786897, 12866786896], "tags": {"amenity": "police", "name": "重庆市公安局沙坪坝分局", "name:zh": "重庆市公安局沙坪坝分局"}}, {"type": "way", "id": 1396230694, "center": {"lat": 29.5767748, "lon": 106.4199104}, "nodes": [12923323585, 12923323586, 12923323587, 12923323588, 12923323589, 12923323590, 12923323591, 12923323592, 12923323593, 12923323594, 12923323595, 12923323596, 12923323597, 12923323598, 12923323599, 12923323600, 12923324301, 12923324302, 12923324303, 12923323585], "tags": {"alt_name": "重庆歌乐山传染病医院", "amenity": "hospital", "healthcare": "hospital", "name": "重庆市公共卫生医疗救治中心"}}, {"type": "way", "id": 1463604862, "center": {"lat": 29.6094287, "lon": 106.3465726}, "nodes": [13425536236, 13425536237, 13425536238, 13425536239, 13425536236], "tags": {"amenity": "kindergarten", "education": "kindergarten"}}, {"type": "way", "id": 1465785267, "center": {"lat": 29.5533503, "lon": 106.4670579}, "nodes": [13444728097, 13444728098, 13444728099, 13444728100, 13444728101, 13444728102, 13444728103, 13444728104, 13444728105, 13444728106, 13444728107, 13444728108, 13444728109, 13444728110, 13444728111, 13444728112, 13444728113, 13444728114, 13444728115, 13444728116, 13444728117, 13444728097], "tags": {"amenity": "hospital", "healthcare": "hospital", "name": "重庆市公共卫生医疗救治中心平顶山院区", "name:zh": "重庆市公共卫生医疗救治中心平顶山院区"}}, {"type": "way", "id": 1465785273, "center": {"lat": 29.5530481, "lon": 106.4628938}, "nodes": [13444728209, 13444728210, 13444728211, 13444728212, 13444728213, 13444728214, 13444728215, 13444728216, 13444728217, 13444728209], "tags": {"amenity": "school", "education": "school", "name": "沙坪坝区第一实验小学校", "name:en": "Shapingba District No.1 Experimental Primary School", "name:zh": "沙坪坝区第一实验小学校"}}, {"type": "way", "id": 1465788583, "center": {"lat": 29.5787964, "lon": 106.4472676}, "nodes": [13444763944, 13444763945, 13444853452, 13444853453, 13444853454, 13444853455, 13444763946, 13444763947, 13444763948, 13444763949, 13444853450, 13444853451, 13444763950, 13444763951, 13444763952, 13444763953, 13444763954, 13444763955, 13444763956, 13444763957, 13444763958, 13444763959, 13444763960, 13444763961, 13444763962, 13444763963, 13444763964, 13444763966, 13444763967, 13444763965, 13444763968, 13444763969, 13444763970, 13444763971, 13444763972, 13444763973, 13444763974, 13444763975, 13444763976, 13444763977, 13444763944], "tags": {"amenity": "school", "education": "school", "name": "重庆市第七中学校（沙磁校区）", "name:en": "Chongqing No.7 Middle School (Shaci Campus)", "name:zh": "重庆市第七中学校（沙磁校区）"}}, {"type": "way", "id": 1467282273, "center": {"lat": 29.5470958, "lon": 106.4367902}, "nodes": [13458058838, 13458058778, 13458058779, 13458058780, 13458058781, 13458058782, 13458058783, 13458058784, 13458058839, 13458058838], "tags": {"amenity": "school", "education": "school", "name": "融汇沙坪坝小学", "name:en": "Ronghui-Shapingba Primary School", "name:zh": "融汇沙坪坝小学"}}, {"type": "way", "id": 1467285791, "center": {"lat": 29.5314962, "lon": 106.4449091}, "nodes": [13458086714, 13458086715, 13458086716, 13458086717, 13458086718, 13458086719, 13458086720, 13458086721, 13458086722, 13458086723, 13458086724, 13458086725, 13458086726, 13458086727, 13458086728, 13458086729, 13458086730, 13458086731, 13458086732, 13458086733, 13458086734, 13458086735, 13458086736, 13458086741, 13458086737, 13458086738, 13458086740, 13458086739, 13458086714], "tags": {"amenity": "school", "education": "school", "name": "重庆市凤鸣山中学", "name:en": "Chongqing Fengmingshan Middle School", "name:zh": "重庆市凤鸣山中学"}}]}